   ,DISCODE,DISNAME,OFFICECODE,OFFICENAME,SHOPADDR,BOSS,CITY,POSTCODE,lat,lng
1,1001384,四川省绵竹市蒲昌清,1001,四川直营办事处,四川省德阳市绵竹市中心广场,蒲昌清,绵竹市,618200,31.43665731,104.1292939
2,1001385,四川省罗江县杨秀全,1001,四川直营办事处,四川省德阳市罗江县十字街二楼,杨秀全,罗江县,618500,31.32026519,104.5354103
3,1001386,四川省中江县胡海燕,1001,四川直营办事处,四川省德阳市中江县伍城北路193号,胡海燕,中江县,618100,31.05038012,104.6873565
4,1001388,四川省绵阳市郑成军,1001,四川直营办事处,四川省绵阳市百货大楼二、三楼,郑成军,绵阳市涪城区,621000,31.64990953,104.4261201
5,1001389,四川省平武县肖理仕,1001,四川直营办事处,四川省绵阳市平武县报恩寺休闲广场旁二楼,肖理仕,平武县,622550,32.41486494,104.5399484
6,1001392,四川省梓潼县白礼模,1001,四川直营办事处,四川省绵阳市梓潼县新世纪广场,白礼模,510700,622150,31.653621,105.1938342
7,1001393,四川省盐亭县许洪,1001,四川直营办事处,四川省绵阳市盐亭县汇丰休闲广场,许洪,盐亭县,621600,31.22752894,105.3993812
8,1001394,四川省三台县左天保,1001,四川直营办事处,四川省绵阳市三台县银杏路喜洋洋广场一区,左天保,510700,621100,31.08928239,105.0856418
9,1001395,四川省广元市利州区邹献东,1001,四川直营办事处,四川省广元市利州区新华街文化大厦二三楼,邹献东,广元市利州区,628017,32.44572716,105.8293928
10,1001396,四川省剑阁县罗跃春,1001,四川直营办事处,四川省广元市剑阁县农贸市场烟草公司旁,罗跃春,剑阁县,628300,31.92194773,105.503021
11,1001397,四川省苍溪县陈琦,1001,四川直营办事处,苍溪县解放路下段（翠屏家园斜对面）,陈琦,苍溪县,628400,28.81581998,104.6932546
12,1001398,四川省巴中市任波,1001,四川直营办事处,四川省巴中市东方鑫村商贸物业园全友家私,任波,巴中市,624100,31.85622135,106.7829537
13,1001399,四川省南江县范康,1001,四川直营办事处,四川省南江县红四门市场二楼,范康,南江县,624411,32.33723921,106.836181
14,1001400,四川省通江县王明寿,1001,四川直营办事处,四川省巴中市通江县诺江镇北街1号,王明寿,511900,624411,31.91928749,107.2519919
15,1001401,平昌映发商贸有限公司,1001,四川直营办事处,四川省巴中市平昌县汉王庙新区巴河水电公司,董光映,511900,623300,31.58147013,107.1031062
16,1001402,四川省达州市李洪梅,1001,四川直营办事处,四川省达州市西外景西华庭2楼全友家私,李洪梅,达州市,636200,31.20705905,107.4659889
17,1001403,四川省万源市唐致溥,1001,四川直营办事处,四川省达州市万源市和平路53#,唐致溥,万源市,610000,32.07477656,108.045164
18,1001405,四川省开江县李洪梅,1001,四川直营办事处,四川省达州市开江县清河广场F幢3楼,李洪梅,开江县,636200,31.0515873,107.8910119
19,1001406,四川省大竹县夏廷兵,1001,四川直营办事处,四川省达州市大竹县黑豹家具老库房,夏廷兵,大竹县,636250,30.69077238,107.2798774
20,1001407,四川省渠县陈凤琼,1001,四川直营办事处,四川省达州市渠县后溪街旱桥步行街西山花园二楼,陈凤琼,渠县,635200,30.84220394,106.9752581
21,1001413,四川省南充市顺庆区田远平,1001,四川直营办事处,四川省南充市丝绸大世界东区温馨港二楼,田远平,南充市顺庆区,625200,30.80131747,106.0821992
22,1001416,四川省南部县邓安俊,1001,四川直营办事处,四川省南充市南部县工业园区,邓安俊,南部县,625200,31.34980287,105.9235138
23,1001417,四川省西充县吴克弟,1001,四川直营办事处,四川省西充县晋城大道三段川北宾馆对面二楼,吴克弟,西充县,625400,31.0025936,105.8967639
24,1001418,四川省蓬安县钟永川,1001,四川直营办事处,四川省蓬安县抚琴大道全友家私,钟永川,蓬安县,625200,31.02930035,106.4274831
25,1001419,四川省营山县管国民,1001,四川直营办事处,四川省营山县三星路工业园区,管国民,511300,626300,31.1623228,106.718527
26,1001421,四川省射洪县向忠诚,1001,四川直营办事处,四川省遂宁市射洪县洪桥路222＃红桥一.二楼,向忠诚,射洪县,629200,30.90807863,105.3882446
27,1001422,四川省蓬溪县陈永林,1001,四川直营办事处,四川省遂宁市蓬溪县赤城镇映月街富安花园（也就是县政府对面）,陈永林,蓬溪县,629000,30.78282961,105.7179989
28,1001423,四川省资阳市廖文周,1001,四川直营办事处,四川省资阳市九曲花园（原佳家超市3楼）,廖文周,资阳市,611630,29.7415611,104.4935184
29,1001424,四川省简阳市蔡作林,1001,四川直营办事处,四川省资阳市简阳市阳晨商业广场,蔡作林,512000,621701,30.39190575,104.5491616
30,1001425,四川省乐至县廖文周,1001,四川直营办事处,四川省资阳市乐至县中心商业街二楼,廖文周,512000,611630,30.31394464,105.0283158
31,1001426,四川省安岳县陈文君,1001,四川直营办事处,四川省资阳市安岳县王家坝东大街16号,陈文君,安岳县,625500,30.10987725,105.348523
32,1001427,【定制销售本部】四川省眉山市李强,1001,四川直营办事处,四川省眉山市东坡区二环东路395号,李强,眉山市,620000,30.05240932,103.8570515
33,1001429,四川省丹棱县黄如进,1001,四川直营办事处,四川省眉山市丹棱县唢呐广场北京华联（时代商厦）2楼,黄如进,丹棱县,620600,30.01725498,103.5213273
34,1001430,四川省青神县刘爱军,1001,四川直营办事处,四川省青神县50米大道康苑世纪城,刘爱军,青神县,612460,29.84504731,103.8562144
35,1001432,四川省彭山县罗永贵,1001,四川直营办事处,四川省眉山市彭山县彭祖大道全友家私,罗永贵,511400,620860,30.20897324,103.8789152
36,1001436,四川省隆昌县韩仁辉,1001,四川直营办事处,四川省内江市隆昌县立交桥头恒泰综合楼二楼,韩仁辉,隆昌县,642150,29.36786875,105.2529577
37,1001437,四川省自贡市自流井区李润才,1001,四川直营办事处,四川省自贡市自由路大富豪家私城,李润才,510300,643000,29.35979151,104.7727653
38,1001438,四川省荣县郝光旭,1001,四川直营办事处,四川省自贡市荣县桂林街心花园,郝光旭,荣县,643100,29.3989785,104.3724079
39,1001441,四川省泸州市纳溪区黄辉明,1001,四川直营办事处,四川省泸州市纳溪区阳光商城一楼,黄辉明,泸州市纳溪区,646300,28.61404137,105.3906056
40,1001442,四川省泸县胡学清,1001,四川直营办事处,四川省泸州市泸县花园白领家俱城一楼,胡学清,510500,646100,29.12491997,105.5082673
41,1001443,四川省合江县王亨均,1001,四川直营办事处,四川省泸州市合江县少岷广场二楼,王亨均,510500,646200,28.81190227,105.8416748
42,1001446,四川省宜宾市赵同宾,1001,四川直营办事处,四川省宜宾市真武路27号城,赵同宾,宜宾市,644400,28.771006,104.621766
43,1001447,四川省江安县陈楷,1001,四川直营办事处,四川省宜宾市江安县竹海商城二楼,陈楷,江安县,644200,28.73167778,105.0796986
44,1001448,四川省长宁县张勇,1001,四川直营办事处,四川省宜宾市长宁县电力大道,张勇,511500,644300,28.51543379,104.9311486
45,1001449,四川省南溪县曾建华,1001,四川直营办事处,四川省宜宾市南溪区西区金盛综合市场2楼,曾建华,南溪县,644600,28.89721649,104.9414534
46,1001452,四川省筠连县张云龙,1001,四川直营办事处,四川省宜宾市筠连县县城定水路市场,张云龙,筠连县,645250,28.16505385,104.5082945
47,1001453,四川省高县黄亚兰,1001,四川直营办事处,四川省宜宾市高县庆符镇通道口,黄亚兰,511500,646154,28.44210783,104.5308838
48,1001457,四川省乐山市沙湾区曹洪彬,1001,四川直营办事处,四川省乐山市沙湾区德胜大道商场二楼,曹洪彬,乐山市沙湾区,614900,29.4191649,103.5587853
49,1001459,四川省井研县朱四文,1001,四川直营办事处,四川省乐山市井研县城西街2号,朱四文,井研县,613100,29.66445775,104.070888
50,1001461,四川省犍为县江成纲,1001,四川直营办事处,四川省乐山市犍为县漱玉大道商场一二楼,江成纲,犍为县,614400,29.2311905,103.9801985
51,1001462,四川省沐川县朱志勤,1001,四川直营办事处,四川省乐山市沐川县东门市场3号楼2楼,朱志勤,沐川县,614400,29.00690508,103.8265027
52,1001463,四川省西昌市王远玲,1001,四川直营办事处,四川省西昌市凯乐路1库,王远玲,西昌市,615000,27.89543119,102.2455848
53,1002742,四川省珙县王兴全,1001,四川直营办事处,四川省珙县k都大酒店对面二楼全友家居,王兴全,,,28.4555839,104.7193335
54,1002765,四川省金堂县董勇,1001,四川直营办事处,四川省成都市金堂县十里大道二段天然气大楼,董勇,,,30.86760379,104.4153215
55,1002768,四川省遂宁市安居镇吴立华,1001,四川直营办事处,四川省遂宁市安居区安居镇琼江中路商业中心,吴立华,,,30.35386533,105.4668283
56,1003116,【定制销售本部】四川省都江堰市曹小凤,1001,四川直营办事处,四川省都江堰市观景路一段-定制,曹小凤,,,30.9997823,103.6401153
57,1003085,【定制销售本部】四川省温江区胡卫芳,1001,四川直营办事处,四川省成都市温江区新博美装饰城C区31号-定制,胡卫芳,,,30.68839018,103.872352
58,1002766,四川省郫县魏鑫,1001,四川直营办事处,四川省成都市郫县望丛东路一里阳光街口全友家居,魏鑫,,,30.80606335,103.9043174
59,1002878,四川省绵阳市永兴镇赵昌军,1001,四川直营办事处,四川省绵阳市永兴镇,赵昌军,,,31.46492122,104.6446519
60,1003076,【定制销售本部】四川省乐山市李华东,1001,四川直营办事处,四川省乐山市通江檀木嘴村一组-定制,曾宾,,,29.63839681,103.7470726
61,1002630,四川省峨眉山市马莲枝,1001,四川直营办事处,四川省峨眉山市胜利镇桑园小区45号,马莲枝,,,29.5981921,103.516615
62,1002700,四川省叙永县袁泽连,1001,四川直营办事处,四川省泸州市叙永县富丽大厦三楼,袁泽连,,,28.16476573,105.4528588
63,1002716,四川省凉山州雷波县蒋廷友,1001,四川直营办事处,四川省雷波县外东街农贸市场,蒋廷友,,,28.27934073,103.5125047
64,1003070,【定制销售本部】四川省江油市包红利,1001,四川直营办事处,四川省绵阳市江油市太百广场建材市场51-53号-定制,苏红,,,31.95242667,104.9331493
65,1002923,四川省郫县安德镇刘海花,1001,四川直营办事处,四川省郫县安德镇德兴街,刘海花,,,30.87968336,103.8096685
66,1002502,四川省内江市资中县李水国,1001,四川直营办事处,四川省内江市资中县建兴市场,李水国,,,29.77833599,104.8511673
67,1002515,四川省新津县李洪飞,1001,四川直营办事处,四川省成都市新津县武阳中路10号荣达大厦二楼全友家居,李洪飞,,,30.41796801,103.8189747
68,1002549,四川省石棉县胡雪峰,1001,四川直营办事处,四川省雅安市石棉县解放路一段,胡雪峰,,,29.24280688,102.3664466
69,1002569,四川省金堂县淮口镇易会兰,1001,四川直营办事处,四川省金堂县淮口镇,易会兰,,,30.72299797,104.5505226
70,1002319,四川省德阳市孝泉镇叶建,1001,四川直营办事处,四川德阳市孝德镇新城（家得利超市隔壁）,叶建,,,31.34844696,104.2103408
71,1002561,四川省名山县李程平,1001,四川直营办事处,四川省雅安市名山县月华山居,李程平,,,30.09238506,103.1172608
72,1002051,四川省餮粽蛘诺戮,1001,四川直营办事处,四川省彭州市餮粽餮粜鲁侨友家私,张德军,510100,610000,30.9898478,103.948633
73,1002141,四川省礼州镇王远玲,1001,四川直营办事处,西昌市礼州镇高速路出口全友家居,王远玲,,,28.05273376,102.1885206
74,1002278,四川省米易县王远玲,1001,四川直营办事处,四川省米易县二桥头睿龙花园,王远玲,,,26.90246679,102.1138477
75,1002282,四川省厚坝镇殷开强,1001,四川直营办事处,四川省绵阳市江油市厚坝镇龙王井街148号,,,,31.93986237,104.8380559
76,1002855,四川省双流县李洪飞,1001,四川直营办事处,四川省双流县藏卫路中段22号（大市场对面）,李洪飞,,,30.5768683,103.9306494
77,1001972,四川省大英县李科,1001,四川直营办事处,四川省遂宁市大英县西转盘同心路宏达大厦,李科,大英县,629300,30.58927212,105.2512493
78,1001989,四川省安县冯三蓉,1001,四川直营办事处,四川省绵阳市安县花街广厦市场二楼,冯三蓉,安县,644000,31.53975478,104.5709219
79,1002007,四川省仁寿县孙善坤,1001,四川直营办事处,四川省眉山市仁寿县新车站万年红家私,孙善坤,仁寿县,620500,30.02842102,103.9877058
80,1002018,四川省兴文县牟小勤,1001,四川直营办事处,四川省宜宾市兴文县古宋镇城西雅苑底楼,牟小勤,511500,644401,28.3101783,105.2474867
81,1001465,四川省冕宁县喻传利,1001,四川直营办事处,四川省凉山彝族自治州冕宁县长征路四大班子对面二楼,喻传利,冕宁县,615600,28.51485866,102.0689141
82,1001466,四川省越西县黄绍林,1001,四川直营办事处,四川省凉山彝族自治州越西县三岔口二楼商场,黄绍林,越西县,616650,28.5921905,102.6286813
83,1001467,四川省喜德县高云,1001,四川直营办事处,四川省凉山州喜德县光明大道,高云,喜德县,616750,28.30966375,102.416918
84,1001468,四川省昭觉县刘明怀,1001,四川直营办事处,四川省凉山彝族自治州昭觉县商场二楼,刘明怀,昭觉县,616150,28.01371914,102.8328179
85,1001469,四川省德昌县徐梓铭,1001,四川直营办事处,四川省凉山彝族自治州德昌县曹家碾青云商场104号,徐梓铭,德昌县,646154,27.33119418,102.1917344
86,1001470,四川省宁南县伍帮才,1001,四川直营办事处,四川省凉山彝族自治州宁南县白鹤滩大道南段148号,伍帮才,宁南县,615400,27.07124861,102.7579526
87,1001471,四川省盐源县苏丙文,1001,四川直营办事处,四川省凉山彝族自治州盐源县润盐东街,苏丙文,盐源县,615700,27.4324825,101.5246329
88,1001472,四川省会理县黄芸,1001,四川直营办事处,四川省凉山彝族自治州会理县顺城路595号商场场,黄芸,会理县,614800,26.5913008,102.2639271
89,1001473,四川省会东县危坤志,1001,四川直营办事处,四川省凉山彝族自治州会东县直属小学对面商场,危坤志,会东县,615200,26.63513526,102.5893893
90,1001477,（四川办）重庆市城口县伍良萍,1001,四川直营办事处,重庆市城口县南街南大街,伍良萍,城口县,405900,31.95089362,108.6754152
91,1001863,四川省北川县龙显翠,1001,四川直营办事处,四川省绵阳市北川县安昌镇安州大道,龙显翠,510700,622750,31.6486035,104.4251866
92,1002861,（四川办）云南省水富县邹俊,1001,四川直营办事处,云南省昭通市水富县临江路滨江花园全友家居,邹俊,,,28.6405198,104.4195824
93,30022,四川省彭州市直营店2013,1001,四川直营办事处,四川省彭州市天彭镇调露小区调露寺东路10#,徐玉鹏,,,30.99005475,103.9697565
94,1001409,四川省邻水县刘乾明,1001,四川直营办事处,四川省邻水工业园华讯电子厂,刘乾明,邻水县,638500,30.26328399,107.0033336
95,1001410,四川省华蓥市曾国强,1001,四川直营办事处,四川省广安市华蓥市蓥光支路,曾国强,华蓥市,638650,30.32183238,106.759412
96,1001411,四川省岳池县龙绪平,1001,四川直营办事处,四川省广安市岳池县南外街54#,龙绪平,岳池县,638300,30.53625203,106.4455772
97,1001345,四川省成都市青白江区刘玉彬,1001,四川直营办事处,四川省成都市青白江区华金大道224号,刘玉彬,成都市青白江区,610300,30.88389893,104.2799983
98,1001346,四川省成都市金牛区黄娟,1001,四川直营办事处,四川省成都市金牛区金牛坝18号西都家私广场,黄娟,成都市金牛区,61000,30.71826775,104.0244698
99,1001347,四川省成都市新都区孟天伦,1001,四川直营办事处,四川省成都新都区电子路518号,孟天伦,成都市新都区,610500,30.81977925,104.1682441
100,1001348,四川省新都区大丰镇张友宽,1001,四川直营办事处,四川省成都市新都区大丰镇全友家私,张友宽,新都区大丰镇,625400,30.76197884,104.0616346
101,1001352,四川省康定县陶福祥1,1001,四川直营办事处,四川省甘孜藏族自治州康定县小百货公司二楼,陶福祥,康定县,626000,29.95798935,101.7553306
102,1001354,四川省丹巴县王绍华,1001,四川直营办事处,四川省甘孜藏族自治州丹巴县文化馆底楼,王绍华,丹巴县,626300,30.96707434,101.7523977
103,1001356,四川省金川县周运,1001,四川直营办事处,四川省阿坝藏族羌族自治州金川县新街13号,周运,金川县,624100,31.48207662,102.0705104
104,1001359,四川省九寨沟县张永清,1001,四川直营办事处,四川省阿坝藏族羌族自治州九寨沟县新区城,张永清,九寨沟县,623400,33.3174465,103.9340438
105,1001361,四川省汶川县李莉君,1001,四川直营办事处,四川省阿坝藏族羌族自治州汶川县岷闲居花园一楼全友家私,李莉君,汶川县,624411,31.47985389,103.5855326
106,1001363,四川省雅安市李绍安,1001,四川直营办事处,四川省雅安市新民街金星商场51＃,李绍安,雅安市,625000,29.98780363,103.0140057
107,1001364,四川省宝兴县穆坪镇谢洪春,1001,四川直营办事处,四川省雅安市宝兴县穆坪镇二和口街,谢洪春,宝兴县穆坪镇,625700,30.37570782,102.820556
108,1001365,四川省天全县杨辅仁,1001,四川直营办事处,四川省雅安市天全县城厢真建材北路,杨辅仁,天全县,625500,30.06486243,102.7718035
109,1001366,四川省荥经县刘凯,1001,四川直营办事处,四川省雅安市荥经县金河广场二楼,刘凯,荥经县,625200,29.80058912,102.8521573
110,1001368,四川省芦山县佘锦红,1001,四川直营办事处,四川省雅安市芦山县玉溪花园小区二楼,佘锦红,芦山县,625600,30.44028157,103.0180988
111,1001370,四川省崇州市怀远镇陈刚强,1001,四川直营办事处,四川省崇州市怀远镇老东门一二楼全友家私,陈刚强,510100,611230,30.74443403,103.5404896
112,1001371,四川省都江堰市周勇,1001,四川直营办事处,四川省都江堰市一环路胥家路口,周勇,都江堰市,611830,31.00121733,103.6407759
113,1001373,四川省彭州市敖平镇周贤富,1001,四川直营办事处,四川省成都市彭州县敖平镇敖兴街49号,周贤富,彭州市敖平镇,611931,31.09803588,103.9948633
114,1001376,四川省邛崃市封丽江,1001,四川直营办事处,四川省成都市邛崃市五彩广场（联华超市三楼）,封丽江,510100,625000,30.42049191,103.469065
115,1001377,四川省蒲江县彭谋,1001,四川直营办事处,四川省成都市蒲江县驭虹路55号,彭谋,蒲江县,611630,30.20149556,103.5199495
116,1001380,四川省双流县华阳镇张琴1,1001,四川直营办事处,四川省成都市双流县华阳镇长江街一楼商场,张琴,510100,610000,30.51398137,104.0670289
117,1003802,四川省乐山市五通桥区张克清,1001,四川直营办事处,四川省乐山市五通桥区涌江路,张克清,,,29.42373351,103.8204983
118,1003811,四川省凉山州普格县向金凤,1001,四川直营办事处,四川省凉山州普格县新建南路148号,向金凤,,,27.37933528,102.5494442
119,1003663,四川省宜宾县李场镇吴凌云,1001,四川直营办事处,四川省宜宾县李场镇大塔乡新农贸市场口,吴凌云,,,28.88385664,104.4436961
120,1003793,【定制销售本部】四川省平武县陆懿,1001,四川直营办事处,四川省平武县飞龙路中段开发区,陆懿,,,32.41643195,104.5473156
121,1003664,四川省广汉市陈梅生,1001,四川直营办事处,四川省德阳市广汉市浪度九洲城,陈梅生,,,31.00648088,104.2984758
122,1003837,四川省泸州市欧阳源雄（新）,1001,四川直营办事处,四川省泸州市龙马潭区移动大楼背后负三层,欧阳源雄,,,28.98746024,105.4378417
123,1003775,四川省成都市犀浦镇黄娟,1001,四川直营办事处,四川省成都市金牛区金牛坝路20号全友家居,黄娟,,,30.71837393,104.0244847
124,1003733,【定制销售本部】四川省成都市金牛区赵聪灵,1001,四川直营办事处,四川省成都市金牛区凤凰立交红星美凯龙,赵聪灵,,,30.7294815,104.0815645
125,1003745,【定制销售本部】四川省遂宁市李红秋,1001,四川直营办事处,四川省遂宁市嘉禾西路近水楼台精品装饰城一楼,李红秋,,,30.52907567,105.5662747
126,1003799,四川省双流县白家镇蒲昌清,1001,四川直营办事处,四川省双流县航空港,蒲昌清,,,30.58071298,104.0028905
127,1003874,四川省宣汉县阳小芹,1001,四川直营办事处,四川省达州市宣汉县新桥路丽都花园3楼,阳小芹,,,31.36187028,107.7234638
128,1003885,四川省剑阁县下寺镇李春全,1001,四川直营办事处,四川省剑阁县下寺镇剑门大道世纪华联超市三四楼,李春全,,,32.2915456,105.5198653
129,1003649,【定制销售本部】四川省成都市新都区邓涛,1001,四川直营办事处,四川省成都市新都区桂水路273，275,邓涛,,,30.82132377,104.17287
130,1003880,【定制销售本部】四川省安岳县魏长春,1001,四川直营办事处,四川省安岳县王家坝滨河路3号,魏长春,,,29.99967727,105.4008758
131,1003536,【定制销售本部】四川省德阳市邹冬梅,1001,四川直营办事处,四川省德阳市长江西路二段33号,邹冬梅,,,31.13341993,104.3936497
132,1003351,【定制销售本部】四川省什邡李笃行,1001,四川直营办事处,四川省什邡市凯信恒瑞2－15-定制,李笃行,,,31.29369419,104.0198707
133,1003501,四川省泸县立石镇叶治刚,1001,四川直营办事处,四川省泸州市泸县立石镇尚都小区一楼,叶治刚,,,29.1524013,105.693524
134,1003596,四川省夹江县熊锡林,1001,四川直营办事处,四川省乐山市夹江县瓷都大道瓷都印象城,熊锡林,,,29.73367347,103.5882646
135,1003576,【定制销售本部】四川省成都市中和镇唐会娟,1001,四川直营办事处,四川省成都市中和大道三段,唐会娟,,,30.55135842,104.0878128
136,1003626,【定制销售本部】四川省罗江县王孟辉,1001,四川直营办事处,四川省德阳市罗江县纹江西路康庄花园4、5号,王孟辉,,,31.30996031,104.5105881
137,1003639,【定制销售本部】四川省武胜县陈林,1001,四川直营办事处,四川省武胜县六十米大街名族商业广场A区全友定制衣柜,陈林,,,30.37390454,106.2313662
138,1003640,【定制销售本部】四川省西充县黄晋,1001,四川直营办事处,四川省西充县晋城镇莲花路司法局对面2-3-8,黄晋,,,30.99908243,105.8954314
139,1003168,四川省龙泉驿区十陵镇李维群,1001,四川直营办事处,四川省成都市龙泉区十陵镇和平路66号,李维群,,,30.65664537,104.1840656
140,1003271,【定制销售本部】四川省新津县徐亚明,1001,四川直营办事处,四川省成都市新津县武阳西路154号,徐亚明,,,30.41892145,103.8138086
141,1003338,四川省成都市龙潭寺镇黄娟,1001,四川直营办事处,四川省成都市龙潭寺绕城旁中塑博美家居城二楼全友家居,黄娟,,,30.71837393,104.0244847
142,1003210,四川省阆中市杨杰,1001,四川直营办事处,四川省南充市阆中市柯家沟建材市场10区,杨杰,,,31.60211735,106.0780931
143,1003303,四川省仪陇县陈小平,1001,四川直营办事处,四川省仪陇县新政镇松海路118号,陈小平,,,31.28029365,106.3019006
144,1003256,【定制销售本部】四川省达州市王仲波,1001,四川直营办事处,"四川省达州市中青家居17-2-1(2,17,18)",王仲波,,,31.21419886,107.4949734
145,1003668,【定制销售本部】东方电机项目,1001,四川直营办事处,四川省德阳市黄河西路188号,蒲昌青,,,31.15289644,104.3990958
146,1003764,四川省小金县佯燕,1001,四川直营办事处,四川省阿坝州小金县河西街,佯燕,,,31.00426127,102.3710402
147,1003808,【定制销售本部】四川省天全县高红强,1001,四川直营办事处,四川省天全县文兴路5号,高红强,,,30.07887454,102.5783046
148,1003063,【定制销售本部】四川省自贡市陈林,1001,四川直营办事处,四川省自贡市川南建材市场D区,陈林,,,29.33834092,104.7473572
149,1003155,【定制销售本部】四川省宜宾市南溪区钟兰英,1001,四川直营办事处,四川省宜宾市南溪区长江大道西段民政局楼下,钟兰英,,,28.84551197,104.9807986
150,30023,四川省什邡市直营店,1001,四川直营办事处,四川省什邡市城南立交元石镇箭台村18组,郭斌,,,31.10879401,104.1831207
151,1003254,四川省成都市龙泉驿区谢燕,1001,四川直营办事处,四川省成都市龙泉驿区音乐广场锦宏时代商场,谢燕,,,30.56654644,104.2749814
152,1003300,【定制销售本部】四川省内江市张奎,1001,四川直营办事处,四川省内江市大千建材市场4号楼,张奎,,,29.59946153,105.073056
153,30028,四川省屏山县直营店1,1001,四川直营办事处,四川省宜宾市屏山县新县城石盘工业区,王顺刚,,,28.70242866,103.999118
154,1003221,四川省旺苍县范康,1001,四川直营办事处,四川省旺苍县新华路全友家居,范康,,,32.23466514,106.2948001
155,1003334,四川省郫县三道堰彭霖香,1001,四川直营办事处,四川省郫县三道堰郫彭路柏林河畔,彭霖香,,,30.87906581,103.9273475
156,1003169,四川省自贡市大安区牛佛镇范华琴,1001,四川直营办事处,四川省自贡市大安区牛佛镇张家坝社区居民委员会二组,范华琴,,,29.37659753,105.0383172
157,1003336,四川省洪雅县黄如进,1001,四川直营办事处,四川省洪雅县洪州大道金域蓝湾,黄如进,,,29.92085563,103.3726975
158,1003346,四川省威远县内江卓誉商贸有限责任公司,1001,四川直营办事处,四川省内江市威远县商业广场,林强,,,29.5995888,104.5939758
159,30032,四川省新繁镇香江CBD直营店2013,1001,四川直营办事处,四川省新都区龙桥镇瑞云社区杏桂街,胡章平,,,30.84758112,104.0271532
160,30033,四川省攀枝花市直营店2013,1001,四川直营办事处,四川省攀枝花市东区华山老熊箐社,艾波,,,26.54901291,101.7270481
161,1003383,四川省内江市胡祥冬,1001,四川直营办事处,四川省内江市东兴区平安路388号东港家私城全友家私,胡祥冬,,,29.6110787,105.0805683
162,1003387,四川省马尔康县杨忠,1001,四川直营办事处,四川省马尔康县滨河路184号,杨忠,,,31.90982556,102.2230681
163,1003391,四川省屏山县大乘镇李成练,1001,四川直营办事处,四川省屏山县大乘镇主街,李成练,,,28.77413117,104.3011378
164,1003361,【定制销售本部】四川省崇州市直营店,1001,四川直营办事处,四川省成都市崇州九龙路（中国银行旁）-定制,杨珉,,,30.64563139,103.6911869
165,30035,成都友成通达电子商务,1001,四川直营办事处,四川省成都市武侯区机投镇草金路37号,郭庆,,,30.64819329,103.9761016
166,1003433,【定制销售本部】四川省巴中市彭森,1001,四川直营办事处,四川省巴中市南池建材市场中药公司7号门市,彭森,,,31.85526559,106.7668815
167,1003484,【定制销售本部】四川省郫县李菊芳,1001,四川直营办事处,四川省郫县博美装饰城三楼-定制,李菊芳,,,30.83964188,103.884625
168,1003496,四川省汉源县任国兵,1001,四川直营办事处,四川省雅安市汉源县鄂州路一段,任国兵,,,29.3598259,102.6357199
169,1003534,四川省遂宁市船山区廖英,1001,四川直营办事处,四川省遂宁市船山区遂州中路金穗大厦2、3楼,廖英,,,30.53207361,105.5730772
170,1003539,【定制销售本部】四川省珙县杨华林,1001,四川直营办事处,四川省宜宾市珙县巡场兴达街55号全友定制衣柜专卖店,杨华林,,,28.45212148,104.7209496
171,1003517,【定制销售本部】四川省绵阳市张超,1001,四川直营办事处,四川省绵阳市涪城区一环路北段42号美家居装饰城全友定制衣柜店,张超,,,31.49229053,104.7397218
172,1003554,四川省凉山州甘洛县王建勇,1001,四川直营办事处,四川省凉山州甘洛县步行街春天家园2楼,王建勇,,,28.97485344,102.7674007
173,1003555,四川省眉山市杜莉华,1001,四川直营办事处,四川省眉山市环湖路义乌商贸城第三栋,杜莉华,,,30.05227529,103.8565564
174,30034,四川省德阳市直营店2013,1001,四川直营办事处,四川省德阳耐火厂附件千佛村仁惠纸箱厂内,王顺刚,,,31.11857045,104.3685798
175,1003425,【定制销售本部】四川省资阳市凌顺金,1001,四川直营办事处,四川省资阳市雁江区鑫峰建材市场,凌顺金,,,30.09164726,104.7554165
176,1002273,四川省金城镇夏中全,1001,四川直营办事处,四川省仪陇县金城镇建设路316号,夏中全,,,31.52259329,106.4131209
177,1002218,四川省富顺县胡波,1001,四川直营办事处,四川省自贡市富顺县县政府广场鼎洋家私城2楼,胡波,,,29.18650447,104.9803305
178,1003077,【定制销售本部】四川省宜宾市姜相敏,1001,四川直营办事处,四川省宜宾市南岸西区“海韵・家美”建材城3楼1号商铺-定制,姜相敏,,,28.76158317,104.6411202
179,1002715,四川省广安市龙运华,1001,四川直营办事处,四川省广安市思源中学旁,龙运华,,,30.46988739,106.6579373
180,1002741,四川省乐山市市中区李华东,1001,四川直营办事处,四川省乐山市通江檀木嘴村一组,李华东,,,29.63839681,103.7470726
181,1001308,陕西省子长县徐永乾,1002,陕西直营办事处,陕西省延安市子长县齐家湾中学旁全友家居,徐永乾,子长县,717300,37.14795901,109.6767189
182,1001310,陕西省吴起县蔺活庆,1002,陕西直营办事处,陕西省吴起县白沟洼二中斜对面全友家私,蔺活庆,吴起县,717600,36.92126721,108.2103505
183,1001311,陕西省富县田润虎,1002,陕西直营办事处,陕西省延安市富县北教场向阳镇全友家私专卖店,田润虎,富县,727500,36.00894448,109.3934324
184,1001322,陕西省横山县陈振军,1002,陕西直营办事处,陕西省榆林市横山县城北（新红会医院北侧）万国家居建材广场二楼,陈振军,横山县,717300,37.95927004,109.2960295
185,1001329,陕西省商洛市闫博,1002,陕西直营办事处,陕西省商洛市通江西路南段（芙华火锅旁）全友家私,闫博,商洛市,726000,33.87389458,109.9268544
186,1001333,陕西省三原县张战娃,1002,陕西直营办事处,陕西咸阳市三原县大庆路中段县工商局对面,张战娃,610400,718000,34.70321163,108.9806999
187,1001335,（陕西办）甘肃省秦安县李伏多,1002,陕西直营办事处,甘肃省天水市秦安县大地湾购物广场2楼,李伏多,秦安县,741000,34.95349992,105.6980409
188,1001336,（陕西办）甘肃省天水市李伏多,1002,陕西直营办事处,甘肃省天水市二十里铺地校对面200米,李伏多,天水市秦州区,741000,34.58431942,105.7369316
189,1001337,（陕西办）甘肃省武山县袁荣华,1002,陕西直营办事处,甘肃省天水市武山县毛纺社区内全友库房,袁荣华,武山县,741300,34.68018183,104.8867298
190,1001339,（陕西办）甘肃省甘谷县叶笑军,1002,陕西直营办事处,甘肃省天水市甘谷县油墨南场附近,叶笑军,甘谷县,730000,34.80942055,105.2745318
191,1001343,（陕西办）甘肃省成县李彬彬,1002,陕西直营办事处,甘肃省陇南市成县滨河路成州体育中心,李彬彬,成县,714100,33.75173045,105.7474424
192,1001268,陕西省西安市莲湖区郑杰,1002,陕西直营办事处,陕西西安市太华北路百花门业家具城,郑杰,西安市莲湖区,710000,34.33523059,108.9781855
193,1001314,陕西省勉县李涛,1002,陕西直营办事处,陕西省汉中市勉县三国文化广场汉水怡苑2楼,李涛,610700,724200,33.1600343,106.6966492
194,1001317,陕西省榆林市张子华,1002,陕西直营办事处,陕西省榆林市长城北路万隆家具广场A-7全友家私,张子华,610800,719000,38.3114871,109.7490239
195,1001320,陕西省靖边县杨霞,1002,陕西直营办事处,陕西省榆林市靖边县长庆路王家庙建材市场A座中厅,杨霞,靖边县,710000,37.61885688,108.7946456
196,1003923,陕西省西安市长安区引镇史继峰,1002,陕西直营办事处,陕西省西安市长安区引镇十字全友家居,史继峰,,,34.08287388,109.1138036
197,1003868,陕西省安塞县高华,1002,陕西直营办事处,陕西省延安市安塞县高速路口全友家居,高华,,,36.92691988,109.1706815
198,1003736,陕西省黄陵县张建军,1002,陕西直营办事处,陕西省延安市黄陵县陆宝苑负一楼,张建军,,,35.59133078,109.2596522
199,1003711,陕西省凤县唐文才,1002,陕西直营办事处,陕西省宝鸡市凤县安信建材市场三楼全友家居,唐文才,,,33.99325178,106.766104
200,1003920,陕西省定边县封祖斌,1002,陕西直营办事处,陕西省榆林市定边县创业五路汇美万家家居建材城1号厅C区1号,封祖斌,,,37.38879113,107.7542931
201,1003890,陕西省渭南市合阳县张晓平,1002,陕西直营办事处,陕西省渭南市合阳县凤凰西路与解放路十字西北角景悦大厦,张晓平,,,35.2460941,110.1595435
202,1003565,【定制销售本部】陕西省宝鸡市杨艳萍,1002,陕西直营办事处,陕西省宝鸡市汽车东站国艺建材城,杨艳萍,,,34.36408081,107.1706455
203,1003613,【定制销售本部】陕西省西安市居然之家鹿忠发,1002,陕西直营办事处,陕西省西安市灞桥区砚湾村,鹿忠发,,,34.31168608,109.1438
204,1003591,陕西省彬县赵计五,1002,陕西直营办事处,陕西省彬县公刘街紫金城3楼,赵计五,,,35.03935038,108.1005747
205,1003684,陕西省甘泉县刘翠翠,1002,陕西直营办事处,陕西省延安市甘泉县城南加油站旁,刘翠翠,,,36.35354417,109.1822391
206,1003723,陕西省西安市阎良区田春彦,1002,陕西直营办事处,陕西省西安市石化大道北玉丰东口,田春彦,,,34.33481476,108.9227983
207,1003157,陕西省安康市恒口镇何向菊,1002,陕西直营办事处,陕西省安康市恒口镇恒大路口铁道向北10米,何向菊,,,32.74356768,108.7750824
208,1003321,【定制销售本部】陕西省延安市曹琬婷,1002,陕西直营办事处,陕西省延安市宝塔区伊家沟天宝家天下,曹琬婷,,,36.57599249,109.6486022
209,1003443,【定制销售本部】陕西省合阳县左辉,1002,陕西直营办事处,陕西省渭南市合阳县解放南路延伸段,左辉,,,35.23301827,110.1557181
210,1003452,陕西省旬邑县刘炜,1002,陕西直营办事处,陕西省旬邑县阳光大道阳光建材城全友家居,刘炜,,,35.21683206,108.4941254
211,1003480,陕西省汉中市王丹琪,1002,陕西直营办事处,陕西省汉中市汉台区盛隆家具城,王丹琪,,,33.08212999,107.0615712
212,1002385,陕西省洛川县董延锋,1002,陕西直营办事处,陕西省洛川县老广场全友家私,董延锋,,,35.77265642,109.4419728
213,1002527,陕西省旬阳县梁芳,1002,陕西直营办事处,陕西省安康市旬阳县丰景家园3号楼,梁芳,,,32.90207699,109.4235799
214,1002947,陕西省白水县郭永刚,1002,陕西直营办事处,陕西省渭南市白水县东风街东段,郭永刚,,,35.18597344,109.6120443
215,1002677,陕西省安康市陈家林,1002,陕西直营办事处,陕西省安康市香溪大道,陈家林,,,32.68315087,109.0394732
216,1002769,陕西省宝鸡市陈仓区虢镇严巧兰,1002,陕西直营办事处,陕西省宝鸡市陈仓区虢镇西大街113号,严巧兰,,,34.35959134,107.3887195
217,1002887,陕西省洋县岳保明,1002,陕西直营办事处,陕西省汉中市洋县北环东路书苑中学对面,岳保明,,,33.23350454,107.5602588
218,1002889,陕西省西安市户县李华,1002,陕西直营办事处,陕西省西安市户县南关综合市场8号,李华,,,34.00383365,108.5924813
219,1002591,陕西省西安市大明宫许竞友,1002,陕西直营办事处,陕西省西安市大明宫建材市场,许竞友,,,34.31407896,108.9828237
220,1002924,陕西省宝鸡市千阳县任德忠,1002,陕西直营办事处,陕西省宝鸡市千阳县人民路西段尚品美家全友家居,任德忠,,,34.76695149,107.177974
221,1002117,（陕西办）甘肃省徽县丁晓峰,1002,陕西直营办事处,甘肃省陇南市徽县建新路邮政宾馆对面,丁晓峰,徽县,742300,33.77648926,106.089025
222,1002258,陕西省宁强县孟友龙,1002,陕西直营办事处,陕西省汉中市宁强县环城路南段全友家私,孟友龙,,,32.91418326,106.140871
223,1002285,（陕西办）甘肃省西和县柳国光,1002,陕西直营办事处,甘肃省陇南市西和县昌盛家具城,柳国光,,,34.02825835,105.3067265
224,1002232,陕西省汉阴县代新波,1002,陕西直营办事处,陕西省安康市汉阴县城南新区全友家私,代新波,,,33.04646191,108.2529781
225,1002281,陕西省宜川县吕旭红,1002,陕西直营办事处,陕西省宜川县南关俭新村全友家私,吕旭红,,,36.07113938,110.1911266
226,1002193,陕西省石泉县李毕,1002,陕西直营办事处,陕西省安康市石泉县大唐水电站旁全友家私,李毕,,,33.04646191,108.2529781
227,1002075,陕西省长武县刘炜,1002,陕西直营办事处,陕西省咸阳市长武县体育场向东200米全友家居,刘炜,长武县,713600,35.17058169,107.8347997
228,1001984,陕西省咸阳市寇文才,1002,陕西直营办事处,陕西省西安市石化大道北玉丰东口,寇文才,咸阳市,720000,34.33481476,108.9227983
229,1001756,陕西省洛南县郑永桂,1002,陕西直营办事处,陕西省商洛市洛南县金三角家居广场,郑永桂,洛南县,726100,34.10252626,110.1676071
230,1001881,陕西省紫阳县张尔武,1002,陕西直营办事处,紫阳县粮贸公司负一楼,张尔武,紫阳县,725300,32.44894219,108.4448257
231,1001889,陕西省镇安县何长智,1002,陕西直营办事处,镇安县县河新城区,何长智,镇安县,711500,33.42095957,109.1653085
232,1001890,陕西省平利县李亚明,1002,陕西直营办事处,平利县吉阳路初级中学对面,李亚明,平利县,725500,32.39464795,109.3729279
233,1002115,陕西省米脂县安进,1002,陕西直营办事处,陕西省榆林市米脂县旧操场,安进,米脂县,718100,37.82852939,110.186901
234,1002782,陕西省咸阳市杨陵区何世宗,1002,陕西直营办事处,陕西省咸阳市杨陵区锦林家具城3楼,何世宗,,,34.29019872,108.058738
235,1001269,陕西省西安市新城区田春彦,1002,陕西直营办事处,陕西西安市韩森寨建材家具市场2楼,田春彦,西安市新城区,710000,34.26290659,109.0206465
236,1001271,陕西省西安市未央区武江丽,1002,陕西直营办事处,陕西省西安市经九路西部家具城,武江丽,西安市雁塔区,710054,34.23729175,108.9884259
237,1001274,陕西省西安市临潼区李保利,1002,陕西直营办事处,陕西省西安市临潼区人民西路建材市场前排全友家私,李保利,西安市临潼区,710000,34.38202762,109.2091082
238,1001276,陕西省周至县王光秋,1002,陕西直营办事处,陕西省周至县汽车站十字西南角全友家居,王光秋,周至县,710400,34.07221639,108.0508641
239,1001279,陕西省高陵县泾渭镇杨道勇,1002,陕西直营办事处,陕西省西安市高陵县泾渭镇陕汽大道九州商场2楼,杨道勇,高陵县泾渭镇,712201,34.45015628,108.9936146
240,1001280,陕西省铜川市肖文,1002,陕西直营办事处,陕西省铜川市七一路20号全友家私专卖店,肖文,铜川市,45100,35.08118431,109.0967702
241,1001281,陕西省宝鸡市魏强,1002,陕西直营办事处,陕西省宝鸡市公园南路向南王家河一组,魏强,宝鸡市,721000,34.35968972,107.1555609
242,1001282,陕西省凤翔县曹刚,1002,陕西直营办事处,陕西省宝鸡市凤翔县东关城外城家具城,曹刚,凤翔县,710000,34.52636006,107.4180195
243,1001284,陕西省眉县王冰侠,1002,陕西直营办事处,陕西省眉县姜眉路全友家居库房,王冰侠,眉县,722405,34.15053993,107.833844
244,1001285,陕西省扶风县马晓文,1002,陕西直营办事处,陕西省宝鸡市扶风县新区全友家私,马晓文,扶风县,710025,34.37988352,107.8980496
245,1001291,陕西省乾县畅玲,1002,陕西直营办事处,陕西省咸阳市乾县东新街天源家具城,畅玲,乾县,713600,34.53286548,108.2588218
246,1001292,陕西省礼泉县刘华,1002,陕西直营办事处,陕西省咸阳市礼泉县汤房森康家具城一楼全友家私,刘华,礼泉县,712400,34.48277553,108.4330224
247,1001293,陕西省武功县郭希信,1002,陕西直营办事处,陕西省武功县邰城路中段全友家居,郭希信,武功县,712200,34.26570105,108.2186868
248,1001294,陕西省兴平市金林中,1002,陕西直营办事处,陕西省咸阳市兴平市槐里路世纪方圆家具广场,金林中,兴平市,723000,34.30124128,108.484686
249,1001295,陕西省渭南市于红迎,1002,陕西直营办事处,陕西省渭南市开泰家具城2楼全友店,于红迎,渭南市,714000,34.50235798,109.4839327
250,1001296,陕西省华县郑华松,1002,陕西直营办事处,陕西省渭南市华县新华西路全友家私,郑华松,华县,714100,34.51566634,109.7648979
251,1001297,陕西省潼关县冯文正,1002,陕西直营办事处,陕西省渭南市潼关县和平路北段友谊家具城,冯文正,潼关县,714300,34.55475941,110.2549219
252,1001298,陕西省大荔县刘月芳,1002,陕西直营办事处,陕西省渭南市大荔县长城家具城全友店,刘月芳,大荔县 ,715100,34.79684037,110.0119495
253,1001300,陕西省澄城县张向红,1002,陕西直营办事处,陕西省渭南市澄城县中心街十字,张向红,澄城县,715200,35.22256449,109.9016052
254,1001301,陕西省蒲城县郭全顺,1002,陕西直营办事处,陕西省渭南市蒲城县延安路民生家具城全友店,郭全顺,蒲城县,715500,34.96413472,109.5887581
255,1001302,陕西省富平县卫宁合,1002,陕西直营办事处,陕西省渭南市富平县车站大街富一方购物家居广场二楼,卫宁合,610500,714100,34.75165163,109.1790326
256,1001304,陕西省韩城市张晓平,1002,陕西直营办事处,陕西省渭南市韩城市乔南东路阳山庄家居建材城,张晓平,韩城市,715400,35.48436322,110.4686407
257,1001305,陕西省延安市张晓红,1002,陕西直营办事处,陕西省延安市南桥家和家具城二楼,张晓红,延安市,713600,36.58340057,109.494492
258,1001306,陕西省延长县梁海军,1002,陕西直营办事处,陕西省延安市延长县张家园子东征广场全友家居,梁海军,延长县,717100,36.5796614,110.0160657
259,1001307,陕西省延川县高拥军,1002,陕西直营办事处,陕西省延安市延川县河东街金美隆居家易三楼,高拥军,延川县,717200,36.88521624,110.2014639
260,1003751,（河北办）天津市宁河县丰台镇朱贺昌,1003,河北直营办事处,天津市宁河县丰台镇后棘坨村丰李路后棘小学东50米,朱贺昌,,,39.57420682,117.8131955
261,1003803,河北省平山县刘丽丽,1003,河北直营办事处,河北省石家庄市平山县城冶河东路金源家具城,刘丽丽,,,38.26243014,114.2116708
262,1003943,河北省涞源县高天军,1003,河北直营办事处,河北省涞源县景秀街全友家居,高天军,,,39.35449541,114.7024368
263,1003825,河北省保定市白沟新城刘国锋,1003,河北直营办事处,河北省保定市白沟新城友谊路142号,刘国锋,,,39.12422962,116.0401016
264,1003769,（河北办）北京市大兴区程德福,1003,河北直营办事处,北京市大兴区黄村镇三中西巷康馨园家具城,程德福,,,39.74853611,116.3469677
265,1003790,河北省玉田县姜云亮,1003,河北直营办事处,河北省玉田县车管所北200米全友仓库,姜云亮,,,39.81884336,117.7347526
266,1003791,河北省晋州市总十庄镇李阳,1003,河北直营办事处,河北省晋州市总十庄镇衡井红绿灯东行100米路南,李阳,,,37.9911451,115.0917383
267,1003822,天津市宝坻区张国敬,1003,河北直营办事处,天津市宝坻区建设路东段地税局斜对面,张国敬,,,39.72335854,117.3286355
268,1003887,（河北办）天津市宁河县朱洪昌,1003,河北直营办事处,天津市宁河县205国道贸易开发区集市场西200米,朱洪昌,,,39.381561,117.689424
269,1003697,【定制销售本部】河北省承德市郭雪梅,1003,河北直营办事处,河北省承德市承德县下板城康宁路苍枝旅馆,郭雪梅,,,40.77459284,118.1802788
270,1003717,（河北办）内蒙古丰镇市李守文,1003,河北直营办事处,内蒙古乌兰察布市丰镇市百姓超市2楼,李守文,,,40.55833603,113.3086765
271,1003915,河北省宣化县王建彪,1003,河北直营办事处,河北省张家口市宣化区佳友广场,王建彪,,,40.63239436,115.2584722
272,1003500,【定制销售本部】河北省曲阳县张鹏飞,1003,河北直营办事处,河北省保定市曲阳县北环路北环家居城,张鹏飞,,,38.63950641,114.7123903
273,1003502,河北省保定市辛全凤,1003,河北直营办事处,河北省保定市利民路腾达挂车厂院内38号库房,辛全凤,,,38.85071462,115.4834149
274,1003518,河北省徐水县蔡永彬,1003,河北直营办事处,河北省徐水县振兴中路（新华书店对面）,蔡永彬,,,39.02826819,115.6547215
275,1003556,河北省饶阳县石猛虎,1003,河北直营办事处,河北省衡水市饶阳县铁西大街天城装饰广场,石猛虎,,,38.22305924,115.7400075
276,1003595,（河北办）内蒙古锦山县李明伟,1003,河北直营办事处,内蒙古赤峰市锦山县锦桥路南段,李明伟,,,42.29711232,118.9307612
277,1003608,（河北办）北京市顺义区韩秀洪,1003,河北直营办事处,北京市怀柔区桥梓镇山立庄221号,韩秀洪,,,40.30526909,116.5713328
278,1003380,【定制销售本部】河北省霸州市胜芳镇蔡树良,1003,河北直营办事处,河北省霸州市胜芳镇北二环路西段永丰家居,蔡树良,,,39.08773564,116.7254888
279,1003511,【定制销售本部】河北省安平县刘学良,1003,河北直营办事处,河北省安平县五洲国际建材家居城,刘学良,,,38.24319587,115.4904158
280,1003214,河北办香河黄幻（电子商务）,1003,河北直营办事处,河北省香河县汇美家具城,黄幻,,,39.76063709,117.026318
281,30025,（河北办）北京市朝阳区质感空间直营店,1003,河北直营办事处,北京市朝阳区东四环中路193号红星美凯龙世博家具广场有限公司,王顺刚,,,39.89341141,116.495013
282,1003198,【定制销售本部】河北省饶阳县石猛虎,1003,河北直营办事处,河北省衡水市饶阳县铁西大街,石猛虎,,,38.22305924,115.7400075
283,1003704,河北省路北区韩城镇王立军,1003,河北直营办事处,河北省唐山市l路北区韩城镇电力所西行1000米路南,王立军,,,39.64614814,118.0613156
284,1003766,（河北办）天津市武清区庞洪起,1003,河北直营办事处,天津市武清区华北城,庞洪起,,,39.32976147,117.1041109
285,1003148,（河北办）天津市塘沽区魏春堂,1003,河北直营办事处,天津市塘沽区河北路巨川家饰广场三楼,魏春堂,,,39.03658935,117.6707034
286,1003366,【定制销售本部】河北省高阳县范佳娜,1003,河北直营办事处,河北省高阳县朝阳路287号东明家具城,范佳娜,,,38.69786711,115.7764823
287,1002408,河北省万全县张素英,1003,河北直营办事处,河北省张家口市万全县炮团靶场全友家居,张素英,,,40.84710821,114.6114527
288,1002514,河北省滦县刘铁成,1003,河北直营办事处,河北省唐山市滦县建材市场南100米全友家私,刘铁成,,,39.75289917,118.6937822
289,1002828,（河北办）内蒙古武川县高海军,1003,河北直营办事处,内蒙古呼和浩特市武川县影视西街全友家居,高海军,,,41.09948699,111.458822
290,1002850,（河北办）内蒙古清水河县城关镇高志义,1003,河北直营办事处,内蒙古呼和浩特市清水河县城关镇党校路全友家居,高志义,,,39.91175802,111.6886255
291,1002971,【定制销售本部】河北省乐亭县李丽红,1003,河北直营办事处,河北省唐山市乐亭县汇乐家-定制,李丽红,,,39.35722889,118.9399431
292,30024,北京市丰台区直营店,1003,河北直营办事处,北京市西四环中路113号红星美凯龙国际家具建材广场E8015号,王顺刚,,,39.88920806,116.2792953
293,1002690,（河北办）内蒙古凉城县王增录,1003,河北直营办事处,内蒙古乌兰察布市凉城县岱海镇新华街联营商城四楼,王增录,,,40.54160887,112.5027441
294,1002751,（河北办）内蒙古卓资县赵庆鹏,1003,河北直营办事处,内蒙古乌兰察布市卓资县人民路路东全友家居,赵庆鹏,,,40.95886949,112.4433767
295,1002925,河北省阜城县戈洪刚,1003,河北直营办事处,河北省衡水市阜城县西安南大街加油站对面,,,,37.8683422,116.1487581
296,1002697,河北省衡水市刘文涛,1003,河北直营办事处,河北省衡水市和平西路全友家私,刘文涛,,,37.7540707,115.6554135
297,1002935,河北省赤城县王亚兵,1003,河北直营办事处,河北省张家口市赤城县永泰嘉苑二三楼全友家居,王亚兵,,,40.91725591,115.8491761
298,1002972,【定制销售本部】河北省肃宁县杨晓华,1003,河北直营办事处,河北省沧州市肃宁县石坊路原百货大楼-定制,杨晓华,,,38.4379052,115.8288591
299,1001963,河北省崇礼县李进斌,1003,河北直营办事处,河北省张家口市崇礼县希望街全友家私,李进斌,崇礼县,76350,40.79158048,114.8894969
300,1002397,河北省石门寨镇陈永祥,1003,河北直营办事处,河北省秦皇岛市抚宁县石门寨镇文化中心,陈永祥,,,40.09624054,119.6141387
301,1002488,河北省辛集市曹晨阳,1003,河北直营办事处,河北省辛集市金鹿家具城一楼全友家私,曹晨阳,,,37.92412188,115.2987495
302,1002292,河北省卢龙县李宝良,1003,河北直营办事处,河北省秦皇岛市卢龙县龙城工业园区龙港门业南侧,李宝良,,,39.92097846,118.9855641
303,1002393,（河北办）内蒙古化德县刘全利,1003,河北直营办事处,内蒙古乌兰察布（集宁）市化德县城服装园区,刘全利,,,41.97912638,114.1657379
304,1002066,河北省燕郊镇张士福,1003,河北直营办事处,河北省廊坊市三河市燕郊镇102国道东100米路南迎宾路口,张士福,燕郊镇,62450,39.95003722,116.8162267
305,1002185,河北省元氏县李道令,1003,河北直营办事处,河北省石家庄市元氏县常山路与嘉惠街十字口全友家私,李道令,,,37.77267378,114.5208297
306,1002067,（河北办）北京市昌平区陈桂霞,1003,河北直营办事处,北京市昌平区二毛家具城(全友家私生活馆),陈桂霞,昌平区,300350,40.21676458,116.2407721
307,1002340,河北省南堡刘梓昭,1003,河北直营办事处,河北省唐山市南堡南源路工行北侧,刘梓昭,,,39.24474015,118.210188
308,1000573,北京市密云县王强,1003,河北直营办事处,北京市密云县101国道旁利华家具城三楼,王强,密云县,101500,40.37593222,116.8531328
309,1000574,北京市延庆县于建平,1003,河北直营办事处,北京市延庆县绿韵广场一层全友家居专卖店,于建平,延庆县,300480,40.4716449,115.993531
310,1000575,（河北办）内蒙古乌兰察布市集宁区任继伟,1003,河北直营办事处,内蒙古乌兰察布市集宁区工农路新师专对面港澳家具广场,任继伟,乌兰察布市集宁区,10000,41.01662101,113.1457246
311,1002909,河北省沧州市许景生,1003,河北直营办事处,河北省沧州市百顺隆家具城2楼,,,,38.29761535,116.8638065
312,1001883,（河北办）内蒙古苏尼特左旗李哲,1003,河北直营办事处,内蒙古锡林郭勒盟苏尼特左旗满镇恩格尔南街1组D5号,李哲,苏尼特左旗,11300,42.87227498,112.3216783
313,1001688,河北省抚宁县李丽红,1003,河北直营办事处,河北省秦皇岛市抚宁区富强路与东斜街交叉口全友家居,李丽红,抚宁县,63300,39.8915337,119.2595112
314,1000482,河北省河间市马庆雨,1003,河北直营办事处,河北沧州河间市东大街红太阳家具商场,马庆雨,河间市,62450,38.44177067,116.0986494
315,1000483,河北省米各庄镇赵国峰,1003,河北直营办事处,河北省沧州市河间市米各庄镇国锋家具城,,米各庄镇,52300,38.49235902,116.2984
316,1000484,河北省任丘市李焕杰11,1003,河北直营办事处,河北省沧州市任丘市大皓家具城,李焕杰,130900,52460,38.74110464,116.1632141
317,1000485,河北省青县高继杰,1003,河北直营办事处,河北省沧州市青县104国道批发市场对面德阳家具城,高继杰,青县,62650,38.59532528,116.8410389
318,1000486,河北省黄骅市辛国新,1003,河北直营办事处,河北沧州黄骅市新世纪家具广场,辛国新,黄骅市,61100,38.37622326,117.360647
319,1000487,河北省廊坊市胡悦云,1003,河北直营办事处,河北省廊坊市集美家具城二楼,胡悦云,廊坊市,50700,38.9898429,116.1277011
320,1000488,河北省永清县周贺江,1003,河北直营办事处,河北省永清县新汽车站东行100米路北,周贺江,永清县,50500,39.30283643,116.560557
321,1000490,河北省胜芳镇舒萍,1003,河北直营办事处,河北省廊坊市霸州市胜芳镇北二环路中段,舒萍,胜芳镇,52560,39.08773564,116.7254888
322,1000491,河北省固安县叶书宝,1003,河北直营办事处,河北省廊坊市固安县106国道旁全友家私,叶书宝,131000,53600,39.44372828,116.3171821
323,1000492,河北省文安县任德安,1003,河北直营办事处,河北省廊坊市文安县南环三叉路口西行200米,任德安,文安县,53800,38.86568674,116.457778
324,1000493,河北省大城县辛丙杰,1003,河北直营办事处,河北省廊坊市大城县大城永定大街体育中心西侧路南,辛丙杰,大城县,62500,38.71050966,116.6523553
325,1000494,河北省三河市李凤海,1003,河北直营办事处,河北省廊坊市三河市万盛家具城2楼,李凤海,三河市,62350,39.99184544,117.0843572
326,1000496,河北省香河县黄幻,1003,河北直营办事处,河北省廊坊市香河华鑫集团或鑫亿隆家具城,黄幻,香河县,62454,39.76006724,117.0252123
327,1000500,河北省蠡县陈保文,1003,河北直营办事处,河北省保定市蠡县蠡州光明家具城,陈保文,蠡县,65600,38.51395642,115.5927464
328,1000501,河北省定州市王玲,1003,河北直营办事处,河北省定州市商业街天华家具城,王玲,定州市,71000,38.53105493,114.9959365
329,1000503,河北省唐县田新,1003,河北直营办事处,河北省保定市唐县光明路与高速引线交叉口,田新,唐县,65701,38.75354489,114.9925389
330,1000505,河北省高阳县冯英杰,1003,河北直营办事处,河北省保定市高阳东明家具城,冯英杰,高阳县,65800,38.6730209,115.8384419
331,1000506,河北省安新县马国忠,1003,河北直营办事处,河北省保定市安新西关县医院对过,马国忠,安新县,65900,38.99795543,116.0978073
332,1000508,【定制销售本部】河北省徐水县蔡永清,1003,河北直营办事处,河北省保定市徐水舒雅家具城,蔡永清,徐水县,65400,39.02617579,115.649643
333,1000510,河北省雄县郭少波,1003,河北直营办事处,河北省保定市雄县县政府北行500米,郭少波,雄县,71000,39.04278686,116.1832989
334,1000512,河北省涿州市朱彬,1003,河北直营办事处,河北省保定市涿州市宜家旺四楼,,涿州市,71400,39.48248181,115.9990536
335,1000582,（河北办）内蒙古锡林浩特市李玉强,1003,河北直营办事处,内蒙古锡林浩特市康盛基业4楼,李玉强,152500,10000,44.07896113,116.1369483
336,1000584,（河北办）内蒙古正蓝旗杨天文,1003,河北直营办事处,内蒙古锡林郭勒盟正蓝旗元都大街元都宾馆天王家具城,杨天文,正蓝旗,10000,42.25825415,116.0122902
337,1002906,（河北办）天津市蓟县黄幻,1003,河北直营办事处,天津市蓟县渔阳国际家居区D2区2号,黄幻,,,40.15097591,117.1226783
338,1000461,河北省石家庄市曹东明,1003,河北直营办事处,河北省石家庄市长安区泗水路88号,曹东明,石家庄市,55550,38.0768748,114.5926216
339,1000462,河北省高邑县康现民,1003,河北直营办事处,河北省石家庄市高邑县凤中路东头路南友生活馆,康现民,高邑县,54100,37.60929339,114.6328081
340,1000463,河北省赵县周江波,1003,河北直营办事处,河北省石家庄市赵县柏林大街与自强路交叉口全友家私,周江波,赵县,50000,37.76854439,114.7908558
341,1000464,河北省栾城县牛志信,1003,河北直营办事处,河北省石家庄市栾城县308国道城区段,牛志信,栾城县,54100,37.90616081,114.6329678
342,1000465,河北省藁城市许海军,1003,河北直营办事处,河北省藁城市综合市场家具城8号,许海军,藁城市,54200,38.05493638,114.8164758
343,1000468,河北省无极县张贵生,1003,河北直营办事处,河北省石家庄市无极县无极路1号中银家具广场,张贵生,无极县,50000,38.18310469,114.9738938
344,1000469,河北省深泽县王云峰,1003,河北直营办事处,河北省石家庄市深泽县西苑街中段,,深泽县,53000,38.19885008,115.2035714
345,1000472,河北省行唐县张全龙,1003,河北直营办事处,河北省石家庄市行唐县南市场内全友家私,张全龙,行唐县,235300,38.64038437,114.7111753
346,1000474,河北省平山县刘习风,1003,河北直营办事处,河北省石家庄市平山县电厂对过全友生活馆城,刘习风,平山县,50000,38.40876219,113.8724285
347,1000476,河北省晋州市安书江,1003,河北直营办事处,河北省石家庄市晋州市法院东十字路口（司法大楼北行100米）路口东南角,安书江,晋州市,50000,38.03178066,115.0657351
348,1000531,河北省遵化市严小丽,1003,河北直营办事处,河北省遵化市金源购物广场四楼,严小丽,130200,64400,40.13790106,117.9576391
349,1000533,河北省秦皇岛市张国平,1003,河北直营办事处,河北省秦皇岛市内民族路弘扬家居城,张国平,秦皇岛市,64000,39.94660708,119.6134241
350,1000534,河北省牛头崖朱维国,1003,河北直营办事处,河北省秦皇岛市牛头崖镇阳光电器购物中心3楼,朱维国,130300,66400,39.84774875,119.4168192
351,1000535,河北省昌黎县姜云亮,1003,河北直营办事处,河北省秦皇岛市昌黎县碣阳大街民生广场三楼,姜云亮,130300,66600,39.72069355,119.1731487
352,1000537,河北省青龙满族自治县曾卫平,1003,河北直营办事处,河北省秦皇岛市青龙县富国街与滨河路交叉口处五鑫家具城,曾卫平,青龙满族自治县,66400,40.41386118,118.9694235
353,1000538,河北省承德市刘剑春,1003,河北直营办事处,河北省承德市迎宾路世纪城一期底商,刘剑春,承德市,64000,40.95549293,117.9686479
354,1000539,河北省宽城满族自治县周凤刚,1003,河北直营办事处,河北省承德市宽城县长途汽车站斜对面私,周凤刚,宽城满族自治县,63000,40.61458949,118.4997967
355,1000541,河北省滦平县葛长百,1003,河北直营办事处,河北省承德市滦平县人民武装部院内,葛长百,滦平县,68250,40.92482074,117.3695634
356,1000542,河北省隆化县王爱军,1003,河北直营办事处,河北省承德市隆化县利民路富豪家具城,王爱军,隆化县,68150,41.31799103,117.7388486
357,1000543,河北省平泉县林泽彬,1003,河北直营办事处,河北省承德市平泉县兴平商业步行街,林泽彬,平泉县,63700,41.07530377,118.7393235
358,1000544,河北省围场满族蒙古族自治县费国钱,1003,河北直营办事处,河北省承德市围场县木兰中路行政中心地下广场,费国钱,围场满族蒙古族自治县,68450,41.95778686,117.7655259
359,1000546,河北省张家口市车永斌,1003,河北直营办事处,河北省张家口市纬三路交警大队东走200米,车永斌,张家口市,64100,40.81118849,114.8937815
360,1000548,河北省蔚县刘建军,1003,河北直营办事处,河北省张家口市蔚县建设南大街全友家私,刘建军,蔚县,66400,39.8484918,114.5973548
361,1000549,河北省阳原县王彩林,1003,河北直营办事处,河北省张家口市阳原县政府广场,王彩林,阳原县,66600,40.13864212,114.3943959
362,1000550,河北省涿鹿县乔慧勤,1003,河北直营办事处,河北省张家口市涿鹿县隆都西路合符小区北门,乔慧勤,涿鹿县,75400,40.10187591,115.2239252
363,1000551,河北省怀来县乔慧勤,1003,河北直营办事处,河北省怀来县沙城镇新汽车站二、三、四楼,乔慧勤,怀来县,75400,40.40976077,115.525924
364,1000552,河北省怀安县李存海,1003,河北直营办事处,河北省张家口市怀安县大雄国际工业港全友专卖店,李存海,怀安县,67000,40.55953358,114.5026074
365,1000554,河北省张北县彭宏章,1003,河北直营办事处,河北省张家口市张北县北大家具城,彭宏章,张北县,67300,41.29364075,114.7728974
366,1000555,河北省康保县孙广霁,1003,河北直营办事处,河北省张家口市康保县康保建材市场,孙广霁,康保县,68250,41.78459527,114.6065357
367,1000556,河北省沽源县李大忠,1003,河北直营办事处,河北省张家口市沽源县青年湖大桥东首家私,李大忠,沽源县,68150,41.67578378,115.7057078
368,1000557,河北省赞皇县石秋花,1003,河北直营办事处,河北省石家庄市赞皇县中医院西50米路南,石秋花,赞皇县,67500,37.62813245,114.2895534
369,1000558,天津市静海县尚永峰,1003,河北直营办事处,天津市静海县开发区春曦道大众家具广场,尚永峰,静海县,67500,38.93465777,116.973068
370,1000561,天津市汉沽区曲维军,1003,河北直营办事处,天津市汉沽区新开中路金佰汇商城北四楼,曲维军,汉沽区,75000,39.2514659,117.8152163
371,1000566,北京市房山区良乡镇张俊,1003,河北直营办事处,北京市房山区良乡镇良乡东关村,张俊,房山区良乡镇,100032,39.73872098,116.1441022
372,1000571,北京市北七家李宾,1003,河北直营办事处,河北省廊坊市大厂回族自治县夏垫镇潘各庄村,李宾,北七家,300270,39.95037089,116.9244605
373,1000578,（河北办）内蒙古商都县马金昌,1003,河北直营办事处,内蒙古乌兰察布市商都县国门七台大街,马金昌,商都县,10000,41.54888589,113.5663114
374,1000579,（河北办）内蒙古太仆寺旗何燕,1003,河北直营办事处,内蒙古锡林郭勒盟市太仆寺旗建设南街政府北侧,何燕,太仆寺旗,10000,41.90621564,115.3045582
375,1000580,（河北办）内蒙古多伦县王宏,1003,河北直营办事处,内蒙古多伦县全友家私,王宏,多伦县,10000,42.19860408,116.4903814
376,1000581,（河北办）内蒙古镶黄旗李文忠,1003,河北直营办事处,内蒙古锡林郭勒盟镶黄旗巨强家具成,李文忠,镶黄旗,10000,42.3682757,114.1205891
377,1000477,河北省安平县乔忠忠,1003,河北直营办事处,河北省衡水市安平县中心路中段全友家私,乔忠忠,安平县,53600,38.24121912,115.5091728
378,1000478,河北省深州市张广川,1003,河北直营办事处,河北省衡水市深州市贸易城新区爱我家家具广场,张广川,深州市,53800,37.95701286,115.5866988
379,1002230,河北省丰宁满族自治县马立芳,1003,河北直营办事处,河北省承德市丰宁满族自治县大阁镇新丰路44号北辰名品广场,马立芳,,,41.21304869,116.6527833
380,1000586,（河北办）内蒙古赤峰市元宝山区李海燕,1003,河北直营办事处,内蒙古赤峰市元宝山区新城区安达新世纪售楼处西（新城区公安局西侧）,李海燕,平庄镇,10000,40.82945222,111.6862687
381,1000589,（河北办）内蒙古敖汉旗张海波,1003,河北直营办事处,内蒙古赤峰市熬汉旗河东新区银河花城对过国宾馆三楼,张海波,敖汉旗,10000,42.29390874,119.9246019
382,1000592,（河北办）内蒙古巴林左旗姜林,1003,河北直营办事处,内蒙古赤峰市巴林左旗步行街时代购物广场4楼,姜林,巴林左旗,12400,44.20343081,119.2807664
383,1000595,（河北办）内蒙古四子王旗赵娜,1003,河北直营办事处,内蒙古乌兰察布市四子王旗乌兰花镇兴华街老干部局对面三楼,赵娜,四子王旗,10000,41.54159191,111.6956066
384,1000596,（河北办）内蒙古二连浩特市郝林江,1003,河北直营办事处,内蒙古锡林郭勒盟二连浩特市盛同国际家具城城,郝林江,二连浩特市,11100,43.41778046,111.9661784
385,1000598,（河北办）内蒙古宁城县贾涛,1003,河北直营办事处,内蒙古赤峰市宁城县天义镇阳光四小区旁,贾涛,宁城县,10000,41.59539095,119.3388264
386,1000599,（河北办）内蒙古察哈尔右翼中旗武智平,1003,河北直营办事处,内蒙古乌兰察布市集宁市察哈尔右翼中旗政府东侧,武智平,察哈尔右翼中旗,10000,41.02776597,113.1128322
387,1000600,（河北办）内蒙古乌拉盖郭海峰,1003,河北直营办事处,内蒙古锡林浩特市乌拉盖经济管理区中国移动对面,郭海峰,乌拉盖,10000,44.45162537,115.8296402
388,1000601,（河北办）内蒙古东乌珠穆沁旗刘泰峰,1003,河北直营办事处,内蒙古锡林浩特市东乌旗光明家具城,刘泰峰,东乌珠穆沁旗,10000,44.07896113,116.1369483
389,1000514,河北省易县耿志东,1003,河北直营办事处,河北省保定市易县全友名家居,耿志东,易县,71000,39.31756605,115.2540217
390,1000519,河北省开平区姚玉梅,1003,河北直营办事处,河北省唐山市西外环夏乌村,姚玉梅,开平区,63300,39.65053092,118.1834506
391,1000520,河北省古冶区张卫红,1003,河北直营办事处,河北省唐山市古冶林西镇商城南100米,张卫红,古冶区,64000,39.72304478,118.4622315
392,1000521,河北省丰润区王利永,1003,河北直营办事处,河北省唐山市丰润区丰润烟草对面,王利永,丰润区,71000,39.78990941,118.0594904
393,1000523,河北省丰南区李志明,1003,河北直营办事处,河北省唐山市西外环夏乌村,李志明,丰南区,64000,39.65053092,118.1834506
394,1000525,河北省滦南县吴忠满,1003,河北直营办事处,河北省唐山市滦南县供销大厦对面,吴忠满,滦南县,63500,39.51189276,118.6902953
395,1000526,河北省乐亭县闫志国,1003,河北直营办事处,河北省唐山市乐亭县茂源街以东汇乐城B5区3楼,闫志国,乐亭县,63600,39.43619304,118.9046335
396,1000479,河北省盐山县曹俊鹏,1003,河北直营办事处,河北沧州盐山东大街东扩段新兴家具购物中心,曹俊鹏,盐山县,61300,38.06439113,117.2547058
397,1000480,河北省献县李世良,1003,河北直营办事处,河北沧州献县北外环中段,李世良,献县,51430,38.24272584,116.1755053
398,1000481,河北省肃宁县孟庆玲,1003,河北直营办事处,河北省沧州市肃宁县石坊路原百货大楼,,肃宁县,52160,38.4379052,115.8288591
399,1002025,（河北办）内蒙古赤峰市李海燕,1003,河北直营办事处,内蒙古赤峰市新城区和美建材城３楼全友家私,,赤峰市,24200,42.24092008,118.8874831
400,1002026,河北省迁安市王运洲,1003,河北直营办事处,河北省唐山市迁安市阜安大路中段百强家具城全友家私,王运洲,迁安市,64400,40.01967546,118.6962049
401,1002027,（河北办）内蒙古苏尼特右旗李文忠,1003,河北直营办事处,内蒙古锡林郭勒盟苏尼特右旗杭盖路东头全友家私,李文忠,苏尼特右旗,13250,42.24673452,113.8512881
402,1003914,(甘肃办)青海省格尔木市刘子益,1005,甘肃直营办事处,青海省格尔木市泰山中路建材市场三楼,刘子益,,,36.41187801,94.92442615
403,1002158,甘肃省民乐县刘自宏,1005,甘肃直营办事处,甘肃省民乐县政府向南80米裕泰小区二楼,刘自宏,,,38.43631901,100.8195973
404,1003666,甘肃省酒泉市余春晓,1005,甘肃直营办事处,甘肃省酒泉市肃州区同辉小企业园区,余春晓,,,39.59837426,98.80261646
405,1003861,甘肃省渭源县纪怀军,1005,甘肃直营办事处,甘肃省渭源县清源路渭水润园20号,纪怀军,,,35.13948068,104.1463278
406,1003888,甘肃省兰州市西固区宋大伟,1005,甘肃直营办事处,甘肃省兰州市西固区寺儿沟88号,宋大伟,,,36.10133702,103.613567
407,1003671,甘肃省榆中县城关镇曾茂珍,1005,甘肃直营办事处,甘肃省榆中县城关镇太白东路北关村20号强胜家具城二楼,曾茂珍,,,35.86270252,104.136352
408,1003754,甘肃省会宁县郭城驿镇王亚东,1005,甘肃直营办事处,甘肃省会宁县郭城驿镇新堡子村,王亚东,,,36.2355974,104.8899942
409,1003675,（甘肃办）青海省乐都县左妍,1005,甘肃直营办事处,青海省西宁市海东地区乐都县西大桥蔬菜综合市场旁（李家庄对面）,左妍,,,36.54361713,102.336032
410,1003564,甘肃省兰州市城关区李鸿萱,1005,甘肃直营办事处,甘肃省兰州市城关区雁滩家具超市5楼,李鸿萱,,,36.06567799,103.885402
411,1003446,（甘肃办）宁夏西吉县蒋建峰,1005,甘肃直营办事处,宁夏回族自治区固原市西吉县西市场蒋师家具商场,蒋建峰,,,35.93993438,105.7267486
412,1003296,甘肃省玉门市高建新,1005,甘肃直营办事处,甘肃省酒泉市玉门市盛浩建材城1号楼二楼,高建新,,,40.2255518,97.46120885
413,30027,（甘肃办）宁夏银川市直营店,1005,甘肃直营办事处,宁夏回族自治区银川市兴庆区大兴镇塔桥村天香源花卉区,王顺刚,,,38.43865918,106.3147731
414,1003176,（甘肃办）宁夏彭阳县王可尧,1005,甘肃直营办事处,宁夏回族自治区固原市彭阳县农贸市场二楼,王可尧,,,35.97254626,106.6624733
415,1003708,（甘肃办）青海省化隆县群科镇李永龙,1005,甘肃直营办事处,青海省化隆县群科镇丽水豪庭旁,李永龙,,,36.04783881,101.9870783
416,1003767,甘肃省积石山县吹麻滩镇叶小兵,1005,甘肃直营办事处,甘肃省积石山县吹麻滩镇滨河路,叶小兵,,,35.71439206,102.8880604
417,1002683,甘肃省临泽县杨丽丽,1005,甘肃直营办事处,甘肃省张掖市临泽县揽月桥头,杨丽丽,,,39.34703167,100.1912243
418,1003377,甘肃省积石山县大河家镇肖占西,1005,甘肃直营办事处,甘肃省积石山县大河家镇商贸西街路,肖占西,,,35.84083053,102.7691324
419,1003378,甘肃省和政县城关镇杨济和,1005,甘肃直营办事处,甘肃省和政县城关镇义务商厦二楼（供销社大楼对面）,杨济和,,,35.42931457,103.3567259
420,1003381,【定制销售本部】宁夏中卫市王鹏,1005,甘肃直营办事处,宁夏中卫市鼓楼南街美居城二楼,王鹏,,,37.52068507,105.19696
421,1002242,甘肃省临洮县王瑞琥,1005,甘肃直营办事处,甘肃省定西市临洮县东大街13号,王瑞琥,,,35.3804818,103.8679439
422,1002831,甘肃省华池县段军杰,1005,甘肃直营办事处,甘肃省庆阳市华池县杨庄子,段军杰,,,36.47798599,108.0058096
423,1002680,甘肃省庆阳市朱学利,1005,甘肃直营办事处,甘肃省庆阳市西大街1号国芳大世界6楼,朱学利,,,35.74188773,107.6489776
424,1002943,甘肃省永登县安武,1005,甘肃直营办事处,甘肃省永登县金鼎步行街二楼,安武,,,36.61692361,103.2527935
425,1003117,（甘肃办）宁夏青铜峡市小坝镇王水英,1005,甘肃直营办事处,宁夏青铜峡市小坝镇禹皇家居建材城一楼,王水英,,,38.01922527,106.0961008
426,1002674,甘肃省景泰县曹彬,1005,甘肃直营办事处,甘肃省白银市景泰县宽城路大众宾馆,曹彬,,,37.14607896,104.0616677
427,1002322,甘肃省皋兰镇安武,1005,甘肃直营办事处,甘肃省兰州市皋兰北辰路全友家居（原安泰龙超市）,安武,,,36.35569042,103.9493707
428,1002454,甘肃省白银市白银区常进华,1005,甘肃直营办事处,甘肃省白银市兰州路33号,常进华,,,36.55393209,104.1434442
429,1002049,甘肃省瓜州县杨金莲,1005,甘肃直营办事处,甘肃省酒泉市瓜州县渊泉街120号种子公司院内全友家私,杨金莲,瓜州县,736100,40.52231355,95.79047575
430,1001877,（甘肃办）青海省大通县袁连贞,1005,甘肃直营办事处,青海省西宁市大通县园林路全友家私,袁贞,630100,810000,36.96085718,101.6808067
431,1001880,甘肃省临夏市康乐县何金奎,1005,甘肃直营办事处,康乐县新汽车站旁全友家私,何金奎,康乐县,731500,35.37857403,103.723846
432,1001916,甘肃省白银市平川区张国娥,1005,甘肃直营办事处,甘肃省白银市平川区国泰陶瓷建材城,张国娥,白银市平川区,730913,36.72548794,104.8534164
433,1002100,甘肃省漳县胡毅,1005,甘肃直营办事处,甘肃省定西市漳县贵清东一路10号楼全友家私,胡毅,漳县,748300,34.63745628,104.0534978
434,1001953,（甘肃办）西藏拉萨市杨帅,1005,甘肃直营办事处,西藏自治区拉萨市天海家具市场全友家私,杨帅,拉萨市,850000,29.67593382,91.13119566
435,1000154,甘肃省高台县万吉侠,1005,甘肃直营办事处,甘肃省张掖市高台县城关镇医药公司院内城三楼,万吉侠,高台县,734300,39.38249213,99.83019704
436,1000155,甘肃省民勤县林官聪,1005,甘肃直营办事处,甘肃省武威市民勤县东大街2号,林官聪,民勤县,733300,38.63033872,103.10282
437,1002903,（甘肃办）宁夏石嘴山市大武口区程继锋,1005,甘肃直营办事处,宁夏石嘴山市大武口区朝阳东街富源旺角家世界3楼,程继锋,,,39.012011,106.3910037
438,1000114,（甘肃办）宁夏中卫市章思满,1005,甘肃直营办事处,宁夏回族自治区中卫市沙坡头区红太阳广场金百川商场二楼,章思满,中卫市,751700,37.52194497,105.1949338
439,1000116,（甘肃办）宁夏灵武市王水英,1005,甘肃直营办事处,宁夏回族自治区银川市灵武市鼓楼家居精品城全友家私,王水英,灵武市,751400,37.93517481,106.532
440,1000117,（甘肃办）宁夏吴忠市王水英,1005,甘肃直营办事处,宁夏回族自治区吴忠市裕民西街全友家居,王水英,吴忠市,751400,37.99309285,106.1950769
441,1000119,（甘肃办）宁夏固原市王可尧,1005,甘肃直营办事处,宁夏回族自治区固原市新世纪家具城,王可尧,固原市,756000,36.02152348,106.285268
442,1000120,（甘肃办）宁夏隆德县陈钱洲,1005,甘肃直营办事处,宁夏回族自治区固原市隆德县长乐街盘龙家居汇展中心,陈钱洲,隆德县,756300,35.6249108,106.1266157
443,1000121,（甘肃办）青海省西宁市杜立志,1005,甘肃直营办事处,青海省西宁市城南仁济医院园丁路青海铭嘉家私有限公司铭嘉家具城,杜立志,西宁市,810000,36.54915506,101.7029793
444,1000123,（甘肃办）西藏山南地区泽当镇韩贵伦,1005,甘肃直营办事处,西藏自治区山南地区泽当镇乃东路,韩贵伦,山南地区泽当镇,856000,29.24513507,91.78319263
445,1000126,甘肃省海石湾镇杨生淳,1005,甘肃直营办事处,青海省海东地区民和县马场垣乡金星村老商店,杨生淳,海石湾镇,730080,36.32390441,102.9079522
446,1000132,（甘肃办）青海省民和回族土族自治县杨生淳,1005,甘肃直营办事处,青海省民和县川垣新区金鼎佳苑二楼,杨生淳,民和回族土族自治县,730080,36.55820519,101.71937
447,1000133,甘肃省敦煌市杨金莲,1005,甘肃直营办事处,甘肃省酒泉市敦煌市兰州村,杨金莲,敦煌市,736200,40.13165034,94.68811278
448,1000134,甘肃省张掖市余永红,1005,甘肃直营办事处,甘肃省张掖市区政府向右转金山物流院内,余永红,张掖市,734000,38.52651901,102.2149977
449,1000135,甘肃省金昌市吴小源,1005,甘肃直营办事处,甘肃省金昌市上海路天一美居家具城三楼全友,吴小源,金昌市,733000,38.5160718,102.2081263
450,1000136,甘肃省武威市张澍,1005,甘肃直营办事处,甘肃省武威市明清文化一条街全友家私,,武威市,733000,37.92880554,102.6478452
451,1000137,甘肃省永靖县章思满,1005,甘肃直营办事处,甘肃省临夏回族自治州永靖县刘家峡镇川北路南北家具城,章思满,永靖县,731600,35.94223157,103.3192426
452,1000138,甘肃省临夏市杨晶,1005,甘肃直营办事处,甘肃省临夏回族自治州临夏市大西关南洋家具公司,杨晶,临夏市,731100,35.60369327,103.2123604
453,1000141,甘肃省华亭县熊奎,1005,甘肃直营办事处,甘肃省平凉市华亭县运通家园综合商贸楼,熊奎,华亭县,744103,35.20554958,106.6086703
454,1000142,甘肃省定西市金永余,1005,甘肃直营办事处,甘肃省定西市江夏广场南6号楼二楼,金永余,定西市,743000,35.58969832,104.6193335
455,1000143,甘肃省陇西县魏松林,1005,甘肃直营办事处,甘肃省定西市陇西县北环路万佳乐家具城,魏松林,陇西县,748100,35.11180169,104.6329132
456,1000146,甘肃省靖远县杨国惠,1005,甘肃直营办事处,甘肃白银市靖远县新天地家具超市进门左门口第一位置,杨国惠,靖远县,730600,36.74910343,104.7323269
457,1000147,甘肃省平凉市熊晓娟,1005,甘肃直营办事处,甘肃省平凉市盘旋路口往东天丰家居生活馆一楼,熊晓娟,平凉市,744000,35.54241026,106.7059324
458,1000149,甘肃省环县王继红,1005,甘肃直营办事处,甘肃庆阳市环县金鹏商业街,王继红,环县,745700,36.61678864,107.0721722
459,1003864,(甘肃办)宁夏吴忠市红寺堡区刘瑞阳,1005,甘肃直营办事处,宁夏省吴忠市红寺堡区博大家居生活广场负一楼物流配送中心,刘瑞阳,,,37.40176883,106.0704819
460,1003867,(浙江办）浙江省三门县庞学贵,1006,浙江直营办事处,浙江省台州市三门县顺风汽车修理厂,庞学贵,,,29.01774425,121.4882288
461,1001647,（浙江办）浙江省开化县方德表,1006,浙江直营办事处,浙江省衢州市开化县解放街31号食品公司内(最大只能进9.6米的车),方德表,开化县,324300,29.13957404,118.4184499
462,1003806,（浙江办）浙江省桐乡市洲泉镇蔡康一,1006,浙江直营办事处,浙江省桐乡市洲泉镇湘溪大道199号,蔡康一,,,30.57570788,120.3637848
463,1003853,(浙江办)浙江省海宁市周刚,1006,浙江直营办事处,浙江省嘉兴市海宁市洛隆路68号,周刚,,,30.5481745,120.6932625
464,1003876,（浙江办）浙江省平湖市戴连明,1006,浙江直营办事处,浙江省平湖市九龙广场5幢201,戴连明,,,30.71652859,121.105839
465,1003857,(浙江办）浙江省开化县华埠镇程波,1006,浙江直营办事处,浙江省衢州市开化县华埠镇汽车站对面,程波,,,29.0134136,118.3656708
466,1003941,(浙江办)浙江省龙泉市刘继伟,1006,浙江直营办事处,浙江省龙泉市水南车站上首20米,刘继伟,,,28.05063931,119.0822973
467,1003735,【定制销售本部】浙江省金华市赵丹,1006,浙江直营办事处,浙江省金华市和信路973-981号,赵丹,,,29.07041584,119.6585292
468,1003821,（浙江办）浙江省金华市孝顺镇叶茂,1006,浙江直营办事处,浙江省金华市金东区孝顺镇金山大道聚鑫商城1幢1-11号,叶茂,,,29.18944221,119.8752682
469,1003903,浙江省北仑区白峰镇陈秀荣,1006,浙江直营办事处,浙江省宁波市北仑区白峰镇新世纪建材装饰市场1号楼灯具区第8号摊位,陈秀荣,,,29.91460183,121.8287389
470,1003748,【定制销售本部】浙江省天台县金将锋,1006,浙江直营办事处,浙江省天台县天台山西路西演茅村,金将锋,,,29.15272178,121.0159762
471,1003939,（浙江办）浙江省杭州市江干区印春新,1006,浙江直营办事处,浙江省杭州市江干区德胜路2888号恒大建材市场,印春新,,,30.30731578,120.1839103
472,1003631,（浙江办）浙江省新昌县潘善富,1006,浙江直营办事处,浙江省绍兴市新昌县梅园新村17幢6号（七星大桥南边）,潘善富,,,29.51796048,120.8806833
473,1003288,（浙江办）浙江省金华市郑书柳,1006,浙江直营办事处,浙江省金华市双龙南街1656号,郑书柳,,,29.06748688,119.6539298
474,1003311,（浙江办）浙江省建德市毛友君,1006,浙江直营办事处,浙江省建德市新安东路508号东洲商务1楼,毛友君,,,29.49239597,119.3037222
475,1002800,（浙江办）浙江省金华市武义县武阳镇涂聪武,1006,浙江直营办事处,浙江省金华市武义县武阳镇温泉南路153号（供电局对面）,涂聪武,,,28.89458457,119.8309089
476,1002664,（浙江办）浙江省云和县叶东陈,1006,浙江直营办事处,浙江省丽水市云和县城东路212号,叶东陈,,,28.11021293,119.5849676
477,1003312,（浙江办）浙江省嘉兴市王江泾镇张艳,1006,浙江直营办事处,浙江省嘉兴市王江泾镇长运车站2楼,张艳,,,30.90175577,120.7401467
478,1003499,（浙江办）浙江省乐清市柳市镇吴进华,1006,浙江直营办事处,浙江省乐清市柳市镇吕庄村柳江北路28号地下室,吴进华,,,28.05715712,120.8958658
479,1003489,（浙江办）浙江省湖州市南浔镇蒋利群,1006,浙江直营办事处,浙江省湖州市南浔镇国际建材城C区02全友家居,蒋利群,,,30.80069235,120.4349669
480,1002265,（浙江办）浙江省江山市柴建平,1006,浙江直营办事处,浙江省江山市东岳路519号（四季青商贸城）,柴建平,,,28.7259152,118.6269891
481,1002721,（浙江办）浙江省安吉县俞红,1006,浙江直营办事处,浙江省湖州市安吉县递铺镇塘浦竹贸城二期D栋,俞红,,,30.63737768,119.6930941
482,1003099,【定制销售本部】浙江省嵊州市张陈英,1006,浙江直营办事处,浙江市绍兴嵊州市东南路353号-定制,张陈英,,,29.58645636,120.8209162
483,1002713,（浙江办）浙江省宁波市程德清,1006,浙江直营办事处,浙江省宁波市现代商厦B馆三楼,程德清,,,29.88525897,121.579006
484,1002888,（浙江办）浙江省仙居县叶舰舰,1006,浙江直营办事处,浙江省台州市仙居县环城东路50号全友家私,叶舰舰,,,28.85897784,120.7543764
485,1002918,（浙江办）浙江省遂昌县李美华,1006,浙江直营办事处,浙江省丽水市遂昌县牡丹亭中路574号,李美华,,,28.52541033,119.0893424
486,1002396,（浙江办）浙江省青田县金成双,1006,浙江直营办事处,浙江省丽水市青田县石郭工业园区1幢,金成双,,,28.12646041,120.3076486
487,1002434,（浙江办）浙江省义乌市周文军,1006,浙江直营办事处,浙江省金华市义乌市西城路1779号家具市场全友家私,周文军周文军,,,29.30331418,120.0227694
488,1002063,（浙江办）浙江省杭州拱墅王保国1,1006,浙江直营办事处,浙江省杭州市江干区丁桥镇沿山村山羊坞118号,王保国,杭州市拱墅区,300311,30.37782039,120.224765
489,1001617,（浙江办）浙江省上虞市韩秋娟,1006,浙江直营办事处,浙江省绍兴市上虞市石狮高贸城全友家私一楼,韩秋娟,上虞市,312300,29.97804005,120.8894323
490,1001620,（浙江办）浙江省长兴县胡玉珠,1006,浙江直营办事处,浙江省湖州市长兴县长兴建材城15栋3楼,胡玉珠,长兴县,313100,31.00176807,119.9276685
491,1001621,（浙江办）浙江省德清县吴一鸣,1006,浙江直营办事处,浙江省湖州市德清县武康镇卢球商贸中心,吴一鸣,德清县,313200,30.54041874,119.9802486
492,1001623,（浙江办）浙江省桐乡市程静,1006,浙江直营办事处,浙江省嘉兴市桐乡市苏宁家电一、二楼,程静,330400,314500,30.61234103,120.4904112
493,1002076,（浙江办）浙江省泗门镇鲁佰文,1006,浙江直营办事处,浙江省余姚市泗门镇镇北路4-6号全友家私,鲁佰文,泗门镇,315400,30.16838252,121.0495635
494,1002656,（浙江办）浙江省庆元县吴丽君,1006,浙江直营办事处,浙江省丽水市庆元县长途汽车站出口,吴丽君,,,27.62804612,119.1576192
495,1001757,（浙江办）浙江省浦江县孙立强,1006,浙江直营办事处,浙江省金华市浦江县中山南路建材市场二楼,孙立强,330700,321100,29.45662118,119.9062743
496,1002830,（浙江办）浙江省湖州市南浔区和孚镇鲍强,1006,浙江直营办事处,浙江省湖州市南浔区和孚镇重兆丝绸工业园区,鲍强,,,30.78315142,120.1695748
497,1001906,（浙江办）浙江省松阳县刘学水,1006,浙江直营办事处,浙江省丽水市松阳县西屏镇长松路123号,刘学水,松阳县,323400,28.45011749,119.4981776
498,1001948,（浙江办）浙江省临海市杜桥镇金宾斌,1006,浙江直营办事处,浙江省台州市临海市杜桥镇环城南路2号大转盘旁,金宾斌,331000,317016,28.76869518,121.5136742
499,1001609,（浙江办）浙江省杭州市萧山区王冠军,1006,浙江直营办事处,浙江省杭州市萧山区汇宇家具市场B号馆101、201,王冠军,杭州市萧山区,311300,30.17289384,120.3890807
500,1001611,（浙江办）浙江省富阳市陆建青,1006,浙江直营办事处,浙江省富阳市钢圈厂路25号,陆建青,富阳市,311400,30.05150972,119.936509
501,1001614,（浙江办）浙江省淳安县卓其勇,1006,浙江直营办事处,浙江省杭州市淳安县南山二路22号,卓其勇,淳安县,300311,29.59925906,119.0565412
502,1001615,（浙江办）浙江省绍兴市吴开强,1006,浙江直营办事处,浙江省绍兴市越城区喜得宝家居广场二楼全友家居,吴开强,330600,312000,30.01579294,120.6183267
503,1001616,（浙江办）浙江省诸暨市陈永华,1006,浙江直营办事处,浙江省绍兴市诸暨市艮塔西路75号全友家私,陈永华,诸暨市,311800,29.73272901,120.2311786
504,1001632,（浙江办）浙江省临海市陈卫林,1006,浙江直营办事处,浙江省台州市临海市柏叶西路327#全友家私广场,陈卫林,临海市,317000,28.86211861,121.1623433
505,1001636,（浙江办）浙江省天台县厉菊芳,1006,浙江直营办事处,浙江省台州市天台县天元东街22号,厉菊芳,天台县,317200,29.15823442,121.0053553
506,1001637,（浙江办）浙江省丽水市叶喜标,1006,浙江直营办事处,浙江省丽水市罗埠小学,叶喜标,丽水市,323000,28.45629955,119.9295758
507,1001640,（浙江办）浙江省景宁畲族自治县叶东卓,1006,浙江直营办事处,浙江省丽水市景宁畲族自治县新华路198号全友家私,叶东卓,景宁畲族自治县,315400,27.98904958,119.6411863
508,1001643,（浙江办）浙江省东阳市余晓芬,1006,浙江直营办事处,浙江省金华市东阳市国际建材城D区皇冠家居广场,余晓芬,东阳市,322100,29.29729978,120.2073009
509,1001645,（浙江办）浙江省兰溪市王志兴,1006,浙江直营办事处,浙江省金华市兰溪市振兴路208号锦天家私城2楼,王志兴,兰溪市,300311,29.21462038,119.4531384
510,1003865,(浙江办)浙江省宁波市石浦镇林云,1006,浙江直营办事处,浙江省宁波市象山县石浦镇凤上山装璜市场4楼,林云,,,29.46300297,121.8718687
511,1001876,湖南省衡阳市罗琳,1008,湖南直营办事处,湖南省衡阳市船山路221号建设大厦对面,罗琳,430400,421001,26.90863085,112.6089777
512,1002825,湖南省常德市汉寿县西湖镇周运喜,1008,湖南直营办事处,湖南省常德市汉寿县西湖镇经技贸商贸城全友家居,周运喜,,,29.10290076,112.1109553
513,1001892,湖南省祁阳县杨龙,1008,湖南直营办事处,湖南省永州市祁阳县金盆路县政府斜对面,杨龙,祁阳县,426100,26.58395017,111.8657367
514,1001924,湖南省娄底市彭保权,1008,湖南直营办事处,湖南省娄底市娄星区万宝新区大井路1号,彭保权,娄底市,417000,27.76694534,112.0046191
515,1002784,湖南省新宁县叶容兵,1008,湖南直营办事处,湖南省邵阳市新宁县老广场中心市场全友家居,叶容兵,,,26.5485807,110.9246977
516,1000738,湖南省江永县蒋石训,1008,湖南直营办事处,湖南省永州市江永县步行街一栋三楼,蒋石训,江永县,422000,25.19998824,111.2538867
517,1000743,湖南省永州市唐福艳,1008,湖南直营办事处,湖南省永州市冷水滩区河东育才路湘发.家居装饰城,唐福艳,431100,417000,26.42377074,111.6286168
518,1000745,湖南省长沙市星沙区彭长清,1008,湖南直营办事处,湖南省长沙市星沙区商业乐园A栋,彭长清,长沙市,410000,28.24979413,113.0919434
519,1000747,湖南省桑植县王贞兰,1008,湖南直营办事处,湖南省张家界市桑植县卷烟厂,王贞兰,430800,427100,29.56769159,110.187336
520,1000748,湖南省洪江市彭立荣,1008,湖南直营办事处,湖南省怀化市洪江市幸福东路1号,彭立荣,洪江市,425500,27.11407982,110.0095129
521,1000749,湖南省洪江市安江镇杨文忠,1008,湖南直营办事处,湖南省洪江市安江镇新建路,杨文忠,洪江市安江镇,425800,27.3203261,110.1556626
522,1000750,湖南省怀化市杨羚,1008,湖南直营办事处,湖南省怀化市河西德天家俱广场旁边,杨羚,怀化市,425400,27.54714154,109.9529978
523,1003586,湖南省衡南县车江镇谢培亚,1008,湖南直营办事处,湖南省衡南县车江镇,谢培亚,,,26.77350573,112.5887437
524,1000723,湖南省隆回县马柏甫,1008,湖南直营办事处,湖南省邵阳市隆回县桃洪中路1号红太阳21店三楼,马柏甫,隆回县（金石桥镇）,422200,27.12104515,111.0458141
525,1000724,湖南省邵东县彭珊,1008,湖南直营办事处,湖南省邵阳市邵东县城.金龙大道431号,彭珊,邵东县,422000,27.25657773,111.7440124
526,1000725,湖南省邵阳市彭珊,1008,湖南直营办事处,湖南省邵阳市火车北站百货站仓库,彭珊,邵阳市,422000,27.23681124,111.4615254
527,1000727,湖南省涟源市李洪飞,1008,湖南直营办事处,湖南省娄底市涟源市人民东路卓越建材家居城三楼,李洪飞,涟源市,417000,27.69894052,111.6895962
528,1000730,湖南省双峰县龚彬,1008,湖南直营办事处,湖南省双峰县城中路建设局对面全友家私,龚彬,双峰县,417700,27.4620716,112.200421
529,1000736,【定制销售本部】湖南省江华瑶族自治县邹小华,1008,湖南直营办事处,湖南省江华县同天家居广场全友定制衣柜,邹小华,江华瑶族自治县,422200,24.97764212,111.7524957
530,1000797,湖南省沅江草尾镇杨方华,1008,湖南直营办事处,湖南省益阳市沅江县草尾镇汽车站,杨方华,沅江草尾镇,413018,29.04484102,112.381395
531,1000798,湖南省安化县刘欣,1008,湖南直营办事处,湖南省安化县东坪镇沿江路嘉和商业广场全友家居专卖店,刘欣,安化县,413500,28.38449426,111.2304857
532,1000799,湖南省南县练海,1008,湖南直营办事处,湖南省益阳市南县兴盛大道南州广场政府对面,练海,南县,410000,29.36716546,112.4041278
533,1000800,湖南省耒阳市谭小龙,1008,湖南直营办事处,湖南省衡阳市耒阳市城北路海琼百货三楼,谭小龙,耒阳市,421800,26.41821613,112.8461177
534,1000801,湖南省衡东县曹明正,1008,湖南直营办事处,湖南省衡阳市衡东县衡岳南路阳光大厦,曹明正,衡东县,412300,27.08576945,112.9570185
535,1000804,湖南省茶陵县李云苟,1008,湖南直营办事处,湖南省株洲市茶陵县云阳路云阳商厦一二楼,李云苟,茶陵县,412400,26.79788978,113.5465444
536,1000805,湖南省攸县刘文明,1008,湖南直营办事处,"湖南省株洲市攸县城关镇新城路强远家私城二楼,东风大洒店对面",刘文明,430200,412300,27.0103321,113.3461556
537,1000808,湖南省醴陵市张昌友,1008,湖南直营办事处,湖南省株洲市醴陵市鑫源广场全友家私生活馆,张昌友,430200,412200,27.65880652,113.5204036
538,1000809,湖南省浏阳市陈正清,1008,湖南直营办事处,湖南省浏阳市礼花路家年华家居建材广场,陈正清,浏阳市,410300,28.15779454,113.6209138
539,1000810,湖南省宁乡县易存亮,1008,湖南直营办事处,湖南省长沙市宁乡县龙头湾购物中心三楼全友家私,易存亮,宁乡县,410621,28.25638969,112.5641644
540,1000811,（湖南办）江西省上栗县许万军,1008,湖南直营办事处,江西省萍乡市上栗县胜利路67号,许万军,上栗县,413200,27.88169894,113.8090684
541,1000816,湖南省嘉禾县左荣丰,1008,湖南直营办事处,湖南省郴州市嘉禾县晋屏北路51号全友家居,左荣丰,嘉禾县,423000,25.59910883,112.3690883
542,1000770,湖南省华容县杨贻红,1008,湖南直营办事处,湖南省岳阳市华容县华阳市场南全友家私(二大桥旁原八路家私城),杨贻红,430600,419100,29.49339583,112.6510095
543,1000771,湖南省岳阳县成和平,1008,湖南直营办事处,湖南省岳阳市岳阳县东方盛世商业广场,成和平,岳阳县,414100,29.17849853,113.2375272
544,1000773,湖南省湘阴县朱国兵,1008,湖南直营办事处,湖南省岳阳市湘阴县东湖商业中心,朱国兵,湘阴县,410000,28.67828749,112.8915764
545,1000775,湖南省汉寿县李国锋,1008,湖南直营办事处,湖南省常德市汉寿县五里桥家居建材市场,李国锋,汉寿县,512200,28.86480023,112.0443106
546,1000776,湖南省澧县余宗海,1008,湖南直营办事处,湖南省常德市澧县澧州食品城二楼,余宗海,澧县,415500,29.64972726,111.7803884
547,1000818,湖南省汝城县邓兆雄,1008,湖南直营办事处,湖南省郴州市汝城县新建东路桂园小区,邓兆雄,汝城县,424100,25.55837066,113.6936858
548,1000819,湖南省宜章县蒋井顺,1008,湖南直营办事处,湖南省郴州市宜章县玉溪河商业街4栋1-2楼,蒋井顺,宜章县,424200,25.27588655,112.9334474
549,1000751,湖南省靖州苗族自治县李朝强,1008,湖南直营办事处,湖南省怀化市靖州苗族侗族自治县渠阳中路土产公司仓库,李朝强,靖州苗族自治县,452600,26.58137595,109.6930141
550,1000752,湖南省麻阳苗族自治县田昌本,1008,湖南直营办事处,湖南省怀化市麻阳苗族自治县工商大楼一、二、三楼（花台路口）,田昌本,麻阳苗族自治县,419400,27.79137573,109.7291791
551,1000757,湖南省会同县彭述军,1008,湖南直营办事处,湖南省怀化市会同县将军北路锦绣豪苑A栋门面13-18号（县火车站货场对面）,彭述军,会同县,410000,26.89038862,109.740291
552,1000759,湖南省辰溪县张蓉,1008,湖南直营办事处,湖南省怀化市辰溪县,,辰溪县,330009,27.89590209,110.2730089
553,1000763,（湖南办）湖北省石首市李红堂,1008,湖南直营办事处,湖北省荆州市石首市香港城东门,李红堂,石首市,434400,29.73187941,112.4237847
554,1000764,湖南省岳阳市方庆润,1008,湖南直营办事处,湖南省岳阳市八字门107国道银光竹木市场三区内（往前50米）,方庆润,430600,414000,29.39046869,113.1908483
555,1000766,湖南省汨罗市余坤,1008,湖南直营办事处,湖南省岳阳市汨罗市建设中路心连心超市三楼,余坤,汨罗市,414400,28.77960589,112.9764225
556,1000768,湖南省湘潭县刘红辉,1008,湖南直营办事处,湖南省湘潭市湘潭县易俗河二大桥凤凰路与雪松路口交汇处,刘红辉,湘潭县,411100,27.78666835,112.9530525
557,1000769,湖南省湘乡市黄正国,1008,湖南直营办事处,湖南省湘潭市湘乡市桑梅中路金海市场三栋2楼,,湘乡市,414000,27.74287019,112.5349355
558,1000813,湖南省安仁县郑新德,1008,湖南直营办事处,湖南省郴州市安仁县城五一南路工业品商场二楼,郑新德,安仁县,423600,26.70920825,113.2775764
559,1000815,湖南省桂阳县郑支仁,1008,湖南直营办事处,湖南省桂阳县大市场二楼,郑支仁,桂阳县,424400,25.89349002,112.6081076
560,1000780,湖南省花垣县肖智化,1008,湖南直营办事处,湖南省湘西土家族苗族自治州吉首市花垣县民族商场,肖智化,433100,416400,28.31795079,109.7457458
561,1000783,（湖南办）湖北省来凤县杨世林,1008,湖南直营办事处,湖南省湘西土家族苗族自治州吉首市湘西州龙山县世纪广场旁一中广场,杨世林,来凤县,445700,28.26411716,109.7082266
562,1000784,湖南省常德市贺昌喜,1008,湖南直营办事处,湖南省常德市武陵大道邮政大楼二楼,贺昌喜,常德市,415000,29.07305812,111.7013462
563,1000787,湖南省永顺县王珍香,1008,湖南直营办事处,湖南省湘西土家族苗族自治州吉首市湘西州永顺县小西门桥头,王珍香,永顺县,416700,28.3171426,109.7709258
564,1000788,湖南省桃源县赵建春,1008,湖南直营办事处,湖南省常德市桃源县漳江北路,赵建春,桃源县,410000,28.91813612,111.4893619
565,1000789,湖南省古丈县董全喜,1008,湖南直营办事处,湖南省湘西土家族苗族自治州吉首市古丈县十板街,董全喜,古丈县,416705,28.31795079,109.7457458
566,1000791,湖南省衡阳市南岳区罗艳云,1008,湖南直营办事处,湖南省衡阳市南岳区东环路鑫盛广场全友家居,罗艳云,衡阳市南岳区,421900,27.25935857,112.7087671
567,1000792,湖南省衡阳县张越,1008,湖南直营办事处,湖南省衡阳市衡阳县三中（往衡阳市方向100米）,张越,衡阳县,421200,27.10962611,112.3515794
568,1000794,湖南省桃江县罗建飞,1008,湖南直营办事处,湖南省益阳市桃江县总工会一楼,罗建飞,桃江县,413400,28.46414238,111.9904642
569,1000796,湖南省沅江县杨得意,1008,湖南直营办事处,湖南省益阳市沅江县桔城大道金旺府,杨得意,沅江县,415000,28.84842014,112.3667947
570,1003678,湖南省临湘市庞正奎,1008,湖南直营办事处,湖南省临湘市五塘路口（龙鑫综合楼门面）,庞正奎,,,29.49614601,113.5197494
571,1003856,湖南省蓝山县新圩镇李电生,1008,湖南直营办事处,湖南省蓝山县新圩镇新圩医院旁,李电生,,,25.41916659,112.4015656
572,1003934,湖南省株洲快一步装饰工程有限公司易建华,1008,湖南直营办事处,湖南株洲市天元区滨江北路789号4、5号商业二楼,易建华,,,27.83816746,113.1482578
573,1003729,湖南省常宁市段志敏,1008,湖南直营办事处,湖南省常宁市青阳北路北城星府三楼全友家居,段志敏,,,26.43944266,112.4042101
574,1003771,湖南省浏阳市大瑶镇杨香华,1008,湖南直营办事处,湖南省浏阳市大瑶镇花炮大道198号（大瑶全友家居专卖店）,杨香华,,,27.99775294,113.732717
575,1003828,湖南省常德市西洞庭区雷立仙,1008,湖南直营办事处,湖南省常德市西洞庭区步行街全友家居,雷立仙,,,28.63456519,111.8447453
576,1003849,湖南省溆浦县奠自军,1008,湖南直营办事处,湖南省怀化市溆浦县溆浦大汉新城星星苑大汉购物中心3楼,奠自军,,,27.34194383,110.9566274
577,1003925,（湖南办）湖北省石首市调关镇颜华,1008,湖南直营办事处,湖北省石首市调关镇金沙路26号,颜华,,,29.69454571,112.6421159
578,1003940,湖南省湘乡市虞塘镇王明裕,1008,湖南直营办事处,湖南省湘乡市虞塘镇全友家居专卖店,王明裕,,,28.04135967,112.6430903
579,1003836,湖南省衡南县向阳桥镇黄海平,1008,湖南直营办事处,湖南省衡阳市衡南县向阳桥镇107国道旁全友家居,黄海平,,,26.7598449,112.6485138
580,1003772,湖南省长沙市岳麓区阳凌,1008,湖南直营办事处,湖南省长沙市岳麓区望岳街谷丰村南竹坡组,阳凌,,,28.20270663,112.9086994
581,1003840,湖南省保靖县吴厚祥,1008,湖南直营办事处,湖南省保靖县十字路口,吴厚祥,,,28.67242771,109.5739047
582,1003851,湖南省永州市珠山镇唐德平,1008,湖南直营办事处,湖南省永州市珠山镇,唐德平,,,26.11736244,111.3465148
583,1003519,湖南省新田县唐福艳,1008,湖南直营办事处,湖南省永州市新田县新嘉公路旁工业小区南园洪元鞋业隔壁,唐福艳,,,25.89052739,112.2348073
584,1003533,【定制销售本部】湖南省娄底市宋盛强,1008,湖南直营办事处,湖南省娄底市大汉路（丹枫国际对面）,宋盛强,,,27.75986901,112.0090786
585,1003572,湖南省邵阳县马柏甫,1008,湖南直营办事处,湖南省邵阳县振羽大道中宏步行街1号楼,马柏甫,,,27.01225826,111.3255393
586,1003362,湖南省衡南县三塘镇赵岳元,1008,湖南直营办事处,湖南省衡南县三塘镇农贸街环城北路,赵岳元,,,26.87635554,112.4950683
587,1003429,【定制销售本部】湖南省龙山县杨世胜,1008,湖南直营办事处,湖南省龙山县世纪广场旁1402,杨世胜,,,29.45694825,109.4394775
588,1003644,【定制销售本部】湖南省邵东县姚作祥,1008,湖南直营办事处,湖南省邵阳市邵东县东方家居广场正大门口,姚作祥,,,27.2690641,111.7346416
589,1003228,湖南省平江县南江镇李平泉,1008,湖南直营办事处,湖南省平江县南江镇幕阜大道106国道十字路口旁,李平泉,,,28.97883925,113.7509864
590,1003215,【定制销售本部】湖南省吉首市杨海艳,1008,湖南直营办事处,湖南省吉首市光彩会展中心1单元B栋3楼,杨海艳,,,28.3171426,109.7709258
591,1003226,湖南省长沙县果园镇刘俊雄,1008,湖南直营办事处,湖南省长沙市长沙县果园镇农村商业银行对面,刘俊雄,,,28.34594708,113.230638
592,1003227,湖南省蓝山县唐小林,1008,湖南直营办事处,湖南省永州市蓝山县边贸中路（蓝城上郡北郡对面),唐小林,,,25.38331231,112.1957954
593,1003229,湖南省平江县长寿镇余满厚,1008,湖南直营办事处,湖南省平江县长寿镇长富路飞达汽贸,余满厚,,,28.71875368,113.952597
594,1003682,湖南省江华瑶族自治县曹德荣,1008,湖南直营办事处,湖南省江华县华银国际大厦二楼,曹德荣,,,24.97764212,111.7524957
595,1003693,湖南省浏阳市文家市镇熊本初,1008,湖南直营办事处,湖南省浏阳市文家市镇将军路,熊本初,,,28.05114561,113.9370941
596,1003815,湖南省泸溪县欧阳朝晖,1008,湖南直营办事处,湖南省湘西土家族苗族自治州吉首市泸溪县朝阳路,欧阳朝晖,,,28.26835561,109.7251608
597,1002687,湖南省新邵县岳志远,1008,湖南直营办事处,湖南省邵阳市新邵县大新街10#,岳志远,,,27.32763632,111.4696302
598,1002755,湖南省新化县成和平,1008,湖南直营办事处,湖南省娄底市新化县中央粮库直属库,成和平,,,27.8732726,111.2468447
599,1002778,湖南省永兴县邓丽,1008,湖南直营办事处,湖南省郴州市永兴县人民路105号,邓丽,,,26.12664892,113.1202128
600,1002589,（湖南办）江西省长平镇钟鹏,1008,湖南直营办事处,江西省上栗县长平镇爱心超市旁,钟鹏,,,27.83226022,113.8678064
601,1003195,湖南省平江县周献良,1008,湖南直营办事处,湖南省岳阳市平江县开发区边岳大道财保大楼,周献良,,,28.76220296,113.7208465
602,1003295,【定制销售本部】湖南省常宁市邓小艳,1008,湖南直营办事处,湖南省衡阳市常宁市莲花车站旁,邓小艳,,,26.41417887,112.3821545
603,1003183,【定制销售本部】湖南省怀化市蒲宏俅,1008,湖南直营办事处,湖南省怀化市人民南路198号鸿瑞国际3楼,蒲宏俅,,,27.55248854,109.9699306
604,1003385,【定制销售本部】湖南省常德市西洞庭镇雷立仙,1008,湖南直营办事处,湖南省常德市西洞庭步行街,雷立仙,,,29.21507795,111.9800544
605,1003449,湖南省衡山县王绪辉,1008,湖南直营办事处,湖南省衡山县开云镇义安路332号,王绪辉,,,27.23931226,112.8770173
606,1003469,湖南省冷水江市刘兆胜,1008,湖南直营办事处,湖南省冷水江市金竹中路东源德鑫大厦2-3楼,刘兆胜,,,27.67733015,111.4485085
607,1003491,【定制销售本部】湖南省慈利县何永潮,1008,湖南直营办事处,湖南省慈利县零阳镇金穗商业街3幢2楼,何永潮,,,29.42771041,111.1360771
608,1003455,湖南省汝城县文明镇朱裕宝,1008,湖南直营办事处,湖南省汝城县文明镇文明街,朱裕宝,,,25.55513675,113.6776767
609,1002430,湖南省韶山市彭湘华,1008,湖南直营办事处,湖南省韶山市韶山中路隆盛商贸城,彭湘华彭湘华,,,27.9253947,112.5394674
610,1002474,湖南省长沙市开福区彭来喜,1008,湖南直营办事处,湖南省长沙市开福区金霞商业区2栋8号,彭来喜,,,28.26021906,113.02473
611,1002476,湖南省浏阳市金刚镇钟志雨,1008,湖南直营办事处,湖南省浏阳市大瑶镇花炮大道全友家私,钟志雨,,,27.98442521,113.7313993
612,1002945,湖南省临澧县易容,1008,湖南直营办事处,湖南省常德市临澧县迎宾路芳辰一品三楼（步步高超市三楼）,易容,,,29.44793943,111.6524707
613,1001954,湖南省武冈市刘君枚,1008,湖南直营办事处,湖南省邵阳市武冈县步行街新联心超市二楼,刘君枚,430500,422400,26.73500633,110.6358075
614,1002289,湖南省望城县邓罗,1008,湖南直营办事处,湖南省长沙市望城县高塘岭大道（广电旁）,邓罗,,,28.36039801,112.8299408
615,1002317,湖南省新晃侗族自治县金媛香,1008,湖南直营办事处,湖南省怀化市新晃侗族自治县商业步行街五栋2楼,金媛香,,,27.23450911,109.1687411
616,1002347,湖南省长沙市杨博武,1008,湖南直营办事处,湖南省长沙市井湾子家俱城A座3楼,杨博武,,,28.13032116,113.0158915
617,1002238,湖南省湘潭市叶怡辉,1008,湖南直营办事处,湖南省湘潭市霞光西路（市卫生局旁）,,,,27.83838923,112.9356312
618,1002352,湖南省中方县杨坤林,1008,湖南直营办事处,湖南省怀化市中方县中心市场旁金御楼二楼,杨坤林,,,27.5532383,109.972484
619,1002556,湖南省株洲市钟健,1008,湖南直营办事处,湖南省株洲市石峰区响田西路,钟健,,,27.87661855,113.1153614
620,1002058,湖南省镇头镇袁富明,1008,湖南直营办事处,湖南省长沙市浏阳市镇头镇开源路富华家具超市,袁富明,镇头镇,410319,28.01185563,113.3361507
621,1002149,湖南省洋溪镇向文胜,1008,湖南直营办事处,湖南省娄底市新化县洋溪镇车站路,向文胜,,,27.67142217,111.1896191
622,1002171,湖南省沿溪镇林伟,1008,湖南直营办事处,湖南省浏阳市沿溪镇全友家私,林伟,,,28.01218515,113.3383579
623,1000729,湖南省娄底市谭金东（弃）,1008,湖南直营办事处,湖南省娄底市乐坪西街市场全友仓库,谭金东,,,27.7286327,111.9958699
624,1002189,湖南省祁东县黄勇军,1008,湖南直营办事处,湖南省衡阳市祁东县县政中路邮政大厦三楼全友家私,黄勇军,,,26.78898723,112.12967
625,1002203,湖南省洞口县姚作祥,1008,湖南直营办事处,湖南省邵阳市洞口县杨柳冲步行街全友家私,姚作祥,,,27.06913287,110.5920444
626,1002143,湖南省安乡县邓建华,1008,湖南直营办事处,湖南省常德市安乡县大市场二楼,邓建华,,,29.44899601,112.1624368
627,1002083,湖南省灰山港镇许跃光,1008,湖南直营办事处,湖南省桃江县灰山港镇紫荆东路,许跃光,灰山港镇,413400,28.29213993,112.255119
628,1002368,湖南省张家界市崔锴,1008,湖南直营办事处,湖南省张家界市官黎坪鲤鱼池,崔锴,,,29.11797484,110.4926112
629,1002369,湖南省道县屈德秀,1008,湖南直营办事处,湖南道县潇水中路供销市场对面全友家居,屈德秀,,,25.50732524,111.5980919
630,1001971,湖南省黔城县黄春梅,1008,湖南直营办事处,湖南省洪江市黔城县玉壶路世纪广场B栋2楼全友家私,黄春梅,黔城县,418216,27.20990371,109.8317617
631,1001708,湖南省津市县姚连菊,1008,湖南直营办事处,湖南省常德市津市人民路（原电信营业大厅）,姚连菊,津市县,410000,29.63189717,111.8906333
632,1001710,湖南省郴州市胡石生,1008,湖南直营办事处,湖南省郴州市香雪路源诚家居世博中心,胡石生,郴州市,423000,25.7862098,113.0352496
633,1001761,湖南省衡南县赵端元,1008,湖南直营办事处,湖南省衡南县云集镇云峰路县人民医院对面,,衡南县,421200,26.73696434,112.6799638
634,1000919,江西省高安市张陈军,1009,江西直营办事处,江西省宜春市高安市朝阳商贸城,张陈军,高安市,330800,28.36523181,115.3044819
635,1000922,江西省德安县何艳庭,1009,江西直营办事处,江西省九江市德安县宝塔大道91号名家家私广场,何艳庭,德安县,330400,29.31837271,115.7628259
636,1000924,江西省武宁县杨艳,1009,江西直营办事处,江西省九江市武宁县新宁集市名家家居广场全友家私,杨艳,武宁县,332300,29.26581522,115.1036947
637,1000929,江西省安福县林国军,1009,江西直营办事处,江西省吉安市安福县金岸广场,林国军,安福县,343200,27.38862225,114.6220857
638,1000935,江西省永新县刘冬梅,1009,江西直营办事处,江西省吉安市永新县步行街第二排,刘冬梅,360800,343400,26.97308921,114.1884471
639,1000938,江西省吉安县郭莲英,1009,江西直营办事处,江西省吉安市吉安县白云路东方红超市二楼,郭莲英,吉安县,343100,27.04614331,114.913164
640,1000940,江西省余江县陈水仕,1009,江西直营办事处,江西省鹰潭市余江县中兴超市二楼,陈水仕,余江县,335200,28.36193956,117.0833726
641,1000946,江西省婺源县金望龙,1009,江西直营办事处,江西省上饶市婺源县星江湾步行街全友家私,金望龙,婺源县,335500,29.25393884,117.8708915
642,1000947,江西省弋阳县张国富,1009,江西直营办事处,江西省上饶市弋阳县汽车北站三楼,张国富,弋阳县,334400,28.45223603,117.4166498
643,1000948,江西省余干县童样祥,1009,江西直营办事处,江西省上饶市余干县迎宾大道与世纪大道交汇处,童样祥,361100,335110,28.70568833,116.6987227
644,1000950,江西省兴国县郭斌,1009,江西直营办事处,江西省赣州市兴国县平阳街中段,郭斌,兴国县,342400,26.32766132,115.3516677
645,1000954,江西省大余县陈玉岑,1009,江西直营办事处,江西省赣州市大余二十一世纪时代广场国美家居品牌城,陈玉岑,大余县,341500,25.40674866,114.3675197
646,1000960,江西省全南县陈景来,1009,江西直营办事处,江西省赣州市全南县贸易广场,陈景来,全南县,341800,24.75142641,114.5526066
647,1000962,江西省铅山县朱红英,1009,江西直营办事处,江西省上饶市铅山县滨江花城广场旁全友家私,朱红英,铅山县,334500,28.10982214,117.7134611
648,1000964,江西省湖口县徐丽雄,1009,江西直营办事处,江西省湖口县兴湖山庄东面往新汽车站方向50米,徐丽雄,湖口县,332500,29.73504828,116.2620206
649,1000969,江西省瑞金市谢建平,1009,江西直营办事处,江西省赣州市瑞金市绵水路时代广场B座二楼,谢建平,瑞金市,341500,25.88908375,116.0374876
650,1000970,江西省石城县邹建良,1009,江西直营办事处,江西省石城县兴隆青年步行街广场,邹建良,石城县,341000,26.30556531,116.3723215
651,1002842,江西省永修县虬津镇曹已林,1009,江西直营办事处,江西省永修县虬津镇沙发厂,曹已林,,,29.17291768,115.6916643
652,1003677,【定制销售本部】江西省新建县袁尤济,1009,江西直营办事处,江西省新建县文教路国美电器旁,袁尤济,,,28.67494893,115.9138032
653,1003839,江西省宜春市丰城县周卫平,1009,江西直营办事处,江西省宜春市丰城县林安商贸城,周卫平,,,28.11151588,115.8234035
654,1003753,江西省九江县黄福明,1009,江西直营办事处,江西省九江县柴桑购物广场,黄福明,,,29.64022993,115.8420355
655,1003863,江西省贵溪市吴宇明,1009,江西直营办事处,江西省贵溪市建设大道阳光时尚广场,吴宇明,,,28.30718358,117.24797
656,1003841,江西省铜鼓县陈艳庭,1009,江西直营办事处,江西省宜春市铜鼓县步行街二楼,陈艳庭,,,28.61551554,114.3701341
657,1003884,江西省泰和县碧溪镇刘辉程,1009,江西直营办事处,江西省吉安市泰和县碧溪镇老居,刘辉程,,,26.78182228,114.3864449
658,1003665,江西省芦溪县周理明,1009,江西直营办事处,江西省萍乡市芦溪县武功山大道怡和源小区2栋,周理明,,,27.6342396,114.0423873
659,1003757,江西省遂川县唐若洋（新）,1009,江西直营办事处,江西省吉安市遂川县东路大道龙泉公园对面山水国际3号门面1-3楼,唐若洋,,,26.3336994,114.5354794
660,1003877,江西省彭泽县唐行正,1009,江西直营办事处,江西省彭泽县老计生委对面,唐行正,,,29.83459741,116.6293321
661,1003669,江西省修水县曾献礼,1009,江西直营办事处,江西省九江市修水县万福家具城,曾献礼,,,29.00002131,114.4461919
662,1003291,江西省安远县邹会昌,1009,江西直营办事处,江西省安远县九龙大道世纪豪苑,邹会昌,,,25.12788445,115.4022411
663,1003299,江西省鄱阳县田畈街镇王国富,1009,江西直营办事处,江西省鄱阳县田畈街镇福田大道,王国富,,,29.36012708,116.8792542
664,1003310,江西省泰和县郭仙梅,1009,江西直营办事处,江西省吉安市泰和县工业园,郭仙梅,,,26.74402066,114.9093561
665,1003209,江西省余江县画桥镇熊春胜,1009,江西直营办事处,江西省余江县画桥镇大桥良种场,熊春胜,,,28.51721664,117.0401002
666,1003750,江西省上高县罗建春,1009,江西直营办事处,江西省宜春市上高县宣化路1号楼,罗建春,,,28.24477173,114.9323767
667,1002681,江西省德兴县阮显开,1009,江西直营办事处,江西省上饶市德兴县滨河大道18号（南门商苑3号楼）,阮显开,,,28.93834259,117.6043811
668,1002694,江西省上饶市余寿忠,1009,江西直营办事处,江西省上饶市紫阳大道6号（王家坝农贸市场）,余寿忠,,,28.47684349,117.9831104
669,1002933,江西省新建县廖兴华,1009,江西直营办事处,江西省南昌市新建县聚源大市场内二楼,廖兴华,,,28.81262945,115.9529541
670,1003185,江西省乐平市邓贵生,1009,江西直营办事处,江西省景德镇市乐平迎宾路望江家园1#,邓贵生,,,28.97027173,117.1322495
671,1003407,快一步装饰工程有限公司江西省南昌市易建华,1009,江西直营办事处,江西省南昌市北京东路1480号快一步装饰广场,熊志颖,,,28.67994515,115.9707603
672,1003470,江西省丰城市梅林镇张云华,1009,江西直营办事处,江西省丰城市梅林镇新街,张云华,,,28.28222697,115.6712083
673,1003505,江西省浮梁县张玲,1009,江西直营办事处,江西省景德镇市浮梁县朝阳东大道弘和尊品,张玲,,,29.35919152,117.2328901
674,1003522,江西省横峰县刘烈旺,1009,江西直营办事处,江西省上饶市横峰县解放西路财富广场华兴家电二楼,刘烈旺,,,28.42075437,117.6145835
675,1002404,江西省吉安市易高伟,1009,江西直营办事处,江西省吉安市韶山东路天一园家居广场二楼,易高伟,,,27.12643265,114.9995945
676,1002490,江西省抚州市杜梅花,1009,江西直营办事处,江西省抚州市玉茗大道中段后湖田商厦,杜梅花,,,27.99238941,116.3620878
677,1003040,【定制销售本部】江西省高安市胡旭东,1009,江西直营办事处,江西省宜春市高安市八景镇全友定制衣柜-定制,胡旭东,,,28.17728812,115.4895398
678,1003149,江西省南康市张祥明,1009,江西直营办事处,江西省南康市弘泰家具博览中心E2栋,张祥明,,,25.83294353,114.7125614
679,1002684,江西省万载县李湘江,1009,江西直营办事处,江西省宜春市万载县新源城市花园二期沿街二楼,李湘江,,,28.20946419,114.3361429
680,1002865,江西省永修县罗冬兰,1009,江西直营办事处,江西省九江市永修县新城大道中段白莲广场旁全友家居,罗冬兰,,,29.02477873,115.8148347
681,1002927,江西淘宝,1009,江西直营办事处,江西淘宝,江西淘宝,,,27.75725844,115.6760824
682,1002904,江西省南昌县向塘镇陶俊君,1009,江西直营办事处,江西省南昌市南昌县向塘镇双拥东路感恩小区一、二楼,陶俊君,,,28.43656639,115.9760407
683,1003145,【定制销售本部】江西省遂川县彭樟根,1009,江西直营办事处,江西省吉安市遂川县新城家园C区商铺33-35,彭樟根,,,26.34426855,114.3705893
684,1002477,江西省井冈山市颜阳中,1009,江西直营办事处,江西省井冈山市冠瑞商业城三楼全友家居,颜阳中,,,26.74535118,114.2858435
685,1002518,江西省乐平县众埠镇徐长炎,1009,江西直营办事处,江西省景德镇市乐平县众埠镇,徐长炎,,,28.84776817,117.3072671
686,1002550,江西省瑞昌市码头镇陈梅花,1009,江西直营办事处,江西省瑞昌市码头镇通江路家具城,陈梅花,,,29.83448824,115.5915449
687,1002565,江西省鹰潭市吴迟生,1009,江西直营办事处,江西省鹰潭市交通街全友家居专卖店,吴迟生,,,28.24291916,117.0387371
688,1002524,江西省乐平县涌山镇朱秀琴,1009,江西直营办事处,江西省乐平县涌山镇枫林村665号,朱秀琴,,,29.1532346,117.329387
689,1002135,江西省新干县张建林,1009,江西直营办事处,江西省新干县国际灯饰城（新新干中学旁）,张建林,,,27.75073343,115.3979187
690,1002136,江西省信丰县林秀珍,1009,江西直营办事处,江西省赣州市信丰县阳明路桥北汇丰超市2楼,林秀珍,,,25.39244565,114.9402197
691,1002686,江西省南昌县李飞行,1009,江西直营办事处,江西省南昌县莲西路彭家村1号楼2楼,,,,28.5660541,115.9319636
692,1002375,江西省于都县肖玲,1009,江西直营办事处,江西省于都县沿江大道,肖玲,,,26.09020753,115.2684322
693,1002005,江西省瑞昌市周宇兰,1009,江西直营办事处,江西省九江市瑞昌市扬林大道金铭府邸全友家私,周宇兰,瑞昌市,332200,29.68242925,115.6837332
694,1002034,江西省南昌市刘岚岚,1009,江西直营办事处,江西省南昌市青山南路447号,刘岚岚,南昌市,330009,28.70449228,115.9190959
695,1001873,江西省株潭镇龙平根,1009,江西直营办事处,江西省万载县株潭镇平和路全友家私,龙平根,株潭镇,361000,28.05329762,114.1734959
696,1001907,江西省星子县吴云龙,1009,江西直营办事处,江西省星子县星光大道A1栋二楼红绿灯旁,吴云龙,星子县,332800,29.46246397,116.0521986
697,1001952,江西省鄱阳县陈勇,1009,江西直营办事处,江西省上饶市鄱阳县鄱阳湖大道瑞阳花苑,陈勇,鄱阳县,333100,29.0183643,116.7070608
698,1002881,江西省会昌县刘亚平,1009,江西直营办事处,江西省会昌县城文物坝九洲大街,刘亚平,,,25.50575652,115.7651512
699,1002847,江西省广丰县袁志云,1009,江西直营办事处,江西省广丰县永丰南大道县人民医院对面,袁志云,,,28.4313755,118.1857993
700,1002910,江西省万安县罗良,1009,江西直营办事处,江西省吉安市万安县凤凰路财富广场,罗良,,,26.48164796,114.7828023
701,1002022,江西华云家具有限公司,1009,江西直营办事处,江西省上饶市玉山县冰溪镇华云龙廷嘉园全友家私,江西华云家具有限公司,玉山县,334700,28.68949435,118.2537362
702,1000893,江西省宜春市刘宇,1009,江西直营办事处,江西省宜春市明月北路486号全友家居宜春国际馆,刘宇,宜春市,336000,27.81050046,114.4070007
703,1000894,江西省九江市蔡小玲,1009,江西直营办事处,江西省九江市京九路天马建材家具广场,蔡小玲,九江市,333200,29.7137887,116.0043591
704,1000895,江西省新余市谭德刚,1009,江西直营办事处,江西省新余市劳动北路,谭德刚,新余市,200000,27.82473271,114.9371999
705,1000896,江西省萍乡市周理明,1009,江西直营办事处,萍乡市金三角安源汽车站后面320国道旁边,周理明,萍乡市,337000,27.63954422,113.859917
706,1000902,江西省景德镇市周坤云,1009,江西直营办事处,江西省景德镇市广场北路广瑞公寓售楼部,周坤云,360200,333000,29.3131851,117.2265668
707,1000903,江西省进贤县龚小波,1009,江西直营办事处,江西省南昌市进贤县钟陵路168号香江商业中心,,进贤县,331700,28.37028812,116.276283
708,1000904,江西省宜黄县朱心富,1009,江西直营办事处,江西省抚州市宜黄县学前路,朱心富,宜黄县,344400,27.39306659,116.2512416
709,1000905,江西省资溪县邓永亮,1009,江西直营办事处,江西省抚州市资溪县建设路33号全友家私,邓永亮,资溪县,335300,27.71153917,117.0755888
710,1000906,江西省崇仁县邹国文,1009,江西直营办事处,江西省抚州市崇仁县中山路,邹国文,崇仁县,344200,27.77112442,116.0622183
711,1000907,江西省乐安县李淑霖,1009,江西直营办事处,江西省抚州市乐安县乐安大道锦绣花园（国土局对面）,李淑霖,乐安县,344300,27.42684672,115.8381009
712,1000908,江西省黎川县朱建华,1009,江西直营办事处,江西省抚州市黎川县东方红大道老县政府全友家私,朱建华,黎川县,344600,27.28919889,116.9158351
713,1000909,江西省金溪县徐国辉,1009,江西直营办事处,江西省抚州市金溪县金客隆商城二三楼,徐国辉,金溪县,344800,27.93149156,116.7577119
714,1000910,江西省东乡县陈小燕,1009,江西直营办事处,江西省抚州市东乡县恒安东路粮食局,陈小燕,东乡县,331800,28.24758215,116.6188725
715,1000918,江西省樟树市徐明辉,1009,江西直营办事处,江西省樟树市药都路1号全友家居专卖店,徐明辉,樟树市,331200,28.06636619,115.5586288
716,1003135,山东省郯城县管宜彬,1011,山东直营办事处,山东省临沂市郯城县团结路40号(工商局对过),管宜彬,,,34.61932863,118.3508854
717,1001102,山东省泗水县张萍,1011,山东直营办事处,山东省泗水县人民路百货大楼,张萍,泗水县,262200,35.66438236,117.2861593
718,1001083,山东省蓬莱市张和顺,1011,山东直营办事处,山东省蓬莱市南关路118号全友家居,张和顺,蓬莱市,265600,37.80870303,120.7706812
719,1001085,山东省海阳市贾斌,1011,山东直营办事处,山东省烟台海阳市凤城区百盛家具广场,贾斌,海阳市,261000,36.71854941,121.2352918
720,1001090,山东省高密市闫亮,1011,山东直营办事处,山东省潍坊市高密市长丰街1118号舒特尔家具城,闫亮,高密市,255000,36.38290011,119.7686899
721,1001091,山东省昌邑市史富强,1011,山东直营办事处,山东省潍坊市昌邑市名园家具城,史富强,昌邑市,257000,36.83423425,119.4499175
722,1001092,山东省昌乐县刑晓东,1011,山东直营办事处,山东省潍坊市昌乐县百盛家具城,刑晓东,昌乐县,262400,36.53553205,118.9139139
723,1001094,山东省济宁市赵忠,1011,山东直营办事处,山东省济宁市市中区火炬路金梭物流,赵忠,济宁市,272100,35.44013384,116.6294712
724,1001097,山东省兖州市董守凤,1011,山东直营办事处,兖州市富居家具城全友家私,董守凤,兖州市,265400,35.53936804,116.8214423
725,1001098,山东省邹城市王广华,1011,山东直营办事处,山东省济宁市邹城市国贸家具城,王广华,邹城市,265600,35.4019405,116.9423769
726,1001103,山东省汶上县房茂军,1011,山东直营办事处,山东省济宁市汶上县中都国际家具城,房茂军,370800,262100,35.74492108,116.4963984
727,1001104,山东省梁山县王传启,1011,山东直营办事处,山东省梁山县水泊南路杏花村宾馆斜对过,王传启,梁山县,262100,35.78129367,116.0964835
728,1001107,山东省肥城市申兰太,1011,山东直营办事处,山东省泰安肥城市鲁西家具大世界,申兰太,肥城市,273100,36.19525394,116.7599838
729,1001108,山东省宁阳县周兵,1011,山东直营办事处,山东省泰安市宁阳县八仙桥家具城,周兵,宁阳县,271400,35.76219572,116.7978116
730,1001112,山东省文登市王建明,1011,山东直营办事处,山东省威海市文登城西文山路,王建明,371000,264400,37.15412027,122.0107822
731,1001113,山东省日照市孙晓慧,1011,山东直营办事处,山东省日照市东港区德福隆家具广场,孙晓慧,371100,276826,35.46937733,119.3778517
732,1001116,山东省莱芜市张洪芳,1011,山东直营办事处,山东省莱芜市华联家具城,张洪芳,莱芜市,271000,36.20738346,117.6703621
733,1001118,山东省临沂市罗庄区刘大成,1011,山东直营办事处,山东省临沂市罗庄区罗五路罗庄医院旁,刘大成,临沂市罗庄区,276017,34.97794979,118.2913936
734,1001119,山东省沂南县张瑞军,1011,山东直营办事处,山东省沂南县人民路9号,张瑞军,沂南县,271400,35.55664047,118.4600534
735,1001121,山东省沂水县赵增先,1011,山东直营办事处,山东省沂水县健康路9号凯利家电二三楼,赵增先,沂水县,276400,35.80194843,118.6427493
736,1001122,山东省苍山县张学均,1011,山东直营办事处,一店：山东省临沂市苍山县中华大厦北临全友家私名品城,张学均,苍山县,277700,34.85934274,118.0559606
737,1001123,山东省费县孙敬泉,1011,山东直营办事处,山东省临沂市费县和平路交叉路口二、三、四楼,孙敬泉,费县,264500,35.27965106,117.9861942
738,1001124,山东省平邑县耿伟,1011,山东直营办事处,山东省临沂市平邑县板桥路云海商场二楼、三楼,耿伟,平邑县,264400,35.51896463,117.6455521
739,1001125,山东省莒南县昝清朋,1011,山东直营办事处,山东省莒南县嵋山路西段全友家居,昝清朋,莒南县,264300,35.17625514,118.8493314
740,1001126,山东省蒙阴县张成芳,1011,山东直营办事处,山东省临沂市蒙阴县城广场斜对过由由商业城,张成芳,蒙阴县,276826,35.74744008,118.0367424
741,1001127,山东省临沭县李长华,1011,山东直营办事处,山东省临沂县临沭常林东大街16号,李长华,临沭县,276700,34.91775448,118.6577719
742,1001128,山东省德州市李建军,1011,山东直营办事处,山东省德州市德城区天衢工业园前赵村铝合金市场,李建军,德州市,253003,37.4642341,116.2979508
743,1001130,山东省禹城市张洪兵,1011,山东直营办事处,山东省德州市禹城人民路909号与汉槐街交叉路口南行200路东，原摩托车装配公司院内,张洪兵,禹城市,253700,36.94950263,116.6456962
744,1001131,山东省陵县卢福彪,1011,山东直营办事处,山东省德州市陵县政府路商业大厦三楼,卢福彪,陵县,253300,37.33974184,116.5821708
745,1001133,山东省齐河县张吉昆,1011,山东直营办事处,山东省德州市齐河县劳动局十字路口南行100米路西,张吉昆,齐河县,251100,36.72345433,116.6782535
746,1001136,山东省平原县白会春,1011,山东直营办事处,山东省德州市平原县南外环东段原汽车销售市场（督府营小区对过）,白会春,平原县,253121,37.15661761,116.4300789
747,1001137,山东省夏津县刘军厚,1011,山东直营办事处,山东省德州市夏津县华夏新城,刘军厚,夏津县,253200,36.97216829,116.010426
748,1001138,山东省临邑县刘沛新,1011,山东直营办事处,山东省德州市临邑县汽车站北（洛北春大酒店东邻）新源家居全友超级生活馆）,刘沛新,临邑县,251500,37.19672345,116.8848086
749,1001139,山东省聊城市郭传臻,1011,山东直营办事处,山东省聊城市万德家居花园路公园对面,郭传臻,聊城市,252000,36.47518763,116.0047871
750,1001140,山东省临清市候宪东,1011,山东直营办事处,山东省聊城市临清县鲁润商厦三楼,候宪东,临清市,252400,36.84986264,115.7229614
751,1001141,山东省高唐县马志贵,1011,山东直营办事处,山东省聊城市高唐县怡园超市二楼,马志贵,371500,252800,36.86525368,116.2428043
752,1001143,山东省茌平县郭丽敏,1011,山东直营办事处,山东省聊城市茌平县北环东亚家具广场,郭丽敏,茌平县,252100,36.58851973,116.1801738
753,1001145,山东省东阿县程广臣,1011,山东直营办事处,山东省聊城市东阿县环球商场西外环1-50＃（电视台斜对过）,程广臣,东阿县,252200,36.33164249,116.2831984
754,1001148,山东省邹平县孙爱贞,1011,山东直营办事处,山东省滨州市邹平县中意家具超市,孙爱贞,邹平县,253200,36.7109718,117.6473346
755,1001150,山东省惠民县张刚,1011,山东直营办事处,山东省滨州市惠民县百货大楼三楼全友家私,张刚,惠民县,251500,37.49221966,117.5157139
756,1001151,山东省博兴县郝卫兵,1011,山东直营办事处,山东省滨州市博兴县商业中心,郝卫兵,博兴县,251500,37.19135385,118.2257153
757,1001055,山东省济南长清区方胜华,1011,山东直营办事处,山东省济南市长清区华德路宝马家具城,方胜华,济南长清区,250000,36.58199321,116.7700828
758,1001056,山东省郭店镇路维国,1011,山东直营办事处,山东省济南市历城区郭店镇新星集团,路维国,郭店镇,28400,36.72932219,117.2374018
759,1001057,山东省章丘市周恒,1011,山东直营办事处,山东省济南市章丘市绣水大街东恒家居三楼,周恒,章丘市,122500,36.7149759,117.5545096
760,1001058,山东省平阴县焦广群,1011,山东直营办事处,山东省平阴县翠屏街龙泉家具大世界东首,焦广群,平阴县,122000,36.28888899,116.4559521
761,1001059,山东省济阳县程芳,1011,山东直营办事处,山东省济南市济阳县三联家电,程芳,济阳县,110300,36.89838872,117.0235434
762,1001063,山东省莱西市李旭平,1011,山东直营办事处,山东省青岛市莱西市商业街湖南城8号楼,李旭平,莱西市,123000,36.8659763,120.5302436
763,1001064,山东省即墨市王和军,1011,山东直营办事处,山东省即墨市长江路127号,王和军,即墨市,266200,36.4879086,120.5211056
764,1001065,山东省淄博市淄川区丁娟,1011,山东直营办事处,山东省淄博市淄川区城里大街1号,丁娟,淄博市淄川区,110000,36.65311521,117.9697655
765,1001066,山东省淄博市张店区张志红,1011,山东直营办事处,山东省淄博市张店区柳泉路158号苏宁电器三楼,张志红,淄博市张店区,122000,36.815751,118.057503
766,1001069,山东省淄博市周村区高宏伟,1011,山东直营办事处,山东省淄博市周村区家具批发市场后楼,高宏伟,淄博市周村区,250109,36.77121873,117.8751084
767,1001070,山东省桓台县高春江,1011,山东直营办事处,山东省淄博市桓台县张北路2996号三联家电北邻,高春江,桓台县　,250100,36.96571625,118.1128236
768,1001073,山东省枣庄市市中区杨守海,1011,山东直营办事处,山东省枣庄新城光明路与祁连山路口北100米,杨守海,枣庄市市中区,251400,34.7989237,117.3090448
769,1001075,山东省滕州市马儒斌,1011,山东直营办事处,山东省枣庄市滕州国际家具广场F区1-14号,马儒斌,滕州市,266600,35.09431831,117.1994511
770,1001076,山东省东营市陈广龙,1011,山东直营办事处,山东省东营市东城南一路1208号人民医院西邻,陈广龙,东营市,266200,37.42899671,118.6728846
771,1001078,山东省广饶县蒋积林,1011,山东直营办事处,山东省东营市广饶县电影院家具城,蒋积林,广饶县,332700,37.16207112,118.5385693
772,1001079,山东省利津县刘茂清,1011,山东直营办事处,山东省东营市东城东四路与南一路交汇处北200米路西51号,刘茂清,利津县,256400,37.43047624,118.7073426
773,1001080,山东省烟台市崔宝华,1011,山东直营办事处,山东省烟台市三站天宝家具城,崔宝华,烟台市芝罘区,256400,37.55382474,121.3795699
774,1001081,山东省龙口市李瑞益,1011,山东直营办事处,山东省烟台市龙口市黄城老转盘全友家居,李瑞益,龙口市,265700,37.65548186,120.3391123
775,1001155,山东省鄄城县申景冉,1011,山东直营办事处,山东省菏泽市鄄城县医药公司,申景冉,鄄城县,252800,35.55504315,115.5528713
776,1001156,山东省单县翟明亮,1011,山东直营办事处,山东省单县开发区淮海现代城羽佳名家居广场2、3楼,翟明亮,单县,252800,34.78089535,116.1287379
777,1001157,山东省郓城县田利坤,1011,山东直营办事处,山东省菏泽市郓城南环路建材城,田利坤,371700,252300,35.61297952,115.8946324
778,1001158,山东省曹县车金玉,1011,山东直营办事处,山东省菏泽市曹县磐石商场三楼,车金玉,曹县,274200,34.82795277,115.5536007
779,1001159,山东省巨野县周家东,1011,山东直营办事处,山东省菏泽市巨野光明路新上海家居广场,周家东,巨野县,252400,35.40135877,116.0829563
780,1001161,山东省成武县祝汉永,1011,山东直营办事处,山东省菏泽市成武县聊商路,祝汉永,成武县,252200,34.98911095,115.9449886
781,1001162,（山东办）河北省馆陶县鲁付海,1011,山东直营办事处,河北省邯郸市馆陶县新华街移动公司对面,鲁付海,馆陶县,57750,36.54982545,115.294781
782,1001163,（山东办）河北省冀州县田东杰,1011,山东直营办事处,河北省衡水市冀州县兴华南大街路西富雅家居广场2.3楼二、三、四楼,田东杰,冀州县,53200,37.54014473,115.5872736
783,1001164,（山东办）河北省故城县刘春华,1011,山东直营办事处,河北省衡水市故城县奥友家具城全友家私,刘春华,故城县,253800,37.33821868,115.9660037
784,1001166,（山东办）河北省清河县常绍雷,1011,山东直营办事处,河北县邢台市清河县武松中街27号,常绍雷,清河县,54800,37.07810319,115.6839387
785,1001168,（山东办）河北省东光县l开枝,1011,山东直营办事处,河北省沧州市东光县城铁西仓库,l开枝,东光县,61600,37.8874516,116.6778323
786,1001169,（山东办）河北省孟村回族自治县张春敬,1011,山东直营办事处,河北省沧州市孟村回族自治县东外环鑫鑫家具广场,张春敬,孟村回族自治县,61400,38.06212706,117.1378357
787,1001170,（山东办）河北省泊头市孙国勇,1011,山东直营办事处,河北省沧州市泊头市西环路口林都家具城,孙国勇,泊头市,62150,38.08126774,116.5527189
788,1001172,（山东办）河北省景县范海军,1011,山东直营办事处,河北省衡水市景县景新大街工商局东侧爱佳家居,范海军,景县,53500,37.6903245,116.2621546
789,1001174,（山东办）河北省吴桥县曹志君,1011,山东直营办事处,河北省沧州市吴桥县104国道公安局南500米荣泰家居广场,曹志君,吴桥县,61800,37.61895771,116.38676
790,1001175,（山东办）河北省临西县赵之永,1011,山东直营办事处,河北邢台市临西县城玉兰东路百货大楼全友家私,赵之永,临西县,54900,36.86433942,115.5091314
791,1001176,山东省胶州市吴得玉,1011,山东直营办事处,山东省青岛市胶州市海博家具城,吴得玉,胶州市,57750,36.24803146,119.9594212
792,1002844,（山东办）河北省枣强县王书强,1011,山东直营办事处,河北省枣强县和平北路王强家具广场,王书强,,,37.51793431,115.7233873
793,1002879,（山东办）河北省南宫县刘辉,1011,山东直营办事处,河北省南宫县育才路奥美家居广场,刘辉,,,37.37878912,115.3972329
794,1001979,山东省东营市河口区刘茂花,1011,山东直营办事处,山东省东营市东城徐州路北，首恒威石油装备院内,刘茂花,东营市河口区,257200,37.47080602,118.7247312
795,1001750,山东省荣成市向伟,1011,山东直营办事处,山东省荣成市成山大道中段399号,,荣成市,264300,37.16186019,122.4235213
796,1002214,山东省济南市富瑞宁经贸有限责任公司王睿,1011,山东直营办事处,山东省济南市历城区仲宫镇上海街西口,王睿,,,36.51586362,117.0349171
797,1002274,山东省景芝镇赵春萍,1011,山东直营办事处,山东省安丘市景芝镇富康街,赵春萍,,,36.31712618,119.398034
798,1002338,山东省蓝村镇逄连利,1011,山东直营办事处,山东省即墨市蓝村镇市场南街新盛家具超市,逄连利,,,36.41335275,120.1921312
799,1002413,山东省欢城镇朱恒利,1011,山东直营办事处,山东省微山县欢城镇恒利家具广场,朱恒利,,,34.90034022,117.0892691
800,1002478,山东省成山镇李秀珍,1011,山东直营办事处,山东省荣成市成山镇马山宾馆对面,李秀珍,,,37.36940207,122.5587315
801,1002461,山东省桑阿镇韩会国,1011,山东直营办事处,山东省冠县桑阿镇,韩会国,,,36.43984622,115.629635
802,1002138,山东省朝城镇胡志宏,1011,山东直营办事处,山东省聊城市莘县朝城镇志忠摩托车城院内全友家私,胡志宏,,,36.05925613,115.6022262
803,1002144,山东省东平县张振兴,1011,山东直营办事处,山东省泰安市东平县忠伟家具城二期二楼,张振兴,,,35.9751609,116.3429532
804,1002401,山东省庆云县马凤琴,1011,山东直营办事处,山东省省庆云县建材城全友家私生活馆,马凤琴,,,37.80182353,117.4627374
805,1001144,山东省莘县郭兆庆,1011,山东直营办事处,山东省聊城市莘县北环路,郭兆庆,莘县,252400,36.13912154,115.5526729
806,1002427,山东省博平镇翟吉胜,1011,山东直营办事处,山东省茌平县博平镇新合作超市2楼,翟吉胜,,,36.5937926,116.1240775
807,1002416,山东省疃里镇李翠美,1011,山东直营办事处,山东省嘉祥县疃里镇祥和家具城,李翠美,,,35.44716876,116.4080111
808,1002423,山东省沙镇c玉阁,1011,山东直营办事处,山东省聊城市沙镇玉阁家具城,c玉阁,,,36.34411867,115.7983818
809,1001111,山东省乳山市单峰,1011,山东直营办事处,山东省威海市乳山新华街建材市场,单峰,乳山市,264500,36.91669027,121.5437188
810,1003049,【定制销售本部】山东省胶州市夏伦军,1011,山东直营办事处,山东省青岛市胶州市兰州西路703号-定制,夏伦军,,,36.28951503,119.9879401
811,1003585,山东省东明集镇李红义,1011,山东直营办事处,山东省东明县东明集镇玉城中学斜对面,李红义李红义,,,35.16808297,115.1431211
812,1002753,（山东办）河南省范县张凯,1011,山东直营办事处,河南省范县人民大道北段十字坡,张凯,,,35.86667583,115.5134956
813,1003050,【定制销售本部】山东省广饶县陈广龙,1011,山东直营办事处,山东省广饶县亿丰国际家居百货大楼店全友定制衣柜,陈广龙,,,36.96840373,118.8891182
814,1002588,山东省阳谷县白云静,1011,山东直营办事处,山东省聊城市阳谷县南外环,白云静,,,36.146774,115.873503
815,1003440,山东省宁津县韩文涛,1011,山东直营办事处,山东省德州市宁津县南环开发区家具大世界南厅,韩文涛,,,37.6856216,116.8145555
816,1003472,山东省青岛市辛安镇管淑香,1011,山东直营办事处,山东省青岛黄岛辛安镇福赢国际家具二楼,管淑香,,,36.00501941,120.1695411
817,1003521,山东省滨州市王学英,1011,山东直营办事处,山东省滨州市渤海国际广场A区2楼,王学英,,,37.3836256,118.0262881
818,1003503,（山东办）河北省海兴县崔国建,1011,山东直营办事处,河北省海兴县城西海港路南万隆家居,崔国建,,,38.15434592,117.5249088
819,1003458,山东省东明县小井乡郭享坤,1011,山东直营办事处,山东省菏泽市东明县小井乡惠合购物广场对面,郭享坤,,,35.09779137,115.054691
820,1003600,【定制销售本部】山东省东明县江爱华,1011,山东直营办事处,山东省东明县工业路与梦蝶路水岸鑫城南区北门东,江爱华,,,35.28140325,115.1148393
821,1003451,山东省泰安市张霞,1011,山东直营办事处,山东省泰安市泰山大街2号春升大厦,张霞,,,36.18913921,117.1164113
822,1003612,【定制销售本部】山东省利津县陈广龙,1011,山东直营办事处,山东省利津县利二路与津三路交叉路口,陈广龙,,,37.49816912,118.2507121
823,1003625,山东省曲阜市丰丕福,1011,山东直营办事处,山东省曲阜市春秋路国贸大厦6楼,丰丕福,,,35.58478567,116.9973615
824,1003641,山东省威海市石岛镇苏琳洁,1011,山东直营办事处,山东省威海市荣成市石岛镇斥山金润建材城,苏琳洁,,,36.89573237,122.4344601
825,1003642,山东省莱州市张贤明,1011,山东直营办事处,山东省烟台市莱州市南关市场顺通家居城全友家居,张贤明,,,37.19040137,120.0013435
826,1003269,山东省安丘市赵春萍,1011,山东直营办事处,山东省潍坊市安丘市建安路中段御景园南临,赵春萍,,,36.42508444,119.1946042
827,1003705,【定制销售本部】山东省邹城市宋波,1011,山东直营办事处,山东省邹城市峄山南路千泉装饰城,宋波,,,35.39173472,116.9857123
828,1003758,山东省青岛市黄岛区王伟,1011,山东直营办事处,山东省青岛黄岛开发区黄浦江路272号兴盛家居,王伟,,,35.96711696,120.1889547
829,1003673,山东省临沂市林永建,1011,山东直营办事处,山东省临沂市经济技术开发区香港路12号汇海隆家居6号馆,林永建,,,35.03741647,118.4213022
830,1003918,山东省淄博市博山区孙婷,1011,山东直营办事处,山东省淄博市博山区福乐园14号楼,孙婷,,,36.50583654,117.8699476
831,1003889,山东省新泰市牛群,1011,山东直营办事处,山东省泰安市新泰市华府新天地商业街,牛群,,,35.89581024,117.6130162
832,1003661,【定制销售本部】山东省莱州市王潘庆,1011,山东直营办事处,山东省莱州市万通建材市场顺通家居城,王潘庆,,,37.19040137,120.0013435
833,1003672,山东省平度市南村镇宗绪江,1011,山东直营办事处,山东省平度市南村镇三城路8号全友家居,宗绪江,,,36.50827735,120.1548551
834,1003797,山东省菏泽市李力,1011,山东直营办事处,山东省菏泽市临商路嘉华玻璃厂院内,李力,,,35.04709742,115.5656036
835,1003905,福建省福安市连贯愿,1012,福建直营办事处,福建省福安市岩湖板开发区68号（新味茶食大楼）,连贯愿,,,27.05589671,119.6562771
836,1003824,福建省三明市朱钊雄,1012,福建直营办事处,福建省三明市梅列区“小焦工业园”,朱钊雄,,,26.30744855,117.6305007
837,1003691,福建省永泰县陈榆,1012,福建直营办事处,福建省福州市永泰县永福苑1号2层,陈榆,,,25.85738406,118.7947406
838,1003306,【定制销售本部】福建省寿宁县叶作旺,1012,福建直营办事处,福建省宁德市寿宁县东区农贸市场一层,叶作旺,,,27.42622952,119.5055198
839,1003289,福建省宁化县张宁龙,1012,福建直营办事处,福建省三明市宁化县翠江镇南大街87号原畜牧水产办公楼一二楼,张宁龙,,,26.25990624,116.6671683
840,1003662,福建省沙县张盛会,1012,福建直营办事处,福建省三明市沙县长泰路加油站旁,张盛会,,,26.44650591,117.818846
841,1003698,（福建办）浙江省泰顺县朱春满,1012,福建直营办事处,浙江省泰顺县罗阳镇新城商务区2幢301室,朱春满,,,27.56216007,119.7191784
842,1003752,福建省永春县陈进任,1012,福建直营办事处,福建省泉州市永春县金龙城7号楼,陈进任,,,25.32848785,118.3026872
843,1003904,福建省泉州市洛江区郭镜钊,1012,福建直营办事处,福建省泉州市洛江区万虹路（红星美凯龙对面）,郭镜钊,,,24.95919949,118.6669984
844,1003158,福建省永安市池善沿,1012,福建直营办事处,福建省永安市名流财富中心二楼,池善沿,,,25.99063103,117.3781338
845,1003163,福建省南平市曾韬,1012,福建直营办事处,福建省南平市南福路45号海峡建材城4楼全友家居,曾韬,,,26.61719639,118.1898269
846,1002606,福建省宁德市余恩良,1012,福建直营办事处,福建省宁德市长兴城日月星辰3号楼2楼,余恩良,,,26.66723421,119.5433466
847,1003548,福建省闽侯县江雨,1012,福建直营办事处,福建省福州市闽侯县38米大道美和天著对面全友家私,江雨,,,26.05750494,119.2722752
848,1003601,福建省德化县潘新忠,1012,福建直营办事处,福建省泉州市德化县城东大道顺美集团斜对面,潘新忠,,,25.49695654,118.2645879
849,1003632,福建省仙游县杨华伟,1012,福建直营办事处,福建省市荔城区文献路新车站对面,杨华伟,,,25.44482239,119.0213843
850,1002153,福建省石狮市林育明,1012,福建直营办事处,福建省泉州市石狮市子芳路东湖大厦,林育明,,,24.74440224,118.6492806
851,1002357,福建省闽清县池垂春,1012,福建直营办事处,福建省福州市闽清县梅城镇南山路80号（金茂花园旁）,池垂春,,,26.22469631,118.8770795
852,1002523,福建省顺昌县吴志善,1012,福建直营办事处,福建省南平市顺昌县水南市场二楼,吴志善,,,26.90871228,117.8736808
853,1002607,福建省寿宁县林少康,1012,福建直营办事处,福建省宁德市寿宁县寿宁东区农贸市场一楼,林少康,,,27.42622952,119.5055198
854,30019,福建省漳州直营店,1012,福建直营办事处,福建省漳州市龙海市九龙镇新塘村,韩永胜,,,24.49016354,117.6335184
855,1002722,福建省柘荣县朱春满,1012,福建直营办事处,福建省宁德市柘荣县柳城北路45号,朱春满,,,27.24148436,119.904673
856,1002883,福建省泉州市泉港区连华南,1012,福建直营办事处,福建省泉州市泉港区远和花园2楼,连华南,,,25.13929115,118.9328739
857,1002832,福建省福清市林萍,1012,福建直营办事处,福建省福清市龙田镇工业区福庐北路8号,林萍,,,25.63337061,119.4486761
858,1002779,福建省将乐县车春妹,1012,福建直营办事处,福建省将乐县新公安局旁,车春妹,,,26.73232868,117.4008397
859,1002125,福建省厦门集美灌口黄文科,1012,福建直营办事处,福建省厦门市集美区灌口镇乐活小镇商业楼三楼,黄文科,集美灌口镇,361100,24.60590133,117.9908172
860,1002533,福建省莆田市杨华杰,1012,福建直营办事处,福建省莆田市文献路湖景大酒店1-3楼,杨华杰,,,25.43412479,119.0384366
861,1002570,福建松溪县胡志平,1012,福建直营办事处,福建省南平市松溪县松茗工业区医药公司二楼,胡志平,,,27.61070449,118.7656891
862,1000087,福建省浦城县黄玲红,1012,福建直营办事处,福建省南平市浦城县城西圆弧爱爱家家私一-二楼,黄玲红,浦城县,353400,27.94516413,118.5242976
863,1000088,福建省武夷山市李雨长,1012,福建直营办事处,福建省武夷山市华侨新村F栋1楼城四楼,李雨长,武夷山市,353202,27.76520582,118.0374682
864,1000092,福建省政和县杨世龙,1012,福建直营办事处,福建省南平市政和县县宾馆二楼,杨世龙,政和县,363600,27.32478179,118.9716712
865,1000094,福建省周宁县李兴春,1012,福建直营办事处,福建省宁德市周宁县商贸城三楼,李兴春,周宁县,353500,27.09431278,119.3133256
866,1000095,福建省古田县余晓真,1012,福建直营办事处,福建省宁德市古田县食用菌基地全友家私,余晓真,古田县,352200,26.61889904,118.87954
867,1000096,福建省霞浦县尤远乐,1012,福建直营办事处,福建省宁德市霞浦县长溪路好万佳大市场D栋二楼,尤远乐,霞浦县,351007,26.8909321,120.0226544
868,1000098,福建省屏南县江秀凤,1012,福建直营办事处,福建省宁德市屏南县东方房地产公司对面三楼,江秀凤,屏南县,350000,26.92156159,118.9892915
869,1000099,福建省福鼎市廖诗沿,1012,福建直营办事处,福建省福鼎市春亭桥下首交警中队对面恒顺家具商场,廖诗沿,350900,355200,27.3187562,120.2233171
870,1000100,福建省赛歧镇林亚鹏（福安）,1012,福建直营办事处,福建省宁德市福安市甘棠镇西门车站对面,林亚鹏,赛歧镇,355009,26.92151771,119.6442565
871,1000102,福建省漳浦县庄炎明,1012,福建直营办事处,福建省漳州市漳浦县绥安镇开发区捷发家具城,庄炎明,漳浦县,353212,24.13623968,117.6006397
872,1000104,福建省长汀县张园玲,1012,福建直营办事处,福建省龙岩市长汀县长汀首府一楼（火车站旁）,张园玲,长汀县,364200,25.6969585,116.371884
873,1000105,福建省永定县张福州,1012,福建直营办事处,福建省永定县古镇城关中学旁全友家居,张福州,永定县,364100,24.71160041,116.7199125
874,1000106,福建省连城县陈丽娟,1012,福建直营办事处,福建省连城县江坊地瓜干厂内全友家居,陈丽娟,连城县,364200,25.68785732,116.7672615
875,1000107,福建省漳平市叶增凉,1012,福建直营办事处,福建省龙岩市漳平和平路二楼,叶增凉,漳平市,364200,25.2969803,117.4267451
876,1000109,福建省武平县钟文云,1012,福建直营办事处,福建省武平县青云山工贸小区全友家居,钟文云,350800,364200,25.08054389,116.1224832
877,30013,福建省泉州市直营店,1012,福建直营办事处,福建省泉州市南安市丰州镇桃源村,陈清艺,,,24.95418236,118.5621513
878,1000065,福建省福州市林万寿,1012,福建直营办事处,福建省福州市仓山区金环路7号川正家具城一楼,林万寿,福州市,350000,26.05719302,119.2715121
879,1000072,福建省惠安县连玉兰,1012,福建直营办事处,福建省惠安县一中旁宜华家私,连玉兰,350500,362100,24.99187144,118.8094729
880,1000075,福建省大田县章国满,1012,福建直营办事处,福建省三明市大田县福塘工业区检察院对面一-二楼,章国满,大田县,366100,25.67079128,117.8468948
881,1000076,福建省泰宁县李勇军,1012,福建直营办事处,福建省三明市泰宁县金湖东路建材市场二楼品位家具广场二楼,李勇军,泰宁县,365000,26.90041316,117.1884598
882,1000078,福建省尤溪县郑荣南,1012,福建直营办事处,福建省三明市尤溪县工业路13#沈郎集团内二-三楼,郑荣南,尤溪县,366000,26.15059385,118.2538684
883,1000082,福建省明溪县朱钊雄,1012,福建直营办事处,福建明溪县雪峰镇余厝小区宝发佳园商场,朱钊雄,明溪县,365000,26.35975032,117.2132304
884,1000084,福建省光泽县邱祥发,1012,福建直营办事处,福建省南平市光泽县坪山路五羊本田路口往里直走300米(全友家居),邱祥发,光泽县,354100,27.55633828,117.3552593
885,1000085,福建省建阳市陈柳,1012,福建直营办事处,福建省南平市建阳市童游江滨路全友家私,陈柳,建阳市,354200,27.34489426,118.1299286
886,1000086,福建省建瓯市纪恩东,1012,福建直营办事处,福建省南平市建瓯市步行街时代广场二楼,纪恩东,建瓯市,353100,27.04279176,118.3367457
887,1000018,安徽省蒙城县丁侠,1013,安徽直营办事处,安徽省亳州市蒙城县逍遥中路商贸城三期C区,丁侠,341600,234000,33.26407038,116.5727775
888,1000019,安徽省利辛县史洪堂,1013,安徽直营办事处,安徽省亳州市利辛县人民北路和谐家园斜对面荷青馨苑全友家私,史洪堂,利辛县,236700,33.15849127,116.2137177
889,1000020,安徽省阜南县李平安,1013,安徽直营办事处,安徽省阜阳市阜南县淮河路鹿城花园（老县委对面）,李平安,阜南县,236300,32.87331414,115.8360206
890,1000023,安徽省天长市汪巧云,1013,安徽直营办事处,安徽省滁州市天长市建设西路天庆大厦,汪巧云,天长市,232000,32.69473708,119.0140593
891,1000024,安徽省五河县陈艳,1013,安徽直营办事处,安徽省蚌埠市五河县五蚌路机动组检测中心对面,陈燕,五河县,232100,33.13846531,117.7642104
892,1000026,安徽省泗县尹永杰,1013,安徽直营办事处,安徽省泗县文庙商城院内,,泗县,230000,33.48649474,117.8918428
893,1000028,安徽省萧县张学明,1013,安徽直营办事处,安徽省宿州市萧县淮海商业城D栋,张学明,341300,235200,34.20852964,116.8124218
894,1003652,安徽省阜阳市吴波,1013,安徽直营办事处,安徽省阜阳市颍州中路111号燕莎百货,吴波,,,32.90028751,115.8305196
895,1003688,安徽省芜湖县张健,1013,安徽直营办事处,安徽省芜湖县延安西路88号,张健,,,31.153788,118.5743046
896,1003937,安徽省黄山市徽州区方灶根,1013,安徽直营办事处,安徽省黄山市徽州区黄山路丰乐阳光广场,方灶根,,,29.82836706,118.3458735
897,1003342,安徽省肥东县余国芳,1013,安徽直营办事处,安徽省肥东县长江东路与祥和路交口,余国芳,,,31.89171956,117.4359729
898,1003657,【定制销售本部】安徽省凤阳县邓言聪,1013,安徽直营办事处,安徽省凤阳县东长安街602-608全友定制衣柜,邓言聪,,,32.79221496,117.6114723
899,1003710,安徽省蚌埠市朱士潘,1013,安徽直营办事处,安徽省蚌埠市蚌山区光彩大市场4区11栋-02,朱士潘,,,32.92085847,117.366544
900,1003655,【定制销售本部】安徽省阜阳市颍州区奚大伟,1013,安徽直营办事处,安徽省阜阳市颍州中路111号,奚大伟,,,32.90032343,115.830986
901,1003820,安徽省休宁县蒋鹏,1013,安徽直营办事处,安徽省黄山市休宁县夹溪路绿地上郡21栋1-7号,蒋鹏,,,29.79494742,118.1811528
902,1003844,安徽省青阳县倪慧敏,1013,安徽直营办事处,安徽省青阳县天柱路中兴华庭1号楼,倪慧敏,,,30.64069879,117.8772209
903,1003124,安徽省肥西县余金常,1013,安徽直营办事处,安徽省合肥市肥西县金寨路环球地产全友家居,余金常,,,31.83612953,117.2707139
904,1003174,安徽省长丰县水湖镇汪丽君,1013,安徽直营办事处,安徽省长丰县水湖镇长丰西路中段,汪丽君,,,32.48360917,117.1724264
905,1003394,【定制销售本部】安徽省舒城县张杰,1013,安徽直营办事处,安徽省舒城县工业园区万佛路富宝床垫厂,张杰,,,31.31000308,116.8285591
906,1003483,安徽省黄山市屯溪区沈超,1013,安徽直营办事处,安徽省黄山市屯溪区屯广大道鼎天家园24-2-1号,沈超,,,29.7333143,118.3547929
907,1003567,安徽省灵璧县杨玉华,1013,安徽直营办事处,安徽省灵璧县北关加油站往北100米,杨玉华,,,33.55516319,117.5609958
908,1003570,安徽省祁门县陈洪武,1013,安徽直营办事处,安徽省黄山市祁门县广汇建材市场,陈洪武,,,29.87370569,117.6005281
909,1002157,安徽省宿州市黄远亮,1013,安徽直营办事处,安徽省宿州市汴河路南侧恒馨财富广场8号（原老卫校）,黄远亮,,,33.63556656,116.9796725
910,1002188,安徽省淮南市宣德亮,1013,安徽直营办事处,安徽省淮南市田家庵区淮舜北路276号全友家私,宣德亮,,,32.66590826,117.0316761
911,1002248,安徽省博望镇陶乃菱,1013,安徽直营办事处,安徽省马鞍山市博望区平桥开发区佳乐购购物广场,陶乃菱,,,31.5699117,118.8595124
912,1002955,【定制销售本部】安徽省蒙城县夏心勇,1013,安徽直营办事处,安徽省亳州市蒙城县逍遥中路商贸城三期C区-定制,夏心勇,,,33.26407038,116.5727775
913,1002941,安徽省凤阳县张文波,1013,安徽直营办事处,安徽省滁州市凤阳县新城区长安街紫薇花园北门610号,张文波,,,32.87239321,117.5472062
914,1003132,安徽省涡阳县孙明媚,1013,安徽直营办事处,安徽省涡阳县华都大道尚居都10#楼,孙明媚,,,33.55794905,116.2235505
915,1002685,安徽省全椒县潘成兰,1013,安徽直营办事处,安徽省滁州市全椒县奥康步行街三楼,潘成兰,,,32.09859223,118.2739721
916,1002805,安徽办虚拟商家,1013,安徽直营办事处,安徽办虚拟,安徽虚拟,,,31.85925242,117.2160052
917,1002954,【定制销售本部】安徽省淮南市卢飞龙,1013,安徽直营办事处,安徽省淮南市田家庵区淮舜北路276号天发商场-定制,卢飞龙,,,32.66590826,117.0316761
918,1002853,安徽省合肥市蜀山区罗小凤,1013,安徽直营办事处,安徽省合肥市蜀山区潜山路伊赛特家居城二楼,罗小凤,,,31.80133757,117.2393726
919,1001875,安徽省宣城市宁国市葛力高,1013,安徽直营办事处,安徽省宣城市宁国市东岸路与青龙路交叉口,葛力高,宁国市,242300,30.63877258,118.9939133
920,1001909,安徽省石台县胡耀光,1013,安徽直营办事处,安徽省池州市石台县城关仙寓路7号,胡耀光,石台县,245100,30.21522021,117.4929082
921,1002480,安徽省当涂县刘家锋,1013,安徽直营办事处,安徽马鞍山市当涂县姑孰路襄河湾小区,刘家锋,,,31.58047037,118.4944597
922,1002291,安徽省巢湖市程晓进,1013,安徽直营办事处,安徽省巢湖市长江东路与世纪大道交叉口巢湖大市场综合楼,程晓进,,,31.61562185,117.8947319
923,1002583,安徽省凤台县王邦银,1013,安徽直营办事处,安徽省凤台县河东经济开发区亿联五金家居城,王邦银,,,32.7914163,116.5849053
924,1000029,安徽省固镇县杨玉华,1013,安徽直营办事处,安徽省蚌埠市固镇县明都购物广场,杨玉华,固镇县,232100,33.32597513,117.3159663
925,1000030,安徽省定远县郑国敏,1013,安徽直营办事处,安徽省滁州市定远县西大街花园湖旁,郑国敏,定远县,232000,32.53379504,117.6783215
926,1000031,安徽省南陵县张致才,1013,安徽直营办事处,安徽省南陵县开发区夫子岭10号,张致才,南陵县,242400,30.73458622,118.2254521
927,1000032,安徽省泾县周慧敏,1013,安徽直营办事处,安徽省宣城市泾县皖南第一街B栋8号,周慧敏,泾县,242500,30.59928682,118.3760402
928,1000033,安徽省繁昌县熊家刚,1013,安徽直营办事处,安徽省芜湖市繁昌县安定东路宜美家居广场,熊家刚,繁昌县,241200,31.12832959,118.200118
929,1000034,安徽省芜湖市王玲,1013,安徽直营办事处,安徽省芜湖市鸠江区政府十里牌老飞机场路海洋物流院内,王玲,340200,241000,31.37506182,118.3988129
930,1000035,安徽省马鞍山市周志萍,1013,安徽直营办事处,安徽省马鞍山市雨山西路家家爱家具广场,周志萍,马鞍山市,241300,31.67923963,118.4899658
931,1000041,安徽省水阳镇赵先明,1013,安徽直营办事处,安徽省宣城市宣州区水阳镇大市场2、3楼,赵先明,水阳镇,242000,31.23019232,118.7932532
932,1000042,安徽省枞阳县项立新,1013,安徽直营办事处,安徽省安庆市枞阳县金山路,项立新,枞阳县,242000,30.71536877,117.234069
933,1000043,安徽省怀宁县钱光银,1013,安徽直营办事处,安徽省安庆市怀宁县皖河路与梅山路交口,钱光银,怀宁县,231000,30.74511569,116.8228699
934,1000044,安徽省石牌镇王益平,1013,安徽直营办事处,安徽省安庆市怀宁县石牌镇皖河大道44号,王益平,石牌镇,246100,30.41554837,116.6555573
935,1000046,安徽省潜山县涂华兵,1013,安徽直营办事处,安徽省安庆市潜山县全力阳光城东侧50米,涂华兵,潜山县,230000,30.63737962,116.5963306
936,1002802,安徽省滁州市俞恩云,1013,安徽直营办事处,安徽省滁州市上海北路611号29，30栋,俞恩云,,,32.32413004,118.3732406
937,1000061,安徽省三河镇左静,1013,安徽直营办事处,安徽省肥西县三河镇供销大楼全友家私,左静,三河镇,247100,31.51607984,117.2499966
938,1000064,安徽省濉溪县汪静华,1013,安徽直营办事处,安徽省淮北市濉溪县三提口华联超市,汪静华,濉溪县,23500,33.92424204,116.7711509
939,1000048,安徽省桐城市余谋应,1013,安徽直营办事处,安徽省桐城市兴尔旺大市场（西环路罗蚣揖叱牵,余谋应,桐城市,230001,31.07516708,116.9721756
940,1000049,安徽省宿松县何涛江,1013,安徽直营办事处,安徽省安庆市宿松县孚玉东路商贸城3号楼,何涛江,宿松县,231000,30.16444587,116.1349996
941,1000050,安徽省池州市方义祥,1013,安徽直营办事处,安徽省池州市站前区豪丰家具装饰城4号楼C区3楼,方义祥,池州市,247000,30.66001925,117.4944768
942,1000052,安徽省岳西县张小顺,1013,安徽直营办事处,安徽省安庆市岳西县万家旺购物中心,张小顺,岳西县,231000,30.85973445,116.3655851
943,1000054,安徽省明光市陈和兵,1013,安徽直营办事处,安徽省滁州市明光市女山路（明旧路）331号,陈和兵,明光市,234001,32.78425195,118.006565
944,1000056,安徽省怀远县刘柯柯,1013,安徽直营办事处,安徽省蚌埠市怀远县城关镇怀远商城院内,刘柯柯,怀远县,230000,32.96316459,117.2076122
945,1000058,安徽省寿县张军海,1013,安徽直营办事处,安徽省六安市寿县东大街全友家私,张军海,寿县,231000,32.58178617,116.7960167
946,1000059,安徽省歙县季庆喜,1013,安徽直营办事处,安徽省黄山市歙县消防大队向东100米天都大楼,季庆喜,歙县,225200,29.88479427,118.4491345
947,1000000,安徽省六安市周丽,1013,安徽直营办事处,安徽省六安市光彩国际大市场二期全友家居国际馆,周丽,六安市,237400,31.73197684,116.4876785
948,1000001,安徽省六安市叶集区秦纪禄,1013,安徽直营办事处,安徽省六安市叶集试验区未名广场对面,秦纪禄,六安市叶集区,237431,31.8559763,115.9213547
949,1000003,安徽省霍邱县杜大祥,1013,安徽直营办事处,安徽省六安市霍邱县工农兵大桥头华丽家具广场,杜大祥,霍邱县,237400,32.3555122,116.2819956
950,1000005,安徽省舒城县张友权,1013,安徽直营办事处,安徽省六安市舒城县梅山北路47号富宝家具城2楼,张友权,舒城县,231300,31.31000308,116.8285591
951,1000006,安徽省无为县朱克斌,1013,安徽直营办事处,安徽省巢湖市无为县人民广场负一楼（原华联超市）,朱克斌,无为县,238300,31.30351903,117.924389
952,1000007,安徽省和县陆成金,1013,安徽直营办事处,安徽省巢湖市和县历阳东路（一小对面）,陆成金,和县,238000,31.7209229,118.3778604
953,1000009,安徽省庐江县程建民,1013,安徽直营办事处,安徽省巢湖市庐江县物宝家具市场,程建民,341400,231500,31.26893308,117.2926026
954,1000010,安徽省界首市李春华,1013,安徽直营办事处,安徽省阜阳市界首市法姬娜大道B区,李春华,界首市,236500,33.26044685,115.3891253
955,1000011,安徽省亳州市杨维丽,1013,安徽直营办事处,安徽省亳州市建安路（中心汽车站南与火车站之间）路西全友家私,杨维丽,亳州市,236800,33.85891244,115.801091
956,1000012,安徽省太和县随东海,1013,安徽直营办事处,安徽省阜阳市太和县人民北路万家福超市,随东海,太和县,236600,33.16895285,115.6385145
957,1000017,安徽省颍上县胡志标,1013,安徽直营办事处,安徽省阜阳市颍上县汇丰家具广场,胡志标,颍上县,236200,32.65367929,116.3023905
958,1003190,贵州省大方县张亢,1015,贵州直营办事处,贵州省毕节市大方县新民北路18栋3楼,张亢,,,26.90282593,106.7349961
959,1003854,【定制销售本部】贵州省六盘水市陈丽,1015,贵州直营办事处,贵州省六盘水市华灯世家2楼,陈丽,,,26.59186606,104.8520868
960,1003706,贵州省德江县刘代强,1015,贵州直营办事处,贵州省德江县温州商贸城32、33栋,刘代强,,,28.26452663,108.0947972
961,1003680,贵州省铜仁市杨勇,1015,贵州直营办事处,贵州省铜仁市西南国际商贸城7栋2层,杨勇,,,27.67490269,109.168558
962,1003870,贵州省贵阳市乌当区朱辉,1015,贵州直营办事处,贵州省贵阳市乌当区新添寨温泉路口,朱辉,,,26.63715934,106.7758207
963,1003886,贵州省贵阳市小河区匡纵情,1015,贵州直营办事处,贵州省贵阳市金阳区龙井路88路,匡纵情,,,26.58792139,106.7179776
964,1003730,贵州省思南县塘头镇杜小芳,1015,贵州直营办事处,贵州省思南县塘头镇甲秀大道政府广场下临街门面,杜小芳,,,27.74057598,108.2004647
965,1003798,【定制销售本部】贵州省遵义市林凡俊,1015,贵州直营办事处,贵州省遵义市机电街中段38号楼,林凡俊,,,27.69996138,106.9312603
966,1003871,贵州省雷山县万兆华,1015,贵州直营办事处,贵州省凯里市雷山县望丰路口和谐家园负一楼,万兆华,,,26.39150659,108.0798066
967,1003902,贵州省普安县陈锡超,1015,贵州直营办事处,贵州省黔西南州普安县环城西路21号,陈锡超,,,25.78888943,104.955965
968,1002660,贵州省黔西县杨钊,1015,贵州直营办事处,贵州省毕节地区黔西县华辰上都红河家具广场,杨钊,,,27.01299313,106.0489155
969,1002723,贵州省习水县陈加林,1015,贵州直营办事处,贵州省习水县西城区绿洲酒店后,陈加林,,,28.33311952,106.2078418
970,1002931,贵州淘宝,1015,贵州直营办事处,贵州淘宝,贵州淘宝,,,26.59339721,106.7152264
971,1003447,贵州省长顺县班健平,1015,贵州直营办事处,贵州省都均市长顺县休闲酒吧街全友家私,班健平,,,26.02737198,106.4517266
972,1003481,贵州省沿河县谷明勇,1015,贵州直营办事处,贵州省铜仁市沿河县县委对面,谷明勇,,,27.67490269,109.168558
973,1003510,贵州省平坝县王回华,1015,贵州直营办事处,贵州省平坝县大北门,王回华,,,26.40876868,106.2914047
974,1003390,贵州省凤冈县叶大奎,1015,贵州直营办事处,贵州省遵义市凤冈县龙泉镇飞雪街新世纪商贸城二楼,叶大奎,,,27.97020531,107.7289
975,1003582,贵州省正安县邹明分,1015,贵州直营办事处,贵州省正安县凤仪镇桐都大道正安印象B区19号门市,邹明分,,,28.53980081,107.4451113
976,1003561,贵州省遵义市新舟镇张光英,1015,贵州直营办事处,贵州省遵义市新浦新区新舟镇小学门口,张光英,,,27.84192846,107.25647
977,1002086,贵州省贵阳市匡纵情,1015,贵州直营办事处,贵州省贵阳市金阳区西南国际家居博览城摩登馆2楼E2-04全友家私,匡纵情,贵阳市,550005,26.84700195,106.6087235
978,1002679,贵州省榕江县陆根松,1015,贵州直营办事处,贵州省凯里市榕江县滨江花园,陆根松,,,25.93900006,108.5297871
979,1002682,贵州省天柱县王道,1015,贵州直营办事处,贵州省凯里市天柱县新时代家居广场,王道,,,26.91751154,109.2231947
980,1002324,贵州省织金县江建伟,1015,贵州直营办事处,贵州省毕节市织金县法星路中段,江建伟,,,27.40856213,105.3333234
981,1002325,贵州省松桃县石智敏,1015,贵州直营办事处,贵州省铜仁市松桃县南门桥全友家私,石智敏,,,28.16091213,109.2062881
982,1002675,贵州省贞丰县李永梅,1015,贵州直营办事处,贵州省黔西南州贞丰县永丰大道康筑花园综合大楼,李永梅,,,25.39447527,105.6516736
983,1001854,贵州省普定县王光丽,1015,贵州直营办事处,安顺市普定县安织路,王光丽,普定县,562100,26.34574755,105.7426931
984,1002412,贵州省威宁县黄海峰,1015,贵州直营办事处,贵州省威宁县四中旁全友家居,黄海峰,,,26.91294664,104.1378841
985,1002332,贵州省务川县唐家军,1015,贵州直营办事处,贵州省遵义市务川县老汽车站二楼,唐家军,,,28.66140391,107.9199346
986,1000256,贵州省六盘水市石灵根,1015,贵州直营办事处,贵州省六盘水市南环路曹家湾菜市旁,石灵根,六盘水市,553000,26.58950566,104.849225
987,1000257,贵州省兴义市徐涛,1015,贵州直营办事处,兴义市桔山新区神奇东路中段康居家饰广场,徐涛,兴义市,562400,25.09539535,104.926578
988,1000260,贵州省毕节市谢直斌,1015,贵州直营办事处,贵州省毕节地区新城区兴隆佳园二栋一楼全友家私,谢直斌,毕节市,551700,27.30159985,105.310826
989,1000266,贵州省安龙县张能伟,1015,贵州直营办事处,贵州省黔西南州安龙县邮电大楼旁东风家私城,张能伟,安龙县,552400,25.13997117,105.3802239
990,1000272,贵州省麻江县兰国辉,1015,贵州直营办事处,贵州省麻江县城关广建广场全友家居,兰国辉,麻江县,557000,26.46825389,107.6187126
991,1000274,贵州省施秉县任联斌,1015,贵州直营办事处,贵州省黔东南州施秉县金土地花园A栋一楼,任联斌,施秉县,556200,27.03655124,108.1333355
992,1000276,贵州省锦屏县周维刚,1015,贵州直营办事处,贵州省黔东南州锦屏县大十字中兴家私城,周维刚,锦屏县,556700,26.68584938,109.2082143
993,1000282,贵州省纳雍县张云贵,1015,贵州直营办事处,贵州省毕节地区纳雍县五眼桥脚,张云贵,纳雍县,553300,26.80850891,105.2838764
994,1000284,贵州省仁怀市杨顺康,1015,贵州直营办事处,贵州省遵义市仁怀市工商局大楼,杨顺康,仁怀市,564500,27.83920322,106.347908
995,1000288,贵州省清镇市梁再祥,1015,贵州直营办事处,贵州省贵阳市清镇市红旗路1号,梁再祥,清镇市,557700,26.56002964,106.481236
996,1000289,贵州省金沙县陈先萍,1015,贵州直营办事处,贵州省毕节市金沙县开明同心城家居生活馆B区三楼全友家居,陈先萍,金沙县,551800,26.85399319,106.7230728
997,1000291,贵州省江口县杨勇,1015,贵州直营办事处,贵州省江口县杨澜桥广场全友家居,杨勇,522200,554400,27.72880958,108.7786229
998,1000294,贵州省思南县杜桥生,1015,贵州直营办事处,贵州省铜仁市思南县恒泰商场三楼,杜桥生,思南县,565100,27.67490269,109.168558
999,1000295,贵州省瓮安县肖学平,1015,贵州直营办事处,贵州省瓮安县麒龙摩尔城A6A7栋二楼,肖学平,瓮安县,550400,27.17234003,107.4214118
1000,1000296,贵州省息烽县王华发,1015,贵州直营办事处,贵州省息烽县南大街11号楼转盘处,王华发,息烽县,551100,27.08846019,106.7491854
1001,1000297,贵州省贵定县钟长芬,1015,贵州直营办事处,贵州省黔南州贵定县红旗路商会家具城二楼,钟长芬,贵定县,551200,26.58731974,107.2401338
1002,1000298,贵州省黎平县李本国,1015,贵州直营办事处,贵州省黔东南州黎平县平街角商业大楼,李本国,黎平县,557300,26.15751352,109.0745905
1003,1000301,贵州省桐梓县王怀忠,1015,贵州直营办事处,贵州省遵义市桐梓县四化路小区集中地,王怀忠,桐梓县,563200,28.14312704,106.8349862
1004,1000305,贵州省镇宁县左茂林,1015,贵州直营办事处,贵州省镇宁县红星大道,左茂林,镇宁县,561200,25.84435301,105.8335526
1005,1000307,贵州省石阡县赵国勋,1015,贵州直营办事处,贵州省铜仁地区石阡县鲜花市场二楼,赵国勋,石阡县,555100,27.49075987,108.1699341
1006,1002836,贵州省荔波县李金水,1015,贵州直营办事处,贵州省荔波县玉屏镇时来运转市场,李金水,,,25.42084584,107.8841493
1007,1001246,山西省保德县陈建华,1016,山西直营办事处,山西省忻州市保德县府前大街交警队侧,陈建华,保德县,36600,39.04064478,111.1116436
1008,1001247,山西省定襄县郭美俊,1016,山西直营办事处,山西省忻州市定襄县电影院对面,郭美俊,定襄县,35400,38.51674976,113.0355888
1009,1001249,山西省河曲县赵金峰,1016,山西直营办事处,山西省忻州市河曲县益民南全友家私,赵金峰,河曲县,36500,39.20643953,111.3598293
1010,1001250,（山西办）陕西省府谷县杨顺兔,1016,山西直营办事处,陕西省榆林市府谷县赵石尧市场西侧,杨顺兔,府谷县,719400,39.18727247,110.8669342
1011,1001253,山西省原平市赵春田,1016,山西直营办事处,山西省忻州市原平市新世纪家具超市,赵春田,原平市,34100,38.73529544,112.72929
1012,1001254,山西省静乐县范建青,1016,山西直营办事处,山西省忻州市静乐县西林路利民小学对面,范建青,静乐县,46600,38.3682472,111.9483058
1013,1001258,山西省灵石县朱海玉,1016,山西直营办事处,山西省晋中市省灵石百隆家具城,朱海玉,灵石县,31300,37.69336153,112.7385144
1014,1003936,山西省太原市万柏林区朱利军,1016,山西直营办事处,山西省晋中市开发区机械园区二号路108国道迎宾西街段（和田加油站西200米）,朱利军,,,37.70335071,112.69945
1015,1003728,山西省翼城县秦剑锋,1016,山西直营办事处,山西省临汾市翼城县北关村口,秦剑锋,,,35.74570199,111.7203383
1016,1003927,【定制销售本部】山西省洪洞县刘丽华,1016,山西直营办事处,山西省洪洞县新丽都装饰城C区5排9号,刘丽华,,,36.24687018,111.7083044
1017,1003333,山西省左权县张顺奇,1016,山西直营办事处,山西省左权县将军路将军广场旁米兰小镇1号商铺,张顺奇,,,37.03279459,113.4745379
1018,1003171,【定制销售本部】山西省襄汾县侯琳娟,1016,山西直营办事处,山西省临汾市襄汾县大运路交通大厦北100米物资城内-定制,侯琳娟,,,35.88762209,111.4457297
1019,1003274,山西省寿阳县李晓鹏,1016,山西直营办事处,山西省晋中市寿阳县红星金盛家居城二排,李晓鹏,,,37.82511891,113.1416109
1020,1003650,【定制销售本部】山西省定襄县李建芳,1016,山西直营办事处,山西省忻州市定襄县晋昌大街（美好家园2层）,李建芳,,,38.48002783,112.9637957
1021,1003875,山西省阳曲县赵叮,1016,山西直营办事处,山西省阳曲县城南街富康家园10号楼,赵叮,,,38.05712948,112.674375
1022,1003679,山西省吉县董润泽,1016,山西直营办事处,山西省临汾市吉县新城步行街,董润泽,,,36.15867732,110.728162
1023,1003833,山西省五台县台城镇郭亚雄,1016,山西直营办事处,山西省忻州市五台县沟南乡沟南村粮库,郭亚雄郭亚雄,,,38.7179703,113.2685063
1024,1003896,山西省怀仁县李彩叶,1016,山西直营办事处,山西省朔州市怀仁县汽车站斜对面怀义西街,李彩叶,,,39.79357084,113.1123046
1025,1003852,山西省太原市西山刘彦兵,1016,山西直营办事处,山西省太原市万柏林区西山矿务局河泷湾综合商场,刘彦兵,,,37.8600432,112.462711
1026,1003656,山西省襄垣县夏四清,1016,山西直营办事处,山西省襄垣县时代名居商城北面1到3层,夏四清,,,36.58020079,112.9889735
1027,1003712,山西省临汾市刘开荣,1016,山西直营办事处,山西省临汾市万国家居城3楼,刘开荣,,,36.09974544,111.5387876
1028,1003144,【定制销售本部】山西省大同市姜海珍,1016,山西直营办事处,山西省大同市居然之家外围1-15号,姜海珍,,,40.1137445,113.2905087
1029,1003152,【定制销售本部】山西省寿阳县王均水,1016,山西直营办事处,山西省晋中市寿阳县新盛恒装饰城,王王均水,,,37.82511891,113.1416109
1030,1003305,山西省清徐县周冬科,1016,山西直营办事处,山西省清徐县旧汽车站南200米全友家居,周冬科,,,37.59324245,112.3870851
1031,1003434,【定制销售本部】山西省太原市尖草坪区王恒博,1016,山西直营办事处,山西省太原市现代家居国际博览中心1号馆,王恒博,,,37.88868912,112.5405095
1032,1003442,山西省原平市轩岗镇李彦军,1016,山西直营办事处,山西省原平市轩岗镇新市街,李彦军,,,38.90842523,112.4412847
1033,1003422,【定制销售本部】山西省霍州市常亮,1016,山西直营办事处,山西省霍州市鼓楼花园1号楼西侧,常亮,,,36.5737923,111.730444
1034,1003578,山西省晋中市王骅,1016,山西直营办事处,山西省晋中市汇通路106号华锯全友家居,王骅,,,37.69651089,112.7337628
1035,1003598,山西省兴县郝安明,1016,山西直营办事处,山西省兴县蔚汾镇郭家峁村（交警队往东300米）,郝安明,,,38.47302118,111.1342716
1036,1002359,山西省五寨县张福明,1016,山西直营办事处,山西省忻州市五寨县新建路国佳百货大楼,张福明,,,38.9178691,111.8493615
1037,1002402,山西省长治市长钢镇李军,1016,山西直营办事处,山西省长治市长钢镇金威超市对面二楼,李军,,,36.36312697,113.0677242
1038,1003122,【定制销售本部】山西省原平市祁秀瑞,1016,山西直营办事处,山西省原平市日N家具建材生活广场（原平市消防队西侧）-定制,祁秀瑞,,,38.83887617,112.6821283
1039,1003055,【定制销售本部】山西省朔州曹宝驹,1016,山西直营办事处,山西省朔州市居然金地3-1-1号(定制),曹宝驹,,,39.33767197,112.4799277
1040,1002646,山西省沁县杜国强,1016,山西直营办事处,山西省长治市沁县沁州饭店对面全友家私,杜国强,,,36.76404665,112.7100811
1041,1002706,山西省忻州市郭美俊,1016,山西直营办事处,山西省忻州市前郝村,郭美俊,,,38.44372081,112.7670306
1042,1002876,山西省太原市吴文仲,1016,山西直营办事处,山西省太原市尖草坪区滨河西路现代家居博览中心,吴文仲,,,37.89218418,112.5378562
1043,1002738,山西省偏关县张有林,1016,山西直营办事处,山西省忻州市偏关县塔梁街,张有林,,,39.43883001,111.523617
1044,1003057,【定制销售本部】山西省晋城市梁素芳,1016,山西直营办事处,山西省晋城市中原西街575#-定制,梁素芳,,,35.48338391,112.8556933
1045,1002764,山西省交口县胡明臣,1016,山西直营办事处,山西省交口县云梦街欣泰小区对面,胡明臣,,,37.00001008,111.1806009
1046,1002717,山西省盂县秦剑峰,1016,山西直营办事处,山西省阳泉市盂县李荫路奇瑞汽车正对面50米,秦剑峰,,,38.22938573,113.3609666
1047,1002929,山西淘宝,1016,山西直营办事处,山西淘宝,山西淘宝,,,37.86656599,112.5154959
1048,1002349,山西省崞阳镇王自强,1016,山西直营办事处,山西省原平市崞阳镇正街综合门市南,王自强,,,38.7283746,112.7202864
1049,1002052,山西省大同市武保安,1016,山西直营办事处,山西省大同市南三环完成华府10号商铺,武保安,大同市,37000,40.06924906,113.322571
1050,1002142,山西省天镇县许志清,1016,山西直营办事处,山西省天镇县大西街迎宾路全友家私,许志清,,,40.42619869,114.0882647
1051,1001202,山西省稷山县郝坤,1016,山西直营办事处,山西省运城市稷山县108国道华联西侧,郝坤,稷山县,32400,35.59826692,110.9651218
1052,1003120,【定制销售本部】山西省太谷县田永强,1016,山西直营办事处,山西省晋中市太谷县西环中路全友家私生活馆-定制,田永强,,,37.43630086,112.5501974
1053,1003112,山西省阳高县张继芬,1016,山西直营办事处,山西省大同市阳高县学府街,张继芬,,,40.22231153,113.8231814
1054,1001256,山西省和顺县刘和平,1016,山西直营办事处,山西省晋中市和顺县桥东路中段专卖店,刘和平,和顺县,32700,37.33087454,113.5785763
1055,1001180,山西省吕梁离石高广炯,1016,山西直营办事处,山西省吕梁市离市区龙山路车辆检测站东侧（吕梁石油对面）,高广炯,吕梁离石,33000,37.52443135,111.1623733
1056,1001183,山西省文水县王国勇1,1016,山西直营办事处,山西省吕梁市文水县韩村大队旁,王国勇,文水县,32100,37.43386074,112.0530483
1057,1001186,山西省交城县游全明,1016,山西直营办事处,山西省吕梁市交城县南环路（交城二中对面）,游全明,交城县,33000,37.54759099,112.1570855
1058,1001193,山西省霍州市姜忠会,1016,山西直营办事处,山西省临汾市霍州市桥西森林家私城二楼,姜忠会,霍州市,31400,36.59967783,111.8308356
1059,1001194,（运城）山西省蒲县韩建国,1016,山西直营办事处,山西省临汾市蒲县电影院,韩建国,蒲县,41200,36.4245997,111.1623587
1060,1001195,山西省乡宁县薛月明,1016,山西直营办事处,山西省临汾市乡宁县原紫砂厂,薛月明,乡宁县,42100,35.92511918,110.9441284
1061,1001260,山西省太谷县武保安,1016,山西直营办事处,山西省晋中市太谷县西环中路全友家私生活馆(明星小学路口),武保安,太谷县,30800,37.43314888,112.5477712
1062,1001265,山西省阳泉市秦剑峰,1016,山西直营办事处,山西省阳泉市豪门家私城A馆负一层半山公馆写字楼二层,秦剑峰,阳泉市,45000,37.88658063,113.5870437
1063,1001266,山西省平定县秦剑峰,1016,山西直营办事处,山西省阳泉市平定县东关交通局东域华府三层,秦剑峰,平定县,45000,37.801937,113.6411909
1064,1001211,山西省垣曲县许永清,1016,山西直营办事处,山西省运城市垣曲县人人家超市二楼,许永清,垣曲县,43700,35.30432552,111.6796847
1065,1001214,山西省广灵县杨玉龙,1016,山西直营办事处,山西省大同市广灵县壶泉家电城,杨玉龙,广灵县,37500,39.76899448,114.1617018
1066,1001215,山西省浑源县南美华,1016,山西直营办事处,山西省大同市浑源县沙河桥头美华家具广场,南美华,浑源县,37400,39.79251045,113.9456006
1067,1001218,山西省灵丘县赵礼军,1016,山西直营办事处,山西省灵丘县新华街灵源集贸市场,赵礼军,灵丘县,34400,39.44490235,114.2318338
1068,1001221,山西省朔州市武保安,1016,山西直营办事处,山西省朔州市市府街与张辽路交叉口金源泰装饰城三楼,武保安,140600,38500,39.33599637,112.4220142
1069,1001223,山西省应县王义如,1016,山西直营办事处,山西省朔州市应县水务局大楼（旧酒厂对面）全友家私,王义如,应县,37600,39.56775462,113.1890707
1070,1001228,山西省长治市申忠书,1016,山西直营办事处,山西省长治市府后西街紫裕大厦一楼,申忠书,长治市,460000,36.20306931,113.1027436
1071,1001232,山西省武乡县武玲娥,1016,山西直营办事处,山西省长治市武乡县东声小区西北角（残疾人康复中心1、3楼）,武玲娥,武乡县,46200,36.84087683,112.8669327
1072,1001234,山西省壶关县徐仁国,1016,山西直营办事处,山西省长治市壶关县古城南路商业街,,壶关县,473000,35.99265193,113.3719979
1073,1001235,山西省黎城县申颜吓,1016,山西直营办事处,山西省长治市黎城县红太阳家具城,申颜吓,黎城县,476000,36.61936761,113.3968516
1074,1001236,山西省潞城市冯小平,1016,山西直营办事处,山西省长治市潞城市府东南路,冯小平,140400,475000,36.33466346,113.2374106
1075,1001239,山西省晋城市宋太平,1016,山西直营办事处,山西省晋城市中原西街575#,宋太平,晋城市,48000,35.48338391,112.8556933
1076,1001240,山西省高平市毛华勤,1016,山西直营办事处,山西省晋城市高平市建设路东方大厦2楼,毛华勤,高平市,46700,35.79655019,112.9358675
1077,1001243,山西省阳城县白长富,1016,山西直营办事处,山西省晋城市阳城县长途汽车站对面（物资家属楼）,白长富,阳城县,48100,35.42654084,112.361527
1078,1003685,（海南办）广东省珠海市香洲区韩丽丽,1017,海南直营办事处,广东省珠海市香洲区明珠北路63号凯威东大科技园,韩丽丽,,,22.27539953,113.5193427
1079,1003696,（海南办）广东省广州市陈小青,1017,海南直营办事处,广东省广州市白云区黄石西路222号欧亚达三楼,陈小青,,,23.21233658,113.2572402
1080,1003690,海南省海口市灵山镇张云燕,1017,海南直营办事处,海南省海口市美兰区灵山镇灵中路52-54-56号,张云燕,,,19.97090917,110.4475207
1081,1003776,海南省乐东县利国镇朱秋根,1017,海南直营办事处,海南省乐东县利国镇原糖厂左500米,朱秋根,,,18.47793857,108.9033378
1082,1003325,（海南办）广东省雷州市白沙镇符自明,1017,海南直营办事处,广东省雷州市雷南大道白沙2中门口,符自明,,,20.90632769,110.0666401
1083,1003292,（海南办）广东省遂溪县遂城镇符桂珠,1017,海南直营办事处,广东省湛江市遂溪县325国道中诚建材市场2楼,符桂珠,,,21.32545133,110.3718588
1084,1003731,（海南办）广东省阳西县黄文敖,1017,海南直营办事处,广东省阳西县22区迎宾北路10号金湖湾A17-20号,黄文敖,,,21.7206096,111.6005092
1085,1003695,（海南办）广东省佛山市轩航居家具有限公司,1017,海南直营办事处,广东省佛山市三水区西南街道广海大道东8号,梁浩机,,,23.17759066,112.8832968
1086,1003468,海南省白沙县秦尊云,1017,海南直营办事处,海南省白沙县环城路水岸新世纪,秦尊云,,,19.21605614,109.3585856
1087,1003485,（海南办）广东省珠海市三灶镇黄金宝,1017,海南直营办事处,广东省珠海市三灶镇泰锋电器三楼,黄金宝,,,22.05335107,113.3552073
1088,1003490,海南省五指山市陈建华,1017,海南直营办事处,海南省五指山市双大和园9号楼,陈建华,,,18.77269448,109.5364658
1089,1003563,海南省乐东县邹明东,1017,海南直营办事处,海南省乐东县乐祥西路全友家居,邹明东,,,18.65861356,109.062698
1090,1003603,（海南办）广东省佛山市乐从镇黄永祥,1017,海南直营办事处,广东省佛山市乐从镇佛山大道中189号B座四楼B4－201abcd号,黄永祥,,,23.01045818,113.1088522
1091,1003609,（海南办）广东省茂名市李强,1017,海南直营办事处,广东省茂名市油城十路新长湖窿村,李强,,,21.66822572,110.9312453
1092,1002632,（海南办）海南省儋州市吕建兵,1017,海南直营办事处,海南省儋州市那大镇中兴大道国税大厦对面,吕建兵,,,19.52127454,109.5529634
1093,1002770,（海南办）广东省云浮市余庆标,1017,海南直营办事处,广东省云浮市云城区金山小区金山市场二楼,余庆标,,,22.9354671,112.0356477
1094,1001976,海南省保亭县李华新,1017,海南直营办事处,海南省海口市保亭县新大新家私城,李华新,保亭县,572300,18.64121713,109.7050224
1095,1002781,（海南办）广东省梅州市大埔县彭金斌,1017,海南直营办事处,广东省梅州市大埔县大埔大道中心花苑二楼,彭金斌,,,24.35219294,116.6923585
1096,1001864,（海南办）广东省韶关市刘楚江,1017,海南直营办事处,广东省韶关市武江区新华南路志兴楼二三楼,刘楚江,440200,512000,24.79380378,113.5940237
1097,1002499,（海南办）广东省仁化县唐全富,1017,海南直营办事处,广东省韶关市仁化县仁桥铂路全友家居,唐全富,,,25.14846565,113.7854737
1098,1000112,（海南办）广东省兴宁市曾海花,1017,海南直营办事处,广东省兴宁市曙光路全友家私,曾海花,兴宁市,514500,24.13442701,115.7492624
1099,1002908,（海南办）广东省湛江市霞山区王平辉,1017,海南直营办事处,广东省湛江市霞山区椹川大道中屋山家具城内仓库区,王平辉,,,21.23362251,110.3865448
1100,1000237,海南省万宁市李德文,1017,海南直营办事处,海南省万宁市万州大道拖拉机站铺面全友家私专卖,李德文,万宁市,571500,18.83988591,110.2925049
1101,1000238,海南省文昌市吕洪奎,1017,海南直营办事处,海南省文昌市新风路28号全友家私专卖,吕洪奎,文昌市,517300,19.63631738,110.7513425
1102,1000239,海南省昌江黎族自治县陈斌,1017,海南直营办事处,海南省昌江黎族自治县第三市场二楼全友专卖店,陈斌,昌江黎族自治县,545006,19.2224829,109.0112997
1103,1000240,海南省琼海市黎春晓,1017,海南直营办事处,海南省琼海市富海路先锋城大门右侧烈发家具城,黎春晓,琼海市,571400,19.26289417,110.4862277
1104,1000242,海南省东方市曹银贵,1017,海南直营办事处,海南省海口市东方市东方大道全友家私,曹银贵,东方市,572600,19.1129264,108.6767218
1105,1000243,海南省澄迈县刘强,1017,海南直营办事处,海南省澄迈县文化北路国防宾馆斜对面,刘强,澄迈县,571900,19.74315902,110.0143285
1106,1000244,海南省陵水黎族自治县林朝文,1017,海南直营办事处,海南省陵水县海韵广场负一楼烈发家具城,林朝文,陵水黎族自治县,572400,18.50989852,110.0337399
1107,1000245,海南省定安县邹小兵,1017,海南直营办事处,海南省定安县见龙大道绿天宾馆旁边(大东海宾馆对面),邹小兵,定安县,572300,19.69022215,110.3585722
1108,1000246,海南省三亚市邓小星,1017,海南直营办事处,海南省三亚市回新村富贵家私城,邓小星,三亚市,572000,18.28764997,109.4850647
1109,1000249,（海南办）广东省罗定市向文芬,1017,海南直营办事处,广东省云浮市罗定县国富商业中心3楼,向文芬,罗定市,527200,22.69098399,111.4932421
1110,1000254,（海南办）广东省阳江市黄文敖,1017,海南直营办事处,广东省阳江市阳东县始兴中路绿景北路10号,黄文敖,阳江市,572700,21.86702895,112.0113855
1111,1000967,（海南办）广东省南雄肖灶付,1017,海南直营办事处,广东省南雄市雄州镇青云西路三秀花园二楼江雄家私城,肖灶付,南雄,512400,25.12052559,114.3149481
1112,1000761,（海南办）广东省乳源瑶族自治县刘中福,1017,海南直营办事处,广东省韶关市乳源瑶族自治县全友家私,刘中福,乳源瑶族自治县,512700,24.78048885,113.2913629
1113,1003747,（内蒙办）内蒙古乌拉特中旗海流图镇张秀琴,1018,内蒙古直营办事处,内蒙古巴彦淖尔市乌拉特中旗海流图镇酒厂,张秀琴,,,41.57311616,108.5319291
1114,1003786,（内蒙办）内蒙古鄂尔多斯市鄂托克旗王俊芳,1018,内蒙古直营办事处,内蒙古鄂尔多斯市鄂托克旗国华家具城2楼,王俊芳,,,39.09849768,107.981784
1115,1003810,（内蒙办）内蒙古准格尔旗郝瑞江,1018,内蒙古直营办事处,内蒙古鄂尔多斯市准格尔旗薛家湾镇世纪中学东门金瑞家具城二楼,郝瑞江,,,39.87508684,111.2305781
1116,1003778,（内蒙办）内蒙古鄂托克旗棋盘井镇任志勇,1018,内蒙古直营办事处,内蒙古鄂尔多斯市鄂托克旗棋盘井镇劲通家具城三楼,任志勇,,,39.38579885,107.0211078
1117,1003142,（内蒙办）内蒙古托克托县梁冬冬,1018,内蒙古直营办事处,内蒙古呼和浩特市托克托县金合淀粉厂对面,梁冬冬,,,40.36108398,111.3197002
1118,1002073,（内蒙办）内蒙古伊金霍洛旗任晨光,1018,内蒙古直营办事处,内蒙古鄂尔多斯伊金霍洛旗康巴什新区金宸国际3楼全友家居,任晨光,伊金霍洛旗,17200,39.59233841,109.7927577
1119,1002370,（内蒙办）内蒙古左旗潘敬芳,1018,内蒙古直营办事处,内蒙古阿拉善左旗土尔扈特路,潘敬芳,,,39.5478064,105.0382468
1120,1002655,（内蒙办）内蒙古巴彦淖尔市临河区雷治国,1018,内蒙古直营办事处,内蒙古巴彦淖尔市临河区红美建材家居生活广场3号馆3楼,雷治国,,,40.93201822,107.4418396
1121,1001478,（内蒙办）内蒙古呼和浩特市蓝天医药器械有限公司,1018,内蒙古直营办事处,内蒙古呼和浩特市金锐家居会展中心,曹金栋,呼和浩特市,10000,40.81170743,111.6783488
1122,1001479,（内蒙办）内蒙古土默特左旗张强,1018,内蒙古直营办事处,内蒙古呼和浩特市土默特左旗供销大楼全友家私,张强,土默特左旗,10100,40.84146051,111.698385
1123,1001481,（内蒙办）内蒙古包头市青山区尹秀芳,1018,内蒙古直营办事处,内蒙古包头市九原区马池沃土壕宅,尹秀芳,150200,14030,40.62720228,109.9491975
1124,1001482,（内蒙办）内蒙古固阳县赵庆春,1018,内蒙古直营办事处,内蒙古包头市固阳县固查路交通队西50米路南,赵庆春,固阳县,10000,41.10472541,110.1675921
1125,1001483,（内蒙办）内蒙古土默特右旗樊胜利,1018,内蒙古直营办事处,内蒙古包头市土默特右旗党校对面私,樊胜利,土默特右旗,14100,40.52799576,110.6932579
1126,1001488,（内蒙办）内蒙古五原县李国良,1018,内蒙古直营办事处,内蒙古巴彦淖尔市五原县五州商场4楼,李国良,五原县,15100,41.04542666,108.0722841
1127,1001489,（内蒙办）内蒙古乌拉特前旗李忠,1018,内蒙古直营办事处,内蒙古巴彦淖尔市乌拉特前旗东风大街全友家居家私城三楼西厅,李忠,乌拉特前旗,14400,40.72902645,108.6585223
1128,1001494,（内蒙办）内蒙古乌审旗王雪,1018,内蒙古直营办事处,内蒙古鄂尔多斯市乌审旗五马路全友家私,王雪,乌审旗,173000,38.61517031,108.842254
1129,1001497,（内蒙办）内蒙古乌海市杨海江,1018,内蒙古直营办事处,内蒙古乌海市正远家具城一楼全友家私专卖店,杨海江,乌海市海勃湾区,16000,39.68317701,106.8319991
1130,1002217,（内蒙办）内蒙古杭锦后旗苏高丽,1018,内蒙古直营办事处,内蒙古巴彦淖尔市杭锦后旗陕坝镇昌恒家具城二楼,苏高丽,,,40.89726548,107.1538501
1131,1003111,（内蒙办）内蒙古磴口县苏飞,1018,内蒙古直营办事处,内蒙古自治区巴彦淖尔市磴口县团结路春城电器二楼,苏飞,,,40.33313225,107.0151393
1132,1003860,广西省灵山县刘金果,1019,广西直营办事处,广西省钦州市灵山县钟秀路与友谊路口锦绣荔城8栋9栋1楼二楼,刘金果,,,22.42747237,109.2983262
1133,1003891,广西省平南县邓凯明,1019,广西直营办事处,广西省贵港市平南县商业大道大将商贸城,邓凯明,,,23.56075005,110.3999174
1134,1003785,广西省百色市卢相杰,1019,广西直营办事处,广西省百色市右江区建华路宏缘汽修厂内,卢相杰,,,23.89698527,106.6024701
1135,1003898,广西省浦北县寨圩镇朱业矿,1019,广西直营办事处,广西浦北县寨圩镇子厄村委会温江村51号,赵业矿,,,22.5638853,109.6367292
1136,1003643,广西省防城港市龙望香,1019,广西直营办事处,广西省防城港市防城区群星大道8号,龙望香,,,21.75151431,108.3716397
1137,1003175,广西省宁明县周洪昌,1019,广西直营办事处,广西省宁明县德华街文化中心对面苏宁电器2-3楼,周洪昌,,,22.13693074,107.0777981
1138,1003223,广西省武鸣县李丹,1019,广西直营办事处,广西省南宁市武鸣县兴武大道176号,李丹,,,23.16173858,108.2937453
1139,1003249,广西省罗城仫佬族自治县黎胜钦,1019,广西直营办事处,广西省罗城县东门镇白马路科委门面,黎胜钦,,,24.78337558,108.9085792
1140,1003319,快一步装饰工程有限公司广西省桂林市易建华,1019,广西直营办事处,广西省桂林市凯风路储运公司15号仓库,易建华,,,25.23257299,110.2977624
1141,1003676,广西省来宾市王志芬,1019,广西直营办事处,广西省来宾市疏港路桂中国际商贸城B1栋全友家居,王志芬,,,23.74116593,109.2318165
1142,1003878,广西省昭平县谢荣辉,1019,广西直营办事处,广西省昭平县永利新城全友家居店,谢荣辉,,,24.10807286,110.9769077
1143,1003804,广西省柳江县饶辉周,1019,广西直营办事处,广西省柳州市柳江县基隆下屯综合市场二楼（基隆加油站对面）,饶辉周,,,24.26406843,109.3866668
1144,1003883,广西省融安县曾广奎,1019,广西直营办事处,广西省柳州市融安县长安镇桔香北路80号,曾广奎,,,25.22322799,109.4125151
1145,1003881,广西省桂平市李琦,1019,广西直营办事处,广西省桂平市郁江东路现代人家二号楼二层,李琦,,,23.37412276,110.0863108
1146,1003924,广西省灵山县陆屋镇李东霞,1019,广西直营办事处,广西灵山县陆屋镇陆阳路陆屋中学旁,李东霞,,,22.28398369,108.9575156
1147,1003773,广西省桂林市周分明,1019,广西直营办事处,广西省桂林市叠彩环城北路与芦笛路交叉口(原百纺商城),周分明,,,25.30347131,110.2989479
1148,1002663,广西省梧州市曾光明,1019,广西直营办事处,广西省梧州市西江四路深冲8号利固五金厂,曾光明,,,23.47809774,111.3356494
1149,1002754,广西省玉林市曾光明,1019,广西直营办事处,广西省玉林人人民中路91号金茂白马大厦3楼,曾光明,,,22.63340854,110.1566626
1150,1003382,广西省扶绥县邓若江,1019,广西直营办事处,广西省扶绥县东区阳光家园摩托车专业市场二楼,邓若江,,,22.64494365,107.9205909
1151,1003488,广西省乐业县邓国文,1019,广西直营办事处,广西省百色市乐业县同乐路45号,邓国文,,,24.82966424,106.5178987
1152,1003540,广西省横县峦城镇莫辉剑,1019,广西直营办事处,广西省横县峦城镇商贸城大国美电器城,莫辉剑,,,22.80316824,108.9312986
1153,1003450,【定制销售本部】广西省桂平市李琦,1019,广西直营办事处,广西省桂平市南门桥头（现代人家二号楼）全友家居,李琦,,,23.37412276,110.0863108
1154,1003592,广西省南宁市青秀区卢锦锋,1019,广西直营办事处,广西南宁市青秀区桂春路10号柏图家居,卢锦锋,,,22.81371964,108.3706897
1155,1003594,广西省南宁市朝阳区卢锦锋,1019,广西直营办事处,广西省南宁市朝阳路青云街18号万达广场A座4楼,卢锦锋,,,22.81987767,108.3288668
1156,1003610,广西省钟山县刘杰,1019,广西直营办事处,广西省钟山县泰兴购物城二楼全友家私,刘杰,,,24.53798309,111.3082649
1157,1003628,广西省钦州市胡祥生,1019,广西直营办事处,广西省钦州市北部湾建材城,胡祥生,,,21.53475685,108.8644136
1158,1003512,广西省南宁市和美空间装饰工程有限公司易建华,1019,广西直营办事处,南宁市安吉高速路口往武鸣方向1000米处（便店站旁）,胡振国,,,23.25806572,108.2601393
1159,1003604,【定制销售本部】广西省钦州市胡祥生,1019,广西直营办事处,广西省钦州市北部湾国际建材城四楼,胡祥生,,,21.53475685,108.8644136
1160,1002333,广西省田林县任承发,1019,广西直营办事处,广西省田林县云贵停车场,任承发,,,24.39253848,105.9998272
1161,1002350,广西省兴业县蔡永斌,1019,广西直营办事处,广西省兴业县百业商业中心西区D座二楼,蔡永斌,,,22.79846176,109.9286109
1162,1002411,广西省黎塘镇商家翠,1019,广西直营办事处,广西省南宁市黎塘镇派出所旁,商家翠,,,23.20735121,109.1384504
1163,1002939,广西省阳朔县张文超,1019,广西直营办事处,广西省桂林市阳朔县收费站旁,张文超,,,24.85728229,110.4829293
1164,1003141,广西省平乐县黄雷,1019,广西直营办事处,广西省桂林市平乐县麻纺厂仓库,黄雷,,,24.55891977,110.7976899
1165,1002155,广西省富川瑶族自治县肖井忠,1019,广西直营办事处,广西省贺州市富川瑶族自治县县城文教路1号,肖井忠,,,24.8290531,111.2777773
1166,1001884,广西省北海市郭海荣,1019,广西直营办事处,广西北海海北海大道与广东路口恒昌商业广场,郭海荣,北海市,536000,21.47618064,109.1377783
1167,1001903,广西省龙州县郑志敏,1019,广西直营办事处,广西省崇左市龙州县高祥小区全友家私,郑志敏,龙州县,532400,22.35162135,106.874162
1168,1001959,广西省桐木镇吴建武,1019,广西直营办事处,广西省金秀县桐木镇城中路名居家私城,吴建武,桐木镇,545700,24.19574918,109.9896388
1169,1001964,广西办合浦县刘金果,1019,广西直营办事处,广西省合浦县廉州南路（一中对面）全友家私,刘金果,合浦县,536100,21.6636231,109.1989535
1170,1002500,广西省木乐镇区梅连,1019,广西直营办事处,广西省桂平市木乐镇商住开发区九龙大道中段,区梅连,,,23.42573535,110.3586356
1171,1002403,广西省贺州市曾光明,1019,广西直营办事处,广西省贺州市饲料市场二楼,曾光明,,,24.41105355,111.5525942
1172,1000156,广西省南宁市董斐,1019,广西直营办事处,广西省南宁市安吉路高速路出口往武鸣方向1千米，永宁小学后面,董斐,南宁市,530022,22.90337086,108.3054165
1173,1000158,广西省横县蒋柏龙,1019,广西直营办事处,广西横县国际商贸城A13栋全友家居,蒋柏龙,横县,530300,22.71353505,109.2769138
1174,1000160,广西省上林县高利军,1019,广西直营办事处,广西省南宁市上林县澄洲路锦林大厦3楼全友家私,高利军,上林县,533700,23.43555134,108.6096932
1175,1000162,广西省隆安县邓光东,1019,广西直营办事处,广西省南宁市隆安县百货大楼一楼,邓光东,隆安县,530000,23.1811601,107.6975911
1176,1000169,广西省灌阳县杨从标,1019,广西直营办事处,广西省桂林市灌阳县灌江路92号,杨从标,灌阳县,541600,25.49299908,111.163121
1177,1000171,广西省资源县邓桐武,1019,广西直营办事处,广西省桂林市资源县桥头家私城内,邓桐武,资源县,541400,25.97869034,110.6526337
1178,1000172,广西省全州县聂配良,1019,广西直营办事处,广西省桂林市全州县和平建材市场,聂配良,全州县,533800,25.93646477,111.0264348
1179,1000175,广西省浦北县李建文,1019,广西直营办事处,广西省钦州市浦北县南区越新路92号全友家居楼,李建文,浦北县,530000,22.26151542,109.5565478
1180,1000186,广西省贵港市乔建平,1019,广西直营办事处,广西省贵港市世纪花园东侧F01号全友家私专卖店,乔建平,贵港市,537100,23.11206622,109.598508
1181,1000191,广西省苍梧县陈文桂,1019,广西直营办事处,广西省梧州市苍梧县城东市场一楼,陈文桂,苍梧县,543100,23.41968746,111.2573555
1182,1000200,广西省上思县骆佳磊,1019,广西直营办事处,广西省防城港市上思县金印小区步行街后财富广场一楼易市场,骆佳磊,上思县,535500,22.05362529,107.9023435
1183,1000205,广西省德保县谭六保,1019,广西直营办事处,广西省百色市德保县城东山水碧苑1号3楼,谭六保,德保县,533700,23.33205672,106.6362031
1184,1000207,广西省凌云县谢铭全,1019,广西直营办事处,广西省百色市凌云县大茶壶广场二楼家私城,谢铭全,凌云县,533100,24.36372615,106.6483792
1185,1000209,广西省田东县陆有万,1019,广西直营办事处,广西省百色市田东县二糖厂路口往里二百米左右,陆有万,田东县,532800,23.61458537,107.1916371
1186,1000210,广西省田阳县罗世广,1019,广西直营办事处,广西省百色市田阳县金大地物流,罗世广,田阳县,533600,23.7297593,106.8112701
1187,1000211,广西省那坡县鄢忠烈,1019,广西直营办事处,广西省那坡县壮鑫商贸城中间二楼美廉超市,鄢忠烈,451000,533900,23.41026775,105.845223
1188,1000214,广西省河池市韦业庚,1019,广西直营办事处,广西省河池市南桥市场二楼全友家私专卖店,韦业庚,河池市,538021,24.70047953,108.0493883
1189,1000215,广西省都安瑶族自治县卿洪万,1019,广西直营办事处,广西省河池市都安瑶族自治县休闲广场购物中心二楼,卿洪万,都安瑶族自治县,530700,24.16977807,108.1180607
1190,1000216,广西省大化瑶族自治县卿洪万,1019,广西直营办事处,广西省河池市大化瑶族自治县百大购物中心三楼全友家私,卿洪万,大化瑶族自治县,530700,23.74574781,108.0005029
1191,1000217,广西省宜州市韦业庚,1019,广西直营办事处,广西省河池市宜州市山谷路车江苑23号一楼全友家私专卖店,韦业庚,宜州市,533000,24.50153538,108.6535344
1192,1000219,广西省南丹县高文成,1019,广西直营办事处,广西省河池市南丹县新城区工商局对面五金大厦一楼全友家私加盟店,高文成,451200,547200,25.11943883,107.4680007
1193,1002843,广西省龙胜县骆福军,1019,广西直营办事处,广西省桂林市龙胜县北岸开发区新汽车站三楼,骆福军,,,25.86832798,110.0102505
1194,1000225,广西省柳州市黄华春,1019,广西直营办事处,广西省柳州市独静路老邻居旁,黄华春,柳州市,545006,24.32155494,109.421178
1195,1000226,广西省融水苗族自治县张小利,1019,广西直营办事处,广西省柳州市融水苗族自治县高岭头玉华市场二楼,张小利,融水苗族自治县,545300,25.08619843,109.2670287
1196,1000227,广西省三江侗族自治县张银,1019,广西直营办事处,广西省柳州市三江侗族自治县古宜镇民族广场斜对面全友健康家具城二楼,张银,450200,533600,25.78813948,109.6156616
1197,1000165,广西省荔浦县傅联雄,1019,广西直营办事处,广西省桂林市荔浦县联雄购物城三楼,傅联雄,荔浦县,546600,24.52534289,110.3683279
1198,1002028,广西省岑溪市萧永利,1019,广西直营办事处,广西省梧州市岑溪市金源购物广场3楼全友家私,萧永利,岑溪市,543200,22.92086171,111.0024811
1199,1000449,（河南办）河北省巨鹿县孟祥峰,1020,河南直营办事处,河北省邢台市巨鹿县健康西路春晓街人和绿色家园西全友家私,孟祥峰,巨鹿县,54200,37.2222332,115.0347321
1200,1000450,（河南办）河北省临城县杨君,1020,河南直营办事处,河北省邢台市临城县临泉路县医院左侧20米,杨君,临城县,54100,37.44768509,114.5201567
1201,1000451,（河南办）河北省隆尧县檀青,1020,河南直营办事处,河北省邢台市隆尧县老十字街,檀青,隆尧县,450000,37.36468808,114.7929158
1202,1000452,（河南办）河北省南和县许春霞,1020,河南直营办事处,河北省邢台市南和县和阳大街豪峰装饰城2楼,许春霞,南和县,54100,37.01086815,114.7088286
1203,1000453,（河南办）河北省平乡县赵国强,1020,河南直营办事处,河北省邢台市平乡县人民路全友家私,赵国强,平乡县,54100,37.07720802,115.0327613
1204,1000454,（河南办）河北省威县姜文山,1020,河南直营办事处,河北省邢台市威县乘东路与106国道交叉口全友家具广,姜文山,威县,54200,36.99068597,115.2879467
1205,1000455,（河南办）河北省沙河市何明荣,1020,河南直营办事处,河北省邢台市沙河市温泉街与东环交叉口,何明荣,沙河市,54700,36.93863546,114.2830925
1206,1000456,（河南办）河北省任县徐冲,1020,河南直营办事处,河北省邢台市任县任城镇新兴西路208号,徐冲,任县,450000,37.13496259,114.6891732
1207,1000457,（河南办）河北省新河县檀青,1020,河南直营办事处,河北省邢台市新河县振堂西路,檀青,新河县,541000,37.49936257,115.2572036
1208,1000458,（河南办）河北省内丘县杨常青,1020,河南直营办事处,河北省邢台市内丘县康庄路家乐园超市斜对过,杨常青,内丘县,54100,37.40780446,114.8598914
1209,1000459,（河南办）安徽省砀山县季进财,1020,河南直营办事处,安徽省宿州市砀山县西关大花园向北800路西（盛世嘉园）,季进财,砀山县,235300,34.43180656,116.3474824
1210,1000460,河南省济源市张东风,1020,河南直营办事处,河南省济源市欧凯路家具广场一楼全友家私,张东风,济源市,454650,35.09229579,112.5907465
1211,1002864,河南省灵宝市张铁雷,1020,河南直营办事处,河南省三门峡市灵宝长安路三仙鹤转盘全友家居,张铁雷,,,34.52929914,110.9093826
1212,1000333,河南省郸城县王仰才,1020,河南直营办事处,河南省周口市郸城县市政广场旁50米,王仰才,郸城县,477150,33.64150007,115.3012974
1213,1000335,河南省项城市胡春梅,1020,河南直营办事处,河南省周口市项城市公园西200米处全友家私生活馆,胡春梅,411600,466200,33.27447032,114.8915839
1214,1000336,河南省沈丘县蒋玉周,1020,河南直营办事处,河南省周口市沈丘县兆丰大道东温州国际商贸城品馆东厅,蒋玉周,沈丘县,466300,33.3857439,115.0975807
1215,1000337,河南省淮阳县李德勇,1020,河南直营办事处,河南省周口市淮阳县新华亿星购物广场3楼全友家私,李德勇,淮阳县,466700,33.61420392,114.6738429
1216,1000338,河南省太康县刘高棵,1020,河南直营办事处,河南省周口市太康县政府广场西侧,刘高棵,太康县,475400,34.09709625,114.8557008
1217,1000340,河南省驻马店市林强,1020,河南直营办事处,河南省驻马店市天中山大道与中华路交叉口路西全友家私,林强,驻马店市,463000,32.97630297,114.0175382
1218,1000341,河南省泌阳县张曾峰,1020,河南直营办事处,河南省驻马店市泌阳县行政路中段全友家私,张曾峰,411700,472400,32.72991942,113.3278856
1219,1000342,河南省平舆县李春华,1020,河南直营办事处,河南省驻马店市平舆县百货大楼（百家福东侧20M）全友家私,李春华,平舆县,472400,32.96102167,114.6425882
1220,1000343,河南省上蔡县王丹军,1020,河南直营办事处,河南省驻马店市上蔡县通明路北关石像西50米全友家私,王丹军,上蔡县,463800,33.26821924,114.2708334
1221,1000344,河南省遂平县车艺军,1020,河南直营办事处,河南省驻马店市遂平县西关车伍家具城,车艺军,411700,463100,33.15109292,113.996579
1222,1000346,河南省汝南县杨宝玉,1020,河南直营办事处,河南省驻马店市汝南县灯瀛路口全友家私,杨宝玉,411700,460000,32.92196847,114.3257758
1223,1000347,河南省新蔡县刘新德,1020,河南直营办事处,河南省驻马店市新蔡县十里铺双语学校对面,李和平,新蔡县,465350,32.77858387,114.9525372
1224,1000349,河南省确山县林强,1020,河南直营办事处,河南省驻马店市全友家私生态馆,林强,确山县,463000,32.97630297,114.0175382
1225,1000352,（河南办）河北省永年县申建华,1020,河南直营办事处,河北省永年县承寺繁倍卫系缬霸,申建华,永年县,56060,36.77020018,114.641602
1226,1000353,（河南办）河北省磁县路玉林,1020,河南直营办事处,河北省邯郸市磁县朝阳花园内,路玉林,磁县,56500,36.37982822,114.3876148
1227,1000354,（河南办）河北省曲周县王玉柱,1020,河南直营办事处,河北省邯郸市曲周县光明街新金风家具广场全友家私,王玉柱,曲周县,57250,36.77716951,114.9556824
1228,1000355,（河南办）河北省涉县李银魁,1020,河南直营办事处,河北省邯郸市涉县东和路第5大厅,李银魁,涉县县,56400,36.59810454,113.7429135
1229,1000356,（河南办）河北省广平县杜常印,1020,河南直营办事处,河北省邯郸市广平县东风渠桥东100米（银座家居广场）商场,杜常印,130400,57250,36.48738481,114.9703042
1230,1000357,（河南办）河北省武安市杜彦明,1020,河南直营办事处,河北省武安市东马庄建材家具大世界,杜彦明,武安市,56400,36.71449993,114.1699976
1231,1000360,（河南办）河北省邱县陈思兴,1020,河南直营办事处,河北省邯郸市邱县建设街1号,陈思兴,邱县,465350,36.8188378,115.1758109
1232,1000362,河南省安阳市熊强,1020,河南直营办事处,河南省安阳市开发区前张村,熊强,安阳市,455000,36.07966575,114.3769777
1233,1000363,河南省滑县赵银海,1020,河南直营办事处,河南省安阳市滑县三八岗东150米祥林家具城,赵银海,滑县,453000,35.47173378,114.6736472
1234,1000426,河南省辉县刘振河,1020,河南直营办事处,河南省新乡市辉县市新建街灶君庙商贸城全友家私,刘振河,辉县,450000,35.46295438,113.8125487
1235,1000415,河南省淅川县张建红,1020,河南直营办事处,河南省南阳市淅川县城关镇上九路县体育场旁全友家私,张建红,淅川县,474450,33.14543283,111.49207
1236,1000417,河南省濮阳市张少宝,1020,河南直营办事处,河南省濮阳市黄河路中段全友家私生活馆,张少宝,濮阳市,452370,35.77743903,115.068996
1237,1000418,河南省南乐县杨少强,1020,河南直营办事处,河南省濮阳市南乐县光明路中段路东真强家具广场,杨少强,南乐县,457400,36.0976974,115.2498231
1238,1000419,河南省新乡市牧野区张国士,1020,河南直营办事处,河南省新乡市卫滨区中同大道86号（夕阳红养老院对面五金交化仓库）,张国士,新乡市牧野区,453002,35.31873371,113.8512787
1239,1000422,河南省获嘉县张留全,1020,河南直营办事处,河南省新乡市获嘉县西岗楼向西十米,张留全,获嘉县,453800,35.20348056,113.6519689
1240,1000371,河南省商丘市张国士,1020,河南直营办事处,河南省商丘市平原路北段钢材市场北粮库院内,张国士,商丘市,476000,34.4267045,115.6434513
1241,1000372,河南省夏邑县周家平,1020,河南直营办事处,河南省商丘市夏邑县建设南路与中和街十字路口,周家平,夏邑县,476400,34.22368071,116.1574537
1242,1000373,河南省柘城县张景亮,1020,河南直营办事处,河南省商丘市柘城县上海路南段全友家居厅,张景亮,411400,476200,34.08722089,115.3311804
1243,1001962,河南省博爱县许庆伟,1020,河南直营办事处,河南省博爱县环城北路全友家私,许庆伟,博爱县,454450,35.09502506,112.9493852
1244,1002277,河南省民权县田国锋,1020,河南直营办事处,河南省民权县南环路与花园路交叉口西100米,田国锋,,,34.69611652,115.1784141
1245,1002293,河南省嵩县宋东方,1020,河南直营办事处,河南省嵩县北大步行街南200米,宋东方,,,34.01060011,112.0495114
1246,1002356,河南省唐河县孙海强,1020,河南直营办事处,河南省南阳市唐河县312国道二桥东500米,孙海强,,,32.61999329,112.8591183
1247,1002509,（河南办）河北省邯郸市陈雪婷,1020,河南直营办事处,河北省邯郸市亚森家具城1厅3楼,陈雪婷,,,36.58834389,114.4969924
1248,1002344,河南省小董乡王矿军,1020,河南直营办事处,河南省武陟县小董乡乡政府东10米,王矿军,,,35.08308585,113.2448662
1249,1002213,河南省虞城县祝西华,1020,河南直营办事处,河南省虞城县324省道商丘与虞城交界牌东500米路南商丘市钢木制品有限公司院内,祝西华,,,34.36907193,115.9142249
1250,1002432,河南省开封市牛丽琳,1020,河南直营办事处,河南省开封市圆梦家具广场二楼西北角,牛丽琳,,,34.80185418,114.3516421
1251,1002506,（河南办）河北省宁晋县刘红霞,1020,河南直营办事处,河北省邢台市宁晋县状元路供销怡园北口南10米全友家居,刘红霞,,,37.62906638,114.9368528
1252,1002540,河南省修武县徐元才,1020,河南直营办事处,河南省焦作市东方红广场对面,徐元才,,,35.25050706,113.2512643
1253,1002065,河南省鹿邑县崔风杰,1020,河南直营办事处,河南省周口市鹿邑县栾台路南段海景新城全友家私,崔风杰,鹿邑县,477200,33.86399099,115.4797224
1254,1000427,河南省焦作市解放区徐元才,1020,河南直营办事处,河南省焦作市解放中路108号东方红广场对面,徐元才,焦作市解放区,464000,35.24989571,113.2520796
1255,1000428,河南省孟州市张玲,1020,河南直营办事处,河南省焦作市孟州市韩愈大街东段滨河公园旁边,张玲,孟州市,454750,34.9210296,112.8119283
1256,1000429,河南省武陟县王新斌,1020,河南直营办事处,河南省焦作市武陟县文化路西妇幼保健院西邻,王新斌,武陟县,454950,35.09323351,113.4136974
1257,1000375,河南省永城市陈体坤,1020,河南直营办事处,河南省商丘市永城市区中原市第一小学对面,陈体坤,永城市             ,476600,33.97201306,116.3307752
1258,1000377,河南省宁陵县窦世洋,1020,河南直营办事处,河南省商丘市宁陵县城关回族镇张弓路132号附2号全友家私,窦世洋,宁陵县,450000,34.44444656,115.3244303
1259,1000378,河南省信阳市徐元才,1020,河南直营办事处,河南省信阳市新华西路上海商场,徐元才,信阳市,464000,32.13469254,114.0830573
1260,1000379,河南省明港镇王先进,1020,河南直营办事处,河南省信阳市明港镇建设路与农工路交叉口,王先进,明港镇,464194,32.46970549,114.0487485
1261,1000380,河南省固始县谢炜,1020,河南直营办事处,河南省信阳市固始县桃花乌市场全友家私,谢炜,固始县,452000,32.18520639,115.6769282
1262,1000381,河南省光山县陈世安,1020,河南直营办事处,河南省信阳市光山县司马光东路东城紫玉庭院隔壁,陈世安,光山县,472400,32.01334281,114.9216093
1263,1000382,河南省淮滨县奚启友,1020,河南直营办事处,河南省信阳市淮滨县新汽车站二楼,奚启友,淮滨县,464400,32.44657355,115.3245607
1264,1000383,河南省潢川县王焕举,1020,河南直营办事处,河南省潢川县迎宾路新一中北50米,王焕举,411500,465350,32.13279843,115.1644099
1265,1000384,河南省罗山县赵世明,1020,河南直营办事处,河南省罗山县粮食局仓库,赵世明,罗山县,464200,32.0312303,114.443563
1266,1000385,河南省商城县沈永红,1020,河南直营办事处,河南省信阳市商城县黄柏山路北段十里头,沈永红,商城县,465350,31.81352228,115.4030008
1267,1000386,河南省息县任俊,1020,河南直营办事处,河南省信阳市息县东环路中段地税局隔壁,任俊,411500,472400,32.15081563,115.0410071
1268,1000388,河南省宜阳县李绍勋,1020,河南直营办事处,河南省洛阳市宜阳县兴宜路步行街西50米（国中购物广场负1楼）,李绍勋,宜阳县,471600,34.526513,112.1955702
1269,1000389,河南省伊川县翟灵喜,1020,河南直营办事处,河南省洛阳市伊川县老汽车站东500米（欧美龙家具博览中心）,翟灵喜,伊川县,471300,34.42329462,112.4441845
1270,1000390,河南省汝阳县郭俊伟,1020,河南直营办事处,河南省洛阳市汝阳县凤山中路,郭俊伟,汝阳县,471200,34.06296675,112.435544
1271,1000391,河南省孟津县杜春平,1020,河南直营办事处,河南省洛阳市孟津县桂花路商业大厦二楼,杜春平,孟津县,471141,34.8325712,112.4477895
1272,1000392,河南省新安县陈爱学,1020,河南直营办事处,河南省新安县新城西区爱家居生活馆（黛眉地质广场对面）家私地下城,张文,新安县,471800,34.83760695,112.1277435
1273,1000394,河南省洛宁县王耀武,1020,河南直营办事处,河南省洛阳市洛宁县长虹路中段(全友家私生活馆）,王耀武,洛宁县,471700,34.39146137,111.6496426
1274,1000395,河南省栾川县刘书粉,1020,河南直营办事处,河南洛阳市栾川县七里坪建材市场二楼全友家私,刘书粉,栾川县,471300,33.78542831,111.6514967
1275,1000397,河南省三门峡市侯萍,1020,河南直营办事处,河南省三门峡市开发区春玉家具城全友家私,侯萍,三门峡市,472001,34.80004297,111.1738565
1276,1000398,河南省义马市杨令军,1020,河南直营办事处,河南省义马市银杏路西段与华山路交叉口开瑞新型材料厂院内,杨令军,义马市,472300,34.75983061,111.8747483
1277,1000400,河南省渑池县杨令军,1020,河南直营办事处,河南省三门峡市义马市银杏路西段与华山路交叉口开瑞新型材料厂院内,杨令军,渑池县,472400,34.75983061,111.8747483
1278,1000403,河南省南阳市朱保定,1020,河南直营办事处,河南省南阳市伏牛路华光二胶厂对面赵庄后边库房,朱保定,南阳市,473000,32.99992749,112.5282468
1279,1000404,河南省油田宗士坤,1020,河南直营办事处,河南省南阳市油田大庆路老红绿灯路口健强量贩三楼,宗士坤,油田,473000,32.6908354,112.6340442
1280,1000405,河南省桐柏县张杰玉,1020,河南直营办事处,河南省南阳市桐柏县淮源大道祥和苑二楼,张杰玉,桐柏县,474750,32.3703795,113.3979819
1281,1000406,河南省双河镇谢少义,1020,河南直营办事处,河南省南阳市桐柏县埠江镇联合站西200米,谢少义,双河镇,473000,32.57632492,113.0539484
1282,1000407,河南省邓州市张涛,1020,河南直营办事处,河南省南阳市邓州市交通路新汽车站南60米,张涛,邓州市,474100,32.69421749,112.0830658
1283,1000408,河南省西峡县李玉林,1020,河南直营办事处,河南省南阳市西峡县白羽路多尔玛生活广场对面,李玉林,411300,474500,33.48692481,111.4389898
1284,1000409,河南省内乡县封小华,1020,河南直营办事处,河南省南阳市内乡渚阳大街与郦都大道交叉口东北角,封小华,411300,473000,33.06560345,111.8383763
1285,1000410,河南省镇平县封小华,1020,河南直营办事处,河南省南阳市镇平县健康路老体育场,封小华,镇平县,473000,33.04764748,112.2348109
1286,1000411,河南省社旗县冯兰,1020,河南直营办事处,河南省南阳市社旗县建设路与红旗路交叉口光明家具城,冯兰,社旗县,473300,33.06491442,112.9445273
1287,1000412,河南省方城县任国庆,1020,河南直营办事处,河南省南阳市方城县粮油路全友家私,任国庆,方城县,473200,33.29995433,113.0168222
1288,1000413,河南省云阳镇康振杰,1020,河南直营办事处,河南省南阳市南召县云阳镇五一路口中行对面,康振杰,云阳镇,473000,33.45421524,112.727874
1289,1000431,河南省温县张大宾,1020,河南直营办事处,河南省焦作市温县新洛路大明家具广场,张大宾,温县,454951,34.95025991,113.0552961
1290,1000433,河南省临颍县孙玉奎,1020,河南直营办事处,河南省临颍县一环路东段（107国道东）,孙玉奎,临颖县,463700,33.84442573,113.9638986
1291,1000434,河南省许昌市董权,1020,河南直营办事处,河南省许昌市前进路东段城标・尚郡,董权,许昌市,452500,33.7646395,113.207959
1292,1000436,河南省禹州市毛伟鹏,1020,河南直营办事处,河南省许昌市禹州市天蓝天家具大世界全友家私,毛伟鹏,411000,467000,34.15189905,113.4739976
1293,1000437,河南省襄城县林万胜,1020,河南直营办事处,河南省许昌市襄城县长途汽车站斜对面,林万胜,襄城县,467000,33.86190519,113.5689829
1294,1000438,河南省鄢陵县田廷会,1020,河南直营办事处,河南省许昌市鄢陵县花都大道全友家私专卖店,田廷会,鄢陵县,461200,34.10265996,114.1681813
1295,1000439,河南省平顶山市湛河区林燕,1020,河南直营办事处,河南省平顶山市光明路北段平安佳园全友家私,林燕,平顶山市湛河区,467000,33.75156513,113.3005316
1296,1000440,河南省宝丰县王国志,1020,河南直营办事处,河南省平顶山市宝丰县星源家私广场,王国志,宝丰县,473000,33.91549735,113.0357715
1297,1000441,河南省鲁山县张立民,1020,河南直营办事处,河南省平顶山市鲁山县南环路中段全友家私,张立民,410400,467400,33.73918645,112.9168143
1298,1000442,河南省叶县王国良,1020,河南直营办事处,河南平顶山叶县叶廉路东段县委新大楼西侧,王国良,叶县,467400,33.55101348,113.3506762
1299,1000443,河南省汝州随利层,1020,河南直营办事处,河南省平顶山市汝州市城垣北路,随利层,汝州,474750,34.16277755,112.8127175
1300,1000444,河南省郏县王利娜,1020,河南直营办事处,河南省平顶山市郏县龙山大道西段粮库对面,王利娜,郏县,467100,33.98161431,113.2339407
1301,1000445,河南省舞钢市郭亚隆,1020,河南直营办事处,河南省平顶山市舞钢市朱蓝干休所一街东段路北,郭亚隆,舞钢市,463700,33.2896055,113.525996
1302,1000446,（河南办）河北省邢台市谢春梅,1020,河南直营办事处,河北省邢台市中心路151号襄都家具城全友家私,谢春梅,邢台市桥西区,64000,37.0695312,114.5204868
1303,1000448,（河南办）河北省柏乡县谷新歧,1020,河南直营办事处,河北省邢台市柏乡县中学西50米,谷新歧,柏乡县,55450,37.51741841,114.7074243
1304,1003800,（河南办）河北省邯郸市峰峰区孔令涛,1020,河南直营办事处,河北省邯郸市峰峰矿区彭城常范口,孔令涛,,,36.474685,114.1904216
1305,1003779,【定制销售本部】（河南办）河北省隆尧县李华峰,1020,河南直营办事处,河北省邢台市隆尧县锦翠城小区,李华峰,,,37.36468808,114.7929158
1306,1003207,河南省新野县陶磊,1020,河南直营办事处,河南省新野县白河大桥东200米,陶磊,,,32.51530142,112.3483449
1307,1003262,【定制销售本部】河南省平顶山市郑良,1020,河南直营办事处,河南省平顶山市平安大道新东建材5排,郑良,,,33.76528896,113.2770707
1308,1003298,河南省舞阳县郭亚隆,1020,河南直营办事处,河南省漯河市舞阳县东关汽车站南,郭亚隆,,,33.43577209,113.6167581
1309,1003667,【定制销售本部】河南省沈丘县霍跃森,1020,河南直营办事处,河南省周口市沈丘县高营转盘温州国际商贸城24栋101,霍跃森,,,33.29514993,115.1787182
1310,1003716,河南省林州市周新旺,1020,河南直营办事处,河南省安阳市林州市桂园区太行路北段,,,,36.07769823,113.842366
1311,1003659,【定制销售本部】（河南办）河北省武安市李军,1020,河南直营办事处,河北省邯郸市武安市建材市场精品城3层,李军,,,36.74899548,114.058334
1312,1003651,河南省兰考县李辉,1020,河南直营办事处,河南省兰考县红庙路口东500米,李辉,,,34.86200958,114.9361966
1313,1003681,河南省睢县黄华,1020,河南直营办事处,河南省商丘市睢县中心大街北段美景天城大门北,黄华,,,34.44821049,115.0856316
1314,1003789,河南省漯河市喻强照,1020,河南直营办事处,河南省漯河市湘江路家盛世家具广场,喻强照,,,33.56738723,114.0322397
1315,1003654,河南省浚县常远,1020,河南直营办事处,河南省鹤壁市浚县黎阳路与勇定线交叉口（客运总站）,常远,,,35.68158939,114.5491655
1316,1003658,【定制销售本部】河南省商丘市万红波,1020,河南直营办事处,河南省商丘市长征路中段全友定制衣柜,万红波,,,34.43858864,115.6418857
1317,1003935,河南省扶沟县田飞,1020,河南直营办事处,河南省周口市扶沟华福商贸城物流中心1号库,田飞,,,34.10065547,114.4373266
1318,1003777,【定制销售本部】河南省禹州市苏红敏,1020,河南直营办事处,河南省禹州市华夏大道,苏红敏,,,34.13607561,113.5095611
1319,1002771,河南省长垣县熊强,1020,河南直营办事处,河南省长垣县北环路中段农业局对面,熊强,,,35.21812761,114.7669033
1320,1002976,【定制销售本部】河南省洛阳市王彬朋,1020,河南直营办事处,河南省洛阳市景华路与太原路交叉口金梦家居,王彬朋,,,34.66542995,112.4090379
1321,1002986,【定制销售本部】河南省永城市王登良,1020,河南直营办事处,河南省商丘市永城市雪峰路与铁北路交叉口-定制,王登良,,,33.97201306,116.3307752
1322,1003208,【定制销售本部】河南省潢川县魏峰,1020,河南直营办事处,河南省潢川县弋阳路20号,魏峰,,,32.13279843,115.1644099
1323,1003365,【定制销售本部】河南省新乡市郭华,1020,河南直营办事处,河南省新乡市平原路与新七街交叉口红星美凯龙,郭华,,,35.31126024,113.8959306
1324,1003416,【定制销售本部】（河南办）河北省涉县王慧然,1020,河南直营办事处,河北省涉县小海路明德小学西200米,王慧然,,,36.56663974,113.6704687
1325,1003427,【定制销售本部】河南省郸城县耿小娟,1020,河南直营办事处,河南省郸城县方远国际售楼部北6米,耿小娟,,,33.64150007,115.3012974
1326,1003454,【定制销售本部】河南省巩义市刘春杰,1020,河南直营办事处,河南省巩义市万洋国际十二号楼二楼,刘春杰,,,34.70379888,113.03959
1327,1003358,【定制销售本部】河南省邓州市袁连瑞,1020,河南直营办事处,河南省南阳市邓州市文化路与东一环交叉口向西88米,袁连瑞,,,32.69659222,112.1027939
1328,1003553,【定制销售本部】河南省固始县付宗仁,1020,河南直营办事处,河南省固始县黄河路,付宗仁,,,32.19610047,115.6826665
1329,1003590,（河南办）河北省大名县王火光,1020,河南直营办事处,河北省邯郸市大名县大名府路大名府市场,王火光,,,36.29096498,115.153034
1330,1003599,【定制销售本部】河南省洛宁县赵丽君,1020,河南直营办事处,河南省洛宁县紫竹建材城,赵丽君,,,34.34520839,111.5067913
1331,1003423,【定制销售本部】河南省光山县陈琳,1020,河南直营办事处,河南省光山县二环路,陈琳,,,31.94143172,114.8431619
1332,1003476,河南省安阳县水冶镇李改茹,1020,河南直营办事处,河南省安阳县水冶镇广场南50米银珠家具广场一楼,李改茹,,,36.13610264,114.1373432
1333,30037,河南省郑州市直营店,1020,河南直营办事处,河南省郑州市白沙镇小雍庄村,魏海兵,,,34.74561361,113.8606807
1334,1003634,河南省郑州市熊浩,1020,河南直营办事处,河南省郑州市航海路与嵩山路交叉口欧凯龙家居馆,熊浩,,,34.72757839,113.7034032
1335,1002204,（河南办）河北省肥乡县胡海彬,1020,河南直营办事处,河北省邯郸市肥乡县井堂路与广安路交叉口北行20米,胡海彬,,,36.55393455,114.8065708
1336,1002982,【定制销售本部】河南省南阳市孙宏敏,1020,河南直营办事处,河南省南阳市中州路与文化路交叉口-定制,朱保定,,,33.01141957,112.5428419
1337,1002991,【定制销售本部】河南省伊川县陶晓峰,1020,河南直营办事处,河南省洛阳市伊川县人民东路228号-定制,陶晓峰,,,34.4218778,112.4477957
1338,1002735,河南省原阳县李梅芳,1020,河南直营办事处,河南省原阳县南干道棉麻大酒店对面原阳县粮库（原阳就这一个粮库）,李梅芳,,,35.05205332,113.9700193
1339,1002975,【定制销售本部】河南省郑州市付宗仁,1020,河南直营办事处,河南省郑州市金水区郑汴路凤凰城南城1楼北正门东区4号-定制,付宗仁,,,34.74815685,113.7191978
1340,1002978,【定制销售本部】河南省焦作市郜立忠,1020,河南直营办事处,河南省焦作市人民路西段398号都市花园A区8、9号-定制,郜立忠,,,35.21561201,113.2392429
1341,1002981,【定制销售本部】河南省许昌市王战杰,1020,河南直营办事处,河南省许昌市文峰路中段新天地丽景苑西门,王战杰,,,34.03817392,113.8444877
1342,1002984,【定制销售本部】河南省安阳市常艳彬,1020,河南直营办事处,河南省安阳市中文峰路新东方建材市场B区-定制,常艳彬,,,36.11026672,114.3518065
1343,1002983,【定制销售本部】河南省漯河市刘鹏昊,1020,河南直营办事处,河南省漯河市贸易区建材市场88区10号-定制,刘鹏昊,,,33.57627869,114.0460614
1344,1002987,【定制销售本部】河南省夏邑县王登良,1020,河南直营办事处,河南省商丘市夏邑县人民路12号-定制,王登良,,,34.24214902,116.1456208
1345,1002996,【定制销售本部】河南省博爱县郜立忠,1020,河南直营办事处,河南省焦作市博爱县人民路-定制,郜立忠,,,35.186007,113.0750782
1346,1002999,【定制销售本部】（河南办）河北省宁晋县李新中,1020,河南直营办事处,河北省邢台市宁晋县西环路中段-定制,李新中,,,37.61208676,115.0216784
1347,1003118,河南省洛阳市杨令军,1020,河南直营办事处,河南省洛阳市王城大道牡丹家居广场1楼,杨令军,,,34.74090753,112.4318689
1348,1002637,（河南办）河北省成安县孙翠平,1020,河南直营办事处,河北省邯郸市成安县南环路东,孙翠平,,,36.44126497,114.6918239
1349,1002750,河南省汤阴县闻新芳,1020,河南直营办事处,河南省汤阴县星阁路明珠家居广场全友家私生活馆,闻新芳,,,35.92998876,114.3701848
1350,1002979,【定制销售本部】河南省信阳市张晓春,1020,河南直营办事处,河南省信阳市龙江路国际建材港西50米-定制,张晓春,,,32.12094738,114.1321002
1351,1002980,【定制销售本部】河南省三门峡市杨令军,1020,河南直营办事处,河南三门峡市黄河路东段-定制,姜立,,,34.77968598,111.2207848
1352,1002990,【定制销售本部】河南省汤阴县张世飞,1020,河南直营办事处,河南省安阳市汤阴县光明路人民路交叉口北50米路西（电业局东侧）-定制,张世飞,,,35.92986477,114.3827097
1353,1000325,河南省登封市薛铁锋,1020,河南直营办事处,河南省郑州市登封市中岳大街与菜园路交叉口向北100米路西店,薛铁锋,410100,475300,34.46484503,113.0492901
1354,1000326,河南省巩义市李分,1020,河南直营办事处,河南省郑州市巩义市建设路明阳家具城全友家私,李分,巩义市,450100,34.7460735,112.9979858
1355,1002848,（河南办）河北省广宗县李保石,1020,河南直营办事处,河北省邢台市广宗县兴广路粮食局南,李保石,,,37.08190154,115.1523076
1356,1000329,河南省新郑市许国强,1020,河南直营办事处,河南省郑州市新郑市郑韩录郑韩购物中心,许国强,410100,450050,34.410974,113.7319081
1357,1000330,河南省新密市王金顶,1020,河南直营办事处,河南省郑州市新密市北环路新世纪学校东10米全友家私北环国际城,王金顶,新密市,450053,34.54844065,113.4050541
1358,1002128,河南省延津县郭华,1020,河南直营办事处,河南省新乡市延津县人们路与北街文化路生活市场全友家私,郭华,延津县,453000,35.14533566,114.2049075
1359,1001833,河南省小冀镇张兆峰,1020,河南直营办事处,河南省新乡市新乡县小冀镇全友家私专卖店,,新乡县小冀镇,453700,35.18318227,113.7788387
1360,1001850,（河南办）河北省鸡泽县张岩,1020,河南直营办事处,河北省邯郸市鸡泽县中长路南头万福来家具广场,张岩,鸡泽县,57350,36.90375308,114.8861865
1361,1001852,河南省中牟县冯军伟,1020,河南直营办事处,河南省郑州市中牟县官渡大街与商都大街交汇处路北全友家居,冯军伟,中牟县,451474,34.73273082,114.0245867
1362,1001869,河南省荥阳市刘宝存,1020,河南直营办事处,河南省郑州市荥阳市郑上路与京城路交叉口向北600米路西,刘宝存,荥阳市,450100,34.7854477,113.4164251
1363,1001879,(河南办)河北省魏县谢帅,1020,河南直营办事处,河北邯郸魏县魏都大街玉槟家具城,谢帅,魏县,56800,36.37143046,114.9440271
1364,1000365,河南省鹤壁市李跃霖,1020,河南直营办事处,河南省鹤壁市新区淇滨大道139号,李跃霖,鹤壁市,458000,35.7562099,114.2893674
1365,1000367,河南省杞县袁海勇,1020,河南直营办事处,河南省开封市杞县南关106国道与东环路交叉处家具三和家具广场,袁海勇,杞县,475200,34.50596346,114.7687821
1366,1000368,河南省通许县张铁庄,1020,河南直营办事处,河南省开封市通许县老电影院,张铁庄, 通许县,475500,34.44163095,114.5021993
1367,1000370,河南省尉氏县蔡站华,1020,河南直营办事处,河南省开封市尉氏县人民路中段全友家私(三毛购物广场对面),蔡站华,尉氏县,475500,34.48311913,114.471914
1368,1003179,【定制销售本部】重庆市云阳县黄平松,2005,重庆合资办事处,重庆市云阳县绿森名都7号门市,黄平松,,,30.92577811,108.723317
1369,1003412,【定制销售本部】重庆市巫溪县易兴春,2005,重庆合资办事处,重庆市巫溪县马镇坝万通大桥头,易兴春,,,31.39843619,109.574639
1370,1003694,重庆市渝北区赵明路,2005,重庆合资办事处,重庆市渝北区名家汇2楼,赵明路,,,29.81626408,106.7537985
1371,1003783,重庆市江津区蒋刚,2005,重庆合资办事处,重庆市江津区鼎山大道鹏城花园2楼,蒋刚,,,29.28389055,106.2658958
1372,1003911,【定制销售本部】重庆市九龙坡区西彭镇江述霞,2005,重庆合资办事处,重庆市西彭镇聚星宏苑3幢口12-5,江述霞,,,29.31583415,106.3356203
1373,1003809,重庆市武隆县韦良勇,2005,重庆合资办事处,重庆市武隆县巷口镇芙蓉中路2号负一层,韦良勇,,,29.33033108,107.7659353
1374,1001968,重庆市璧山县武波,2005,重庆合资办事处,重庆市璧山县璧成老纱长1号库房,武波,璧山县,402700,29.56750151,106.1987266
1375,1001648,重庆市南岸区冷卫平,2005,重庆合资办事处,重庆市巴南区李家沱红光大道杰信华府广场,冷卫平,南岸区,317000,29.46359944,106.5402601
1376,1001651,重庆市九龙坡区西彭镇方兴建,2005,重庆合资办事处,重庆市九龙坡区西彭镇全友家居,方兴建,九龙坡区西彭镇,403126,29.30469893,106.3401325
1377,1001654,重庆市长寿区赵恒功,2005,重庆合资办事处,重庆市长寿区桃花大道9号全友家居,赵恒功,长寿区,430000,29.84413688,107.0845839
1378,1001655,重庆市黔江区郑奉荣,2005,重庆合资办事处,重庆黔江解放路十字祥龙二楼,郑奉林,黔江区,400900,28.6549851,109.0868087
1379,1001656,重庆市万州区傅华惠,2005,重庆合资办事处,重庆市万州区春天花园13号楼负一楼,傅华惠,万州区,404000,30.80638779,108.3819256
1380,1001657,重庆市永川市杨益建,2005,重庆合资办事处,重庆市永川区汇龙大道11号高速公路一转盘（老高速公路入口）,杨益建,永川市,322000,29.36481254,105.9254773
1381,1001658,重庆市合川市文超,2005,重庆合资办事处,重庆市合川区中南路德润世家9号楼,文超,合川市,401520,29.97321608,106.2787002
1382,1001660,重庆市江津市白沙镇兰勇,2005,重庆合资办事处,重庆江津白沙镇派出所对面玉兔综合楼,兰勇,江津市白沙镇,402260,29.03535119,106.2692819
1383,1001662,重庆市北碚区李有群,2005,重庆合资办事处,重庆北碚区缙麓商都1楼,李有群,北碚区,400700,29.8323798,106.4430789
1384,1001663,重庆市万盛区刘永秋,2005,重庆合资办事处,重庆万盛区万盛大道10号,刘永秋,万盛区,400800,28.96208431,106.9358869
1385,1001664,重庆市潼南县胡天卫,2005,重庆合资办事处,重庆潼南县江北新城奋进大道228号,胡天卫,潼南县,402660,30.19312467,105.8525712
1386,1001665,重庆市大足县伍中华,2005,重庆合资办事处,重庆市大足县六顺花园负一楼,伍中华,大足县,402360,29.71112349,105.73551
1387,1001666,重庆市大足县龙水镇龙胜,2005,重庆合资办事处,重庆大足县龙水镇福源建材市场1楼,龙胜,大足县龙水镇,402360,29.56743537,105.7793901
1388,1001667,重庆市双桥区罗华杰,2005,重庆合资办事处,重庆市双桥经开区西湖大道10号143号车城明珠A栋负一楼,罗华杰,双桥区,402360,29.49282667,105.7804198
1389,1001668,重庆市荣昌县蔡钊,2005,重庆合资办事处,重庆荣昌县南门桥南桥大楼1、2楼,蔡钊,荣昌县,402460,29.40731544,105.5975471
1390,1001669,重庆市铜梁县杜锦笃,2005,重庆合资办事处,重庆铜梁县周家河坝商场3楼,杜锦笃,铜梁县,404000,29.84878849,106.0600026
1391,1001671,重庆市綦江县李伍强,2005,重庆合资办事处,重庆綦江开发区二级车站万家福超市负一楼,李伍强,綦江县,401420,29.04341594,106.6575465
1392,1001672,重庆市綦江县打通镇杨永碧,2005,重庆合资办事处,重庆綦江打通镇新街东货公司2楼,杨永碧,綦江县打通镇,401420,28.61370311,106.6833661
1393,1001673,重庆市垫江县李锦成,2005,重庆合资办事处,重庆市垫江北苑小区,李锦成,垫江县,401520,29.61931774,106.7136147
1394,1001674,重庆市梁平县孙必庆,2005,重庆合资办事处,重庆梁平县机场路华西家具城,孙必庆,梁平县,405200,30.67906893,107.79675
1395,1001675,重庆市忠县严永福,2005,重庆合资办事处,重庆市忠县忠州镇红星中路8号,严永福,忠县,404300,30.29892586,108.0484517
1396,1001676,重庆市丰都县李秀英,2005,重庆合资办事处,重庆市丰都县海客农贸市场二楼,李秀英,丰都县,408200,29.8767808,107.7425529
1397,1001678,重庆市石柱土家族自治县刘家全,2005,重庆合资办事处,重庆石柱佳博雅苑4楼,刘家全,石柱土家族自治县,409100,29.99856282,108.1201323
1398,1001679,重庆市彭水苗族土家族自治县黄大旭,2005,重庆合资办事处,重庆市彭水县乌江港湾2楼,黄大旭,彭水苗族土家族自治县,409600,29.35962826,108.2728677
1399,1001680,重庆市酉阳土家族苗族自治县储再禹,2005,重庆合资办事处,重庆酉阳桃源金水岸B区1栋1层,储再禹,酉阳土家族苗族自治县,409800,28.90527766,108.8068082
1400,1001681,重庆市秀山土家族苗族自治县马兴武,2005,重庆合资办事处,重庆市秀山县火车站对面留金国际二楼,马兴武,秀山土家族苗族自治县,409900,28.45113211,109.0200929
1401,1001682,重庆市开县肖朝龙,2005,重庆合资办事处,重庆市开县新城南山东路1228号,肖朝龙,开县,405408,31.17178918,108.4196676
1402,1001683,重庆市云阳县宋保云,2005,重庆合资办事处,重庆云阳县双江镇云江大道号1033门市,宋保云,云阳县,404499,30.9540946,108.671303
1403,1001685,重庆市奉节县林爱军,2005,重庆合资办事处,重庆奉节人民广场二楼,林爱军,奉节县,404600,30.9585528,109.3556667
1404,1001686,重庆市巫山县周卫,2005,重庆合资办事处,重庆市巫山县广东中路神女市场五楼全友家居,周卫,巫山县,404700,31.07769569,109.8826053
1405,1002042,重庆市陈家桥镇魏洪波,2005,重庆合资办事处,重庆市沙坪坝区陈家桥镇安居小区A、B栋2楼全友家私,魏洪波,陈家桥镇,401331,29.62478849,106.3417739
1406,1002330,重庆市南川区秦长勇,2005,重庆合资办事处,重庆市南川区东方市场二楼全友家居,秦长勇,,,29.16608127,107.1024688
1407,1002608,重庆市青木关镇李有平,2005,重庆合资办事处,重庆市沙坪坝区青木关镇青云街108号,李有平,,,29.68020179,106.3126819
1408,1002946,重庆市江津区李维群,2005,重庆合资办事处,重庆市江津区鼎山大道鹏城花园2楼,李维群,,,29.28389055,106.2658958
1409,1003478,【定制销售本部】重庆市长寿区周建伟,2005,重庆合资办事处,重庆市长寿区桃花大道9号3-1（-7）,周建伟,,,29.84413688,107.0845839
1410,1003508,重庆市秀山县龙池镇程海英,2005,重庆合资办事处,重庆市秀山县龙池镇新街电信局旁,程海英,,,28.44454733,109.0065324
1411,1003879,【定制销售本部】重庆市秀山县李仕兰,2005,重庆合资办事处,重庆市秀山县平凯镇农贸市场,李仕兰,,,28.4354337,109.0117549
1412,1003575,湖北省广水市长岭镇柯海清,2006,湖北合资办事处,湖北省广水市长岭镇水城大道,柯海清,,,31.52507832,113.5993647
1413,1003605,【定制销售本部】湖北省武汉市黄陂区汪仕霞,2006,湖北合资办事处,湖北省武汉市黄陂区汉口北五洲建材和邦盛世,汪仕霞,,,30.70292561,114.3219652
1414,1003629,湖北省神农架松柏镇熊兵,2006,湖北合资办事处,湖北省神龙架松柏镇滨河新区,熊兵,,,31.75301459,110.6680999
1415,1003633,湖北省武汉市纱帽镇计世璐,2006,湖北合资办事处,湖北省武汉市汉南区薇湖路德成汉南广场三楼,计世璐,,,30.2871398,113.9627318
1416,1003339,湖北省京山县五三农场涂学成,2006,湖北合资办事处,湖北省京山县五三农场万家商场B栋二楼（长途汽车站旁）,涂学成,,,30.87089745,112.8821315
1417,1003192,湖北省五峰县渔关镇曾红,2006,湖北合资办事处,湖北省宜昌市五峰土家族自治县渔关镇茶城广场,曾红,,,30.17316496,110.7099987
1418,1003835,湖北省阳新县富池镇冯祥富,2006,湖北合资办事处,湖北省阳新县富池镇大桥头,冯祥富,,,29.86192748,115.4463408
1419,1003873,湖北省建始县三里乡黄宗才,2006,湖北合资办事处,湖北省建始县三里坝新街38号,黄宗才,,,30.57857599,109.9395992
1420,1003938,湖北省丹江口市苟兆林,2006,湖北合资办事处,湖北省丹江口市跃进门新合作超市二楼,苟兆林,,,32.56747651,111.1932279
1421,1003749,【定制销售本部】湖北省武汉市洪山区李元庆,2006,湖北合资办事处,湖北省武汉市洪山区光谷欧亚达广场二楼,李元庆,,,30.51411344,114.4077934
1422,1003916,湖北省鹤峰县走马镇刘际明,2006,湖北合资办事处,湖北省恩施州鹤峰县走马镇古城大道第一侧街12号,刘际明,,,29.82579814,110.4328785
1423,1003921,湖北省长阳县龙舟坪镇陈清燕,2006,湖北合资办事处,湖北省宜昌市长阳县津洋口清江市场,陈清燕,,,30.49949475,111.1749668
1424,1003686,【定制销售本部】湖北省洪湖市蔡玉萍,2006,湖北合资办事处,湖北省洪湖市乌林大道6号,蔡玉萍,,,29.8161787,113.48287
1425,1003763,【定制销售本部】湖北省荆州市张本东,2006,湖北合资办事处,湖北省荆州市武德路99号,张本东,,,30.34798022,112.2362863
1426,1003814,湖北省十堰市胡勇成,2006,湖北合资办事处,湖北省十堰市车城南路43号,胡勇成,,,32.61553515,110.7750548
1427,1003829,湖北省仙桃市宋丹妮,2006,湖北合资办事处,湖北省仙桃市桃源大道130号,宋丹妮,,,30.37058719,113.4799771
1428,1003926,【定制销售本部】湖北省武汉市武昌周书华,2006,湖北合资办事处,湖北省武汉市武昌区金盛国际家居广场四楼,,,,30.56486029,114.3536223
1429,1002037,湖北省麻城市桂正祥,2006,湖北合资办事处,湖北省黄冈市麻城市将军南路大兴家私广场全友家私,桂正祥,麻城市,438300,31.18214188,115.0391257
1430,1001754,湖北省云梦县周江华,2006,湖北合资办事处,湖北省孝感市云梦县南门河楚王城商业广场四楼,,云梦县,432500,31.02298126,113.7545637
1431,1001899,湖北省江陵县杨劲松,2006,湖北合资办事处,湖北省荆州市江陵县西湖路87号,杨劲松,江陵县,434100,30.03442003,112.4198446
1432,1002224,湖北省枣阳市叶群华,2006,湖北合资办事处,湖北省襄樊市枣阳市财富广场全友家私,叶群华,,,32.12939094,112.7664822
1433,1002508,湖北省松滋市杨云飞,2006,湖北合资办事处,湖北省荆州市松滋市民主大道滨江国际家具城三楼,杨云飞,,,30.19246007,111.781023
1434,1002551,湖北省宣恩县林志坤,2006,湖北合资办事处,湖北省宣恩县烟草公司对面,林志坤,,,29.88611238,109.5650692
1435,1002557,湖北省皂市刘克兵,2006,湖北合资办事处,湖北省天门市皂市镇二龙大道全友皂市家私城,刘克兵,,,30.86190505,113.3558733
1436,1002373,湖北省华容镇潘灯,2006,湖北合资办事处,湖北省鄂州市华容镇检察院对面（阳光花园小区）,潘灯,,,30.54127137,114.7429695
1437,1002571,湖北省沙道沟镇王盼,2006,湖北合资办事处,湖北省恩施州宣恩县沙道沟镇响龙大街3号,王盼,,,29.7022941,109.576502
1438,1002323,湖北省洪湖市代市镇胡饮冰,2006,湖北合资办事处,湖北省洪湖市代市镇全友家私,胡饮冰,,,30.02834785,113.2383673
1439,1002187,湖北省黄陂镇直营店,2006,湖北合资办事处,湖北省武汉市黄陂区前川街光彩里72号,周金龙,,,30.87310995,114.3785976
1440,1002462,湖北省藕池镇梁圣贵,2006,湖北合资办事处,湖北省公安县藕池镇新区路137号,梁圣贵,,,29.74849752,112.3280645
1441,1002703,湖北省宜昌市王正军,2006,湖北合资办事处,湖北省宜昌市东山开发区发展大道好百年家居,王正军,,,30.71044357,111.3192008
1442,1003004,【定制销售本部】湖北省枣阳市谢宇龙,2006,湖北合资办事处,湖北省枣阳市西关口地税局旁边-定制,谢宇龙,,,32.13330896,112.7651729
1443,1002609,湖北省浩口镇张方林,2006,湖北合资办事处,湖北省潜江市浩口镇宜信购物广场四楼,张方林,,,30.42015923,112.9033149
1444,1002801,湖北省天门市罗海,2006,湖北合资办事处,湖北省天门市钟惺大道益佳广场47号,罗海,,,30.65338111,113.148889
1445,1002840,湖北省浠水县李勋,2006,湖北合资办事处,湖北省黄冈市浠水县中百仓储对面全友家私,李勋,,,30.44812798,115.2705675
1446,1002652,湖北省监利县刘梅芳,2006,湖北合资办事处,湖北省监利县步行街三楼,刘梅芳,,,29.84893325,113.0019564
1447,1002643,湖北省板桥镇郭裕高,2006,湖北合资办事处,湖北省恩施州板桥镇鄂渝路全友家私,郭裕高,,,30.30510423,108.9443336
1448,1003011,【定制销售本部】湖北省云梦县高成,2006,湖北合资办事处,湖北省云梦县楚王城商业广场-定制,高成,,,31.02298126,113.7545637
1449,1003002,【定制销售本部】湖北省咸宁市佘才志,2006,湖北合资办事处,湖北省咸宁市辖区滨河路丹桂大厦-定制,,,,29.8445681,114.3350587
1450,1003459,湖北省巴东县沿渡河镇黄显武,2006,湖北合资办事处,湖北省巴东县沿渡河镇大桥头野马小区二楼,黄显武,,,31.23064955,110.3025069
1451,1003532,湖北省荆门市张强,2006,湖北合资办事处,湖北省荆门市虎牙关大道30号,张强,,,30.99697616,112.2136786
1452,1003396,湖北省建始县官店镇王良颂,2006,湖北合资办事处,湖北建始县官店镇熊家湾3号,王良颂,,,30.46464,110.0208945
1453,1003406,湖北省竹溪县李向阳,2006,湖北合资办事处,湖北省十堰市竹溪县广场公园绿谷中央城,李向阳,,,32.03773756,109.7912366
1454,1003528,湖北省新洲区阳逻开发区张若明,2006,湖北合资办事处,湖北省武汉市新洲区阳逻开发区天益华庭小区,张若明,,,30.65840354,114.5763233
1455,1002167,湖北省武汉市蔡甸区杨国洪,2006,湖北合资办事处,湖北省武汉市蔡甸区东方菜市场二楼,杨国洪,,,30.45618352,113.9720646
1456,1002827,湖北省黄石市下陆镇皮海斌,2006,湖北合资办事处,湖北省黄石市下陆镇紫新路爱宇社区旁,皮海斌,,,30.18286456,114.955531
1457,1002833,湖北省公安县陈刚,2006,湖北合资办事处,湖北省公安县观天下怡园孱陵大道与荣军路交汇处全友家私,陈刚,,,30.06719836,112.2154879
1458,1002023,湖北省襄阳市张正海,2006,湖北合资办事处,湖北省襄阳市春园东路6号全友家私,张正海,420600,441000,32.08023234,112.164417
1459,1002868,湖北省竹山县周江华,2006,湖北合资办事处,湖北省竹山县城关镇广场路步行街1号新合作3楼,周江华,,,32.24168514,110.2346319
1460,1003109,湖北省钟祥市胡集镇兰建平,2006,湖北合资办事处,湖北省钟祥市胡集镇交警中队旁全友家居,兰建平,,,31.43547393,112.3265163
1461,1000641,湖北省黄石市周传军,2006,湖北合资办事处,湖北省黄石市肖家铺路(康博针织厂内),周传军,黄石市,435000,30.19364462,115.0009359
1462,1000642,湖北省咸宁市龚安柱,2006,湖北合资办事处,湖北省咸宁市文笔路青龙山高中对面,龚安柱,咸宁市,437000,29.87700706,114.303585
1463,1000643,湖北省鄂州市彭惠波,2006,湖北合资办事处,湖北省鄂州市虹桥商场,彭惠波,420700,436000,30.38443932,114.895594
1464,1000644,湖北省黄冈市王寿明,2006,湖北合资办事处,湖北省黄冈市中商百货四楼,王寿明,黄冈市,436100,30.44610894,114.906618
1465,1000645,湖北省阳新县刘畅,2006,湖北合资办事处,湖北省阳新县陵园大道澜桥世家全友家居,刘畅,阳新县,163001,29.85165048,115.2253561
1466,1000646,湖北省英山县汪宝峰,2006,湖北合资办事处,湖北省黄冈市英山县毕升大道106#,汪宝峰,英山县,438700,30.71923467,115.680563
1467,1000647,湖北省罗田县汪仕霞,2006,湖北合资办事处,湖北省罗田县豪庭家居广场全友家居专卖店二楼,汪仕霞,罗田县,436600,30.93237275,115.4810222
1468,1000648,湖北省蕲春县高继红,2006,湖北合资办事处,湖北省黄冈市蕲春县商业大楼四楼,高继红,蕲春县,436300,30.24539269,115.4369891
1469,1000649,湖北省黄梅县刘再军,2006,湖北合资办事处,湖北省黄冈市黄梅县鄂东建材城,刘再军,黄梅县,435500,30.07364529,115.9348993
1470,1000650,湖北省武穴市张齐鹏,2006,湖北合资办事处,湖北省黄冈市武穴市三号路新车站斜对面,张齐鹏,武穴市,435400,30.01561431,115.6258338
1471,1000652,（湖北办）河南省新县苏汝贵,2006,湖北合资办事处,河南省信阳市新县红星广场全友家私二楼,苏汝贵,新县,465550,31.62641357,114.8811794
1472,1000653,湖北省大冶市陈敏青,2006,湖北合资办事处,湖北省大冶市观山路馨园小区旁凯晟艺术家h广场,陈敏青,大冶市,430000,30.11049376,114.9723133
1473,1000654,湖北省通山县徐细新,2006,湖北合资办事处,湖北省咸宁市通山县九宫大道县政府对面,徐细新,421200,764300,29.60405081,114.5271103
1474,1000655,湖北省嘉鱼县王俊,2006,湖北合资办事处,湖北省咸宁市嘉鱼县茶庵路建材街,王俊,嘉鱼县,437200,29.9792528,113.9401748
1475,1000656,湖北省通城县吴华平,2006,湖北合资办事处,湖北省咸宁市通城县金三角二楼,吴华平,通城县,437400,29.22949607,113.8532655
1476,1000657,湖北省崇阳县廖成义,2006,湖北合资办事处,湖北省咸宁市崇阳县中山步行街12栋二楼,廖成义,崇阳县,438700,29.54982866,114.0582784
1477,1000661,湖北省京山县黄琼波,2006,湖北合资办事处,湖北省京山县新市大道毓秀新城（地税局旁）全友家居,黄琼波,京山县,431800,31.02725319,113.1337889
1478,1000662,湖北省钟祥市兰建平,2006,湖北合资办事处,湖北省钟祥市安陆府西路家具广场对面公司院内,兰建平,钟祥市,431900,31.18101686,112.5803047
1479,1000663,湖北省孝感市冯志强,2006,湖北合资办事处,湖北省孝感市北京路严桥孝商超市2楼全友家居,冯志强,孝感市,432100,30.87615305,114.3773143
1480,1000665,湖北省大悟县蔡家太,2006,湖北合资办事处,湖北省孝感市大悟县金三角家太家私城,蔡家太,大悟县,432000,31.57825525,114.3102995
1481,1000666,湖北省应城市彭中山,2006,湖北合资办事处,湖北省孝感市应城市孝武购物广场三楼,彭中山,应城市,432400,30.94862118,113.5804861
1482,1000667,湖北省汉川市陈梅生,2006,湖北合资办事处,湖北省孝感市汉川市火猴君都二三楼,陈梅生,汉川市,432300,30.65142324,113.8423704
1483,1000668,湖北省红安县陈咬柱,2006,湖北合资办事处,湖北省红安县成南大道将军花园全友家居,陈咬柱,红安县,438700,31.29012275,114.6281188
1484,1000671,湖北省安陆市黄行明,2006,湖北合资办事处,湖北省安陆市德安南路南山名居,黄行明,420900,432600,31.25640466,113.6937263
1485,1000672,湖北省武汉市武昌区马群星,2006,湖北合资办事处,湖北省武汉市黄陂区汉口大道北21号华中企业城,马群星,武汉市汉阳区,433000,30.72282544,114.3782334
1486,1000673,湖北省武汉市新洲区张若明,2006,湖北合资办事处,湖北省武汉市新洲区城北工业园（城北工业园加油站旁）,张若明,420100,431700,30.8038879,114.7620847
1487,1000674,湖北省武汉市江夏区任波,2006,湖北合资办事处,湖北省武汉市江夏区秭坊北华街新客运站对面,任波,武汉市江夏区,430400,30.36402707,114.3302687
1488,1000677,湖北省宜都市谢家莲,2006,湖北合资办事处,湖北省宜昌市宜都市名都商业街一号,谢家莲,宜都市,443300,30.38511778,111.454258
1489,1000678,湖北省当阳市秦勇,2006,湖北合资办事处,湖北省宜昌市当阳市环城路吉美家广场全友家私,秦勇,当阳市,444111,30.82704502,111.8010401
1490,1000683,湖北省枝江市李亚玲,2006,湖北合资办事处,湖北省宜昌市枝江市民主路粮食局院内,李亚玲,枝江市,443200,30.45176664,111.7285671
1491,1000684,湖北省秭归县钱承敖,2006,湖北合资办事处,湖北省宜昌市秭归县屈原路锦苑家私广场,钱承敖,秭归县,443600,30.82657575,110.9843912
1492,1000685,湖北省巴东野三关镇陈亚洲,2006,湖北合资办事处,湖北省恩施州巴东县野三关镇乾峰7号楼,陈亚洲,巴东野山关镇,430000,30.62109552,110.3330386
1493,1000686,湖北省兴山县朱承文,2006,湖北合资办事处,湖北省宜昌市兴山县湖南路民政大楼,朱承文,兴山县,443700,31.3577787,110.7588542
1494,1000688,湖北省随州市颜永霞,2006,湖北合资办事处,湖北省随州市交通大道227号,颜永霞,随州市,441300,31.72271428,113.3896176
1495,1000689,湖北省郧县罗清亮,2006,湖北合资办事处,湖北省郧县郧阳花园A区二楼,罗清亮,郧县,442500,32.83832971,110.8227958
1496,1000690,湖北省房县冯兴强,2006,湖北合资办事处,湖北省十堰市房县商贸中心,冯兴强,房县,448200,32.07987264,110.6287946
1497,1000692,湖北省老河口刘四海,2006,湖北合资办事处,湖北省襄樊市老河口市玉景新城一楼,刘四海,老河口,441800,32.43416559,111.7658302
1498,1000693,湖北省南漳县卢雪峰,2006,湖北合资办事处,湖北省襄樊市南漳县便河家私城,唐雪峰,南漳县,441500,31.6432798,111.7646286
1499,1000694,湖北省谷城县何桂林,2006,湖北合资办事处,湖北省襄樊市谷城县齐盛商场二楼,何桂林,谷城县,441700,32.17345156,111.4959578
1500,1000695,湖北省广水市徐德银,2006,湖北合资办事处,湖北省广水市应山万景城市广场,徐德银,广水市,432700,31.63028338,113.832312
1501,1000697,湖北省荆州市沙市区代金莲,2006,湖北合资办事处,湖北省荆州市沙市区蓝特家居城,代金莲,荆州市沙市区,430000,30.32317554,112.2430101
1502,1000698,湖北省潜江市伍友东,2006,湖北合资办事处,湖北省潜江市水牛城步行街仓库,伍友东,潜江市,433100,30.34311579,112.768768
1503,1000699,湖北省潜江市张金镇黄祥增,2006,湖北合资办事处,湖北省潜江市张金镇建设路,黄祥增,潜江市张金镇,441300,30.19784558,112.6031213
1504,1000700,湖北省广华镇童幸贵1,2006,湖北合资办事处,湖北省潜江市广华镇商承超市三楼,童幸贵,广华镇,433100,30.45033976,112.7012745
1505,1000701,湖北省洪湖市余祥为,2006,湖北合资办事处,湖北省荆州市洪湖乌林大道6号,余祥为,洪湖市,433200,29.8161787,113.48287
1506,1000702,湖北省峰口镇唐忠新,2006,湖北合资办事处,湖北省荆州市洪湖市峰口镇伍峰路67号,唐忠新,峰口镇,433200,30.08579484,113.3567419
1507,1000705,湖北省龚场镇匡芝敏,2006,湖北合资办事处,湖北省荆州市监利县龚场镇复兴路11号,匡芝敏,龚场镇,433300,30.05472133,113.1106566
1508,1000706,湖北省沙洋县熊信兵,2006,湖北合资办事处,湖北省荆门市沙洋县建设街18号,熊信兵,沙洋县,448200,30.70938884,112.6011927
1509,1000709,湖北省利川市陈晓波,2006,湖北合资办事处,湖北省恩施州利川市国泰广场四楼,陈晓波,利川市,445400,30.29999296,108.9424978
1510,1000710,湖北省咸丰县高晓菊,2006,湖北合资办事处,湖北省恩施州咸丰县南门商城A栋二楼，南门商城P栋二楼,高晓菊,咸丰县,445600,29.73628351,109.0038146
1511,1000713,湖北省鹤峰县姜彩霞,2006,湖北合资办事处,湖北省恩施州鹤峰县一中路梅苑小区,姜彩霞,鹤峰县,445800,29.89170069,110.0378436
1512,1000715,湖北省六里坪镇卢玉甜,2006,湖北合资办事处,湖北省十堰市丹江口市六里坪镇,卢玉甜,六里坪镇,441900,32.54520614,110.9850368
1513,1000716,湖北省保康县刘育彤,2006,湖北合资办事处,湖北省襄樊市保康县广大市场步行街,刘育彤,保康县,430000,31.87989697,111.2696971
1514,1000717,湖北省远安县陈春华,2006,湖北合资办事处,湖北省宜昌市远安县凤翔路2号全友家私,陈春华,远安县,430000,31.06939647,111.6450335
1515,1000718,湖北省郧西县罗小亮,2006,湖北合资办事处,湖北省十堰市郧西县泥沟商住楼二楼全友家私,罗小亮1,郧西县,442600,32.94867183,109.6376983
1516,1000719,湖北省团风县官建国,2006,湖北合资办事处,湖北省黄冈市团风县新车站旁,官建国,团风县,433300,30.7237061,115.0140872
1517,1000720,湖北省赤壁市李莉,2006,湖北合资办事处,湖北省赤壁市天骄广场,李莉,421200,437000,29.7291547,113.8986927
1518,1002839,湖北省巴东县汪楷迪,2006,湖北合资办事处,湖北省恩施州巴东县巴东路中环大厦,汪楷迪,,,31.04358179,110.3422802
1519,1000846,（江苏办）江苏省泰州市蓝进新,3007,江苏独资办事处,江苏省泰州市海陵区港澳家具城,蓝进新,泰州市海陵区,225300,32.49809621,119.9036935
1520,1000847,（江苏办）江苏省泰兴市韩高胜,3007,江苏独资办事处,江苏省泰州市泰兴市苏中金汉马家具城,韩高胜,泰兴市,225400,32.21367894,120.1353463
1521,1000848,（江苏办）江苏省姜堰市周祥,3007,江苏独资办事处,江苏省泰州市姜堰市私营经济开发区商贸一条街98号,周祥,姜堰市,225500,32.52645249,120.0908162
1522,1000853,（江苏办）江苏省江都市柏家才,3007,江苏独资办事处,江苏省扬州市江都市润家国际家居全友家私,柏家才,江都市,225200,32.42628662,119.5935839
1523,1000855,（江苏办）江苏省盐城市陈玉良,3007,江苏独资办事处,江苏省盐城市盐城西环路家家爱家具广场,陈玉良,盐城市盐都区,224000,34.21009566,119.5801843
1524,1000856,（江苏办）江苏省响水县陈连兵,3007,江苏独资办事处,江苏省响水市204国道响水时代家居广场,陈连兵,响水县,224000,34.19729562,119.6012355
1525,1000859,（江苏办）江苏省射阳县刘德志,3007,江苏独资办事处,江苏省盐城市射阳县温州国际装饰城,刘德志,射阳县,223400,33.78356334,120.2480189
1526,1000861,（江苏办）江苏省大丰市汪珠,3007,江苏独资办事处,江苏省盐城市大丰县金都贸易城明星家具广场二搂,汪珠,大丰市,224100,33.22594331,120.4787424
1527,1000862,（江苏办）江苏省东台市顾祥,3007,江苏独资办事处,江苏省盐城市东台县迎宾大道204国道伟嘉国际广场,顾祥,东台市,223100,32.89380426,120.3151667
1528,1000863,（江苏办）江苏省淮安市清河区杨建华,3007,江苏独资办事处,江苏省淮安市清河区淮海北路67#锦绣国际家具城,杨建华,淮安市清河区,223200,33.61109692,119.0287502
1529,1000864,（江苏办）江苏省淮安市楚州区夏子文,3007,江苏独资办事处,江苏省淮安市楚州区淮安国际商城家具广场C三栋三楼,夏子文,淮安市楚州区,223200,33.54209255,119.1308045
1530,1000865,（江苏办）江苏省涟水县王流柱,3007,江苏独资办事处,江苏省淮安市涟水县中山路丽景豪庭（原人武部）,王流柱,涟水县,223400,33.76842665,119.273968
1531,1000866,（江苏办）江苏省洪泽县刘先军,3007,江苏独资办事处,江苏省淮安市洪泽县北京路商贸城内红太阳家具城二楼,刘先军,洪泽县,223100,33.3010095,118.8734452
1532,1002201,（江苏办）江苏省无锡钱桥镇王光宇,3007,江苏独资办事处,江苏省无锡市钱桥镇隆舜苑全友家私,王光宇,,,31.60170503,120.2402946
1533,1003115,（江苏办）江苏省海安县李堡镇濮建平,3007,江苏独资办事处,江苏省南通市海安县李堡镇新世纪家具城,濮建平,,,32.57237314,120.6981224
1534,1002176,（江苏办）江苏省灌南县陈德练,3007,江苏独资办事处,江苏省连云港市灌南县苏州国际商贸城全友家私,陈德练,,,34.09667003,119.3466868
1535,1000873,（江苏办）江苏省宿迁市宿城区唐敦伦,3007,江苏独资办事处,江苏省宿迁市果园开发区华夏大道59号,唐敦伦,宿迁市宿城区,223800,33.90516498,118.3077901
1536,1000874,（江苏办）江苏省沭阳县安玉秀,3007,江苏独资办事处,江苏省宿迁市沭阳县人民东路商贸批发中心,安玉秀,沭阳县,223900,34.13255908,118.7890529
1537,1000875,（江苏办）江苏省泗阳县陈宗山,3007,江苏独资办事处,江苏省宿迁市泗阳县淮海东路丰泰机电城D栋,陈宗山,泗阳县,221000,33.71668323,118.7224791
1538,1000877,（江苏办）江苏省徐州市鼓楼区陈彩银,3007,江苏独资办事处,江苏省徐州市复兴北路197号江苏家具城南隔壁全友家私,陈彩银,徐州市鼓楼区,221000,34.29874715,117.2157072
1539,1000880,（江苏办）江苏省睢宁县王丹,3007,江苏独资办事处,江苏省徐州市睢宁县大观园家具市场,王丹,睢宁县,221200,33.90307156,117.9516165
1540,1000881,（江苏办）江苏省沛县刘继亮,3007,江苏独资办事处,江苏省徐州市沛县沛屯大道城关路3号,刘继亮,沛县,221600,34.74410214,116.9282365
1541,1000887,（江苏办）上海市松江区范笔优,3007,江苏独资办事处,上海市淞江区车顿镇车亭公路奶牛场,范笔优,松江区,200000,31.00717713,121.3122746
1542,1000888,（江苏办）上海市金山区许坚平,3007,江苏独资办事处,上海市金山区石化金海岸小区活动中心,许坚平,361100,201000,30.72508974,121.345074
1543,1000890,（江苏办）上海市南汇区孙秋明,3007,江苏独资办事处,上海市浦东新区惠南镇黄路远东村1008号,孙秋明,南汇区  ,200000,31.03893799,121.8215125
1544,1000891,（江苏办）上海市崇明县龚卫华,3007,江苏独资办事处,上海市崇明县陈桥镇老效港西手金属公司,龚卫华,崇明县,200000,31.63356493,121.5353975
1545,1000871,（江苏办）江苏省东海县黄冬生,3007,江苏独资办事处,江苏省连云港市东海县建材商贸城,黄冬生,东海县,211300,34.53340991,118.7928594
1546,1000823,（江苏办）江苏省南京白下区王群芳,3007,江苏独资办事处,江苏省南京市雨花区卡子门街家乐家商业广场三楼,王群芳,南京白下区,210000,31.99986975,118.8025224
1547,1003734,(江苏办)江苏省南京市江宁区乐维娟,3007,江苏独资办事处,江苏省南京市江宁区天禄大道8号金宝禄口商业广场全友专卖店,乐维娟,,,31.79074884,118.8697683
1548,1003801,【定制销售本部】江苏省丰县杜杭,3007,江苏独资办事处,江苏省丰县大同路汉城2期北B区1-8号,杜杭,,,34.69577333,116.6157332
1549,1003944,（江苏办）江苏省盱眙县李建,3007,江苏独资办事处,江苏省邳州市盱眙县金鹏大道恒宇广场三楼,李建,,,32.99801121,118.531412
1550,1003689,（江苏办）江苏省张家港市孙卫东,3007,江苏独资办事处,江苏省张家港汽车站,孙卫东,,,31.90781234,120.6272785
1551,1003715,（江苏办）江苏省兴化市周庄镇武庆贵,3007,江苏独资办事处,江苏省泰州市兴化市周庄镇大润发超市2楼,武庆贵,,,32.92319777,119.8516947
1552,1003917,（江苏办）江苏省南京市六合区马集镇石松清,3007,江苏独资办事处,江苏省南京市六合区马集镇南街（好又多超市旁）,石松清,,,32.40064024,118.848166
1553,1003494,（江苏办）江苏省建湖县王丹,3007,江苏独资办事处,江苏省盐城市建湖县人民路乐天玛特超市三楼,王丹,,,33.36386113,120.0436459
1554,1003546,（江苏办）江苏省海安县雅周镇杜小平,3007,江苏独资办事处,江苏省海安县雅周镇镇中心,杜小平,,,32.40303139,120.3388827
1555,1003597,（江苏办）江苏省宝应县房道兄,3007,江苏独资办事处,江苏省宝应县淮江大道城南工业园办公楼东侧宝亚达车业,房道兄,,,33.21482266,119.3392376
1556,1003569,【定制销售本部】江苏省海安县于宇澄,3007,江苏独资办事处,江苏省海安县海安镇通榆中路18号,于宇澄,,,32.52889798,120.4998613
1557,1003645,（江苏办）江苏省灌云县周洪伍,3007,江苏独资办事处,江苏省连云港市灌云县温州商贸城,周洪伍,,,34.40683217,119.3927752
1558,1003170,（江苏办）江苏省连云港市陈东海,3007,江苏独资办事处,江苏省连云港市青浦区人民路88号居之星3楼,陈东海,,,34.60900317,119.1908441
1559,1003224,（江苏办）江苏省如皋市搬经镇杨怀国,3007,江苏独资办事处,江苏省如皋市搬经镇明珠家电城,杨怀国,,,32.31092745,120.4162657
1560,1003263,（江苏办）江苏省仪征市杨红,3007,江苏独资办事处,江苏省扬州市仪征市万年大道世纪联华北侧,杨红,,,32.39010157,119.3813342
1561,1003718,（江苏办）江苏省如皋市朱蓉,3007,江苏独资办事处,江苏省南通市如皋县益寿北路亿丰商贸城全友家居,朱蓉,,,32.40598069,120.553789
1562,1003746,（江苏办）江苏省启东市吕四港镇刘磬,3007,江苏独资办事处,江苏省启东市吕四港镇城东家具城,刘磬,,,32.06544939,121.6090028
1563,1003653,（江苏办）江苏省滨海县王梓丁,3007,江苏独资办事处,江苏省盐城市滨海县工业支路12号,王梓丁,,,33.99063585,119.8290936
1564,1003692,（江苏办）江苏省南通市张芝山镇沈同玉,3007,江苏独资办事处,江苏省南通市张芝山镇派出所旁通阀钢绳有限公司,沈同玉,,,31.94526529,121.0190519
1565,1003872,(江苏办）江苏省无锡市东亭镇周延恭,3007,江苏独资办事处,江苏省无锡市东亭镇延恭家具城,周延恭,,,31.59029338,120.3712385
1566,1002919,（江苏办）上海市奉贤区范正磊,3007,江苏独资办事处,上海市闵行区春申路2699号莘潮家俱城二楼,范正磊,,,31.11582236,121.4193722
1567,1002921,江浙淘宝,3007,江苏独资办事处,江浙淘宝,江浙淘宝,,,0,0
1568,1002631,（江苏办）江苏省无锡市东港镇徐颂辉,3007,江苏独资办事处,江苏省江阴市顾山镇人民路29号,徐颂辉,,,31.74309299,120.5649902
1569,1003033,【定制销售本部】江苏省沛县赵呈敏,3007,江苏独资办事处,江苏省徐州市沛县金凤凰装饰城13313-14厅-定制,赵呈敏,,,34.75678511,116.9285176
1570,1002644,（江苏办）江苏省启东市龚赛华,3007,江苏独资办事处,江苏省南通市启东市人民西路1668号申港家具城3楼,龚赛华,,,31.82781162,121.6433537
1571,1002733,（江苏办）江苏省宜兴市丁蜀镇陈式兵,3007,江苏独资办事处,江苏省宜兴市丁蜀镇解放中路18号－23、24、25,陈式兵,,,31.26207151,119.846003
1572,1002885,（江苏办）上海市普陀区林忠,3007,江苏独资办事处,上海市普陀区祁连山路1035弄217号B幢南一楼,林忠,,,31.29481442,121.3817124
1573,1002767,（江苏办）江苏省宜兴市官林镇宗嘉丽,3007,江苏独资办事处,江苏省宜兴市官林镇大田路紫京公寓,宗嘉丽,,,31.51478161,119.7196642
1574,1002739,（江苏办）江苏省镇江市新区邹晓辉,3007,江苏独资办事处,江苏镇江健力宝路与纬二路交叉口,邹晓辉,,,32.17743445,119.5071006
1575,1003194,（江苏办）江苏省海安县西场镇施堂和,3007,江苏独资办事处,江苏省海安县西场镇中心,施堂和,,,32.53062433,120.6017535
1576,1003220,（江苏办）江苏省高邮市三垛镇潘丽,3007,江苏独资办事处,江苏省高邮市三垛镇光明路86号,潘丽,,,32.82212337,119.6702917
1577,1003187,（江苏办）江苏省如东县双甸镇杨建英,3007,江苏独资办事处,江苏省如东县双甸镇江海路420号金城家具城,杨建英,,,32.35727957,120.8273727
1578,1003355,【定制销售本部】江苏省句容市王庆,3007,江苏独资办事处,江苏省句容市华阳东路36号A4栋15号门店,王庆,,,31.95531843,119.1828115
1579,1003386,（江苏办）江苏省高邮市魏巧荣,3007,江苏独资办事处,江苏省高邮市外环路与秦邮路交叉口尚程国际家居,魏巧荣,,,32.80756285,119.4849728
1580,1003461,（江苏办）江苏省阜宁县益林镇左学专,3007,江苏独资办事处,江苏省盐城市阜宁县益林镇长途汽车站东首益林大道东鼎家具城,左学专,,,33.60357723,119.614901
1581,1003356,（江苏办）江苏省东台市三仓镇杭小进,3007,江苏独资办事处,江苏省东台市三仓镇世纪家具广场,杭小进,,,32.77074402,120.6897282
1582,1003371,【定制销售本部】江苏省仪征市杨斌,3007,江苏独资办事处,江苏省仪征市万年北路288号,杨斌,,,32.29151086,119.1697514
1583,1003393,（江苏办）江苏省建湖县上冈镇陈志祥,3007,江苏独资办事处,江苏省盐城市建湖县上冈镇人民北路4号,陈志祥,,,33.54968406,120.0174152
1584,1003542,（江苏办）江苏省苏州市盛泽镇朱戈峰,3007,江苏独资办事处,江苏省苏州市盛泽镇金伦国际家居,朱戈峰,,,30.9113821,120.6766045
1585,1002108,（江苏办）江苏省扬中市赵云龙,3007,江苏独资办事处,江苏省镇江地区扬中市大众家具广场专卖店,赵云龙,扬中市,212200,32.23246034,119.8459154
1586,1002534,（江苏办）江苏省安丰镇陆金章,3007,江苏独资办事处,江苏省兴化市安丰镇府前路陆联家具广场二楼,陆金章,,,33.10253253,120.0897752
1587,1002050,（江苏办）江苏省南通鸿运陈彬彬,3007,江苏独资办事处,江苏省南通市崇川区工农路鸿装饰城A馆全友家私,周霞,320600,226300,32.02693418,120.8878875
1588,1002208,（江苏办）上海市嘉定区叶国平,3007,江苏独资办事处,上海市嘉定区塔城路271号,叶国平,,,31.38987431,121.2636357
1589,1002084,（江苏办）上海市宝山区黄菊华,3007,江苏独资办事处,上海市宝山区长逸路15号建配龙家具建材商场3楼,黄菊华,宝山区 ,200000,31.34529944,121.500615
1590,1002328,（江苏办）江苏省赣榆县苏仕祥,3007,江苏独资办事处,江苏省连云港市赣榆县黄海路40号,苏仕祥,,,34.84600673,119.1360328
1591,1002512,（江苏办）江苏省泗洪县石荣清,3007,江苏独资办事处,江苏省宿迁市泗洪县红利来建材大市场37栋,石荣清,,,33.45278958,118.2098223
1592,1003032,【定制销售本部】江苏省靖江市杨剑锋,3007,江苏独资办事处,江苏省靖江市江平路8号-定制,杨建锋,,,32.01913895,120.2924259
1593,1001975,（江苏办）江苏省兴化市吴金秀,3007,江苏独资办事处,江苏省泰州市兴化市时代国际家居广场二楼,吴金秀,兴化市,225700,32.96195431,119.9964181
1594,1001978,（江苏办）江苏省句容市王成福,3007,江苏独资办事处,江苏省句容市华阳南路全友家私,王成福,句容市,212400,31.94243074,119.1715049
1595,1002127,（江苏办）上海市闵行区范正磊,3007,江苏独资办事处,上海市闵行区春申路2699号莘潮家俱城二楼,范正磊,闵行区,200000,31.11582236,121.4193722
1596,1002130,（江苏办）江苏省扬州市杨艳,3007,江苏独资办事处,江苏省扬州市广陵区小码头1号,杨艳,扬州市广陵区,215600,32.38146589,119.4386384
1597,1001749,（江苏办）江苏省丰县杜冠群,3007,江苏独资办事处,江苏省徐州市丰县中阳里商场五星电器三楼,,丰县,221700,34.70372577,116.600277
1598,1001759,（江苏办）江苏省靖江市熊江银,3007,江苏独资办事处,江苏市泰州市靖江市南环路87号（高速路口靖江出口下来右拐500米）,,靖江市,214500,32.00822509,120.2628869
1599,1001938,（江苏办）江苏省常州市武进区孙健,3007,江苏独资办事处,江苏省常州市武进区新客运站全友家私,孙健,常州武进区,213000,31.76748798,120.1006658
1600,1000824,（江苏办）江苏省南京浦口区魏正有,3007,江苏独资办事处,江苏省南京市浦口区大桥北路24号金盛国际家居店,魏正有,南京浦口区,210000,32.13864028,118.7354434
1601,1000825,（江苏办）江苏省溧水县叶茂班,3007,江苏独资办事处,江苏省南京市溧水县中山西路20号商场,叶茂班,溧水县,210000,31.65419239,119.0260699
1602,1000826,（江苏办）江苏省高淳县万平,3007,江苏独资办事处,江苏省南京市高淳县高淳大市场18厅,万平,320100,222100,31.33841901,118.872799
1603,1000831,（江苏办）江苏省金坛市叶茂谦,3007,江苏独资办事处,江苏省常州市金坛市西门大街150号二中斜对面,叶茂谦,金坛市,213200,31.74996642,119.5628981
1604,1000832,（江苏办）江苏省溧阳市叶茂双,3007,江苏独资办事处,江苏省常州地区溧阳市凤凰家具城2楼卖,叶茂双,溧阳市,213300,31.43996036,119.4882915
1605,1000834,（江苏办）江苏省宜兴市华正良,3007,江苏独资办事处,江苏省无锡地区宜兴市夹板市场苏南家具城,华正良,宜兴市,214200,31.36224491,119.7902653
1606,1000835,（江苏办）江苏省苏州市陈艮喜,3007,江苏独资办事处,江苏省苏州市相城区北桥镇凤北荡路与未来路交叉口五星电器B幢全友家居材料厂,陈艮喜,苏州市相城区,215133,31.49758838,120.6288084
1607,1000841,（江苏办）江苏省海门市刘建辉,3007,江苏独资办事处,江苏省南通市海门东方家居（锐江路与青海路口）,刘建辉,海门市,221000,31.90484938,121.205291
1608,1000842,（江苏办）江苏省通州市严少宏,3007,江苏独资办事处,江苏省南通市通州区金沙镇金通公路1515号全友家私,严少宏,通州市,226300,32.05371533,121.0658933
1609,1000844,（江苏办）江苏省如东县姚骏,3007,江苏独资办事处,江苏省南通市如东县苏中家具城内,姚骏,如东县,226400,32.56703866,120.6992114
1610,1000845,（江苏办）江苏省海安县于俊,3007,江苏独资办事处,江苏省南通市海安县奥华国际装饰家具城,于俊,海安县,226600,32.55398507,120.4739269
1611,1003929,（黑龙江办）黑龙江省友谊县兴隆镇徐加军,3009,辽吉黑独资办事处,黑龙江省友谊县红兴隆管理局东兴小区门市8号楼16号,徐加军,,,46.72840794,131.5906868
1612,1003795,（黑龙江办）黑龙江省肇源县宫文涛,3009,辽吉黑独资办事处,黑龙江省大庆市肇源县中国电信旁,宫文涛,,,45.64720047,124.7690436
1613,1003823,（黑龙江办）黑龙江省富裕县李红波,3009,辽吉黑独资办事处,黑龙江省富裕县国土局旁全友家居,李红波,,,47.78161161,124.4780843
1614,1003827,（吉林办）吉林省柳河县李向军,3009,辽吉黑独资办事处,吉林省柳河县中华大街鑫润河建材市场全友家居,李向军,,,42.18566541,125.9172759
1615,1003768,（吉林办）吉林省白山市徐晓光,3009,辽吉黑独资办事处,吉林省白山市浑江大街与锦江路交汇,徐晓光,,,41.94461391,126.4206826
1616,1003909,（辽宁办）辽宁省宽甸县胡翠萍,3009,辽吉黑独资办事处,辽宁省宽甸县北方山奇市场A区二楼,胡翠萍,,,40.74802745,124.7754397
1617,1003932,（吉林办）吉林省公主岭市怀德镇程鹏飞,3009,辽吉黑独资办事处,（吉林办）吉林省公主岭市怀德镇程鹏飞,程鹏飞,,,43.88573389,124.7692387
1618,1003571,（黑龙江办）黑龙江省饶河县胜利农场丁元杰,3009,辽吉黑独资办事处,黑龙江省饶河县建三江镇胜利农场主街,丁元杰,,,47.37349368,133.878708
1619,1003589,（辽宁办）辽宁省庄河县韩伟,3009,辽吉黑独资办事处,辽宁省大连市庄河县华丰家具城4楼,韩伟,,,39.85890978,122.9341453
1620,1003392,（黑龙江办）黑龙江省龙江县常珊平,3009,辽吉黑独资办事处,黑龙江省龙江县正阳路三道街龙江银行西侧,常珊平,,,47.34556077,123.1943325
1621,1003421,（辽宁办）辽宁省本溪市郑艳,3009,辽吉黑独资办事处,辽宁省本溪市明山区胜利路95号,郑艳,,,41.31196905,123.7887418
1622,1003456,（吉林办）吉林省扶余县王佰文,3009,辽吉黑独资办事处,吉林省松原市扶余县商贸城4号楼,王佰文,,,45.13109192,125.5645633
1623,1003611,【定制销售本部】辽宁省盘锦市黄泽宏,3009,辽吉黑独资办事处,辽宁省盘锦市田家汇美家居建材城全友定制衣柜,黄泽宏,,,41.14124802,122.0732278
1624,1003573,（黑龙江办）黑龙江省五大连池市魏传来,3009,辽吉黑独资办事处,黑龙江省黑河市五大连池市原老工行,魏传来,,,48.74916608,126.6345013
1625,1003606,（黑龙江办）黑龙江省巴彦县张国辉,3009,辽吉黑独资办事处,黑龙江省哈尔滨市巴彦县金泰步行街北（金泰购物广场旁边）,张国辉,,,46.34041554,127.3242874
1626,1003619,（辽宁办）辽宁省辽中县孙月英,3009,辽吉黑独资办事处,辽宁省沈阳市辽中县南门环保家园门市,孙月英,,,41.50931824,122.735781
1627,1003648,辽吉黑淘宝(办事处用）,3009,辽吉黑独资办事处,辽宁省沈阳市东陵区白塔南街小羊安西路66号全友家私,高海波,,,41.68250206,123.4320089
1628,1003186,（吉林办）吉林省汪清县王称,3009,辽吉黑独资办事处,吉林省延吉市汪清县民族商贸城3.4楼（大电视旁）,王称,,,43.32096453,129.7756424
1629,1003219,（辽宁办）辽宁省绥中县杨玉丽,3009,辽吉黑独资办事处,辽宁省葫芦岛市绥中县大世界家具城一层,杨玉丽,,,40.30512901,120.0263017
1630,1003275,（黑龙江办）黑龙江省安达市王刚,3009,辽吉黑独资办事处,黑龙江省绥化市安达市五道街北（与锦江步行街交汇处）,王刚,,,46.53546713,125.3845524
1631,1003719,（黑龙江办）黑龙江省尚志市蔡成华,3009,辽吉黑独资办事处,黑龙江省尚志市步行街远大家具城,蔡成华,,,45.21939338,127.9733016
1632,1003812,（辽宁办）辽宁省首山县徐莹,3009,辽吉黑独资办事处,辽宁省辽阳市中华大街206号,徐莹,,,41.27714189,123.202648
1633,1003816,吉林省靖宇县潘晓美,3009,辽吉黑独资办事处,吉林省靖宇县一道街（百联商场）,潘晓美,,,42.3977504,126.8133729
1634,1003900,（吉林办）吉林省延吉市宋延红,3009,辽吉黑独资办事处,吉林省延吉市河南街天池路老党校对面全友家居专卖店,宋延红,,,42.90139933,129.494279
1635,1003908,(辽宁办）辽宁省海城市徐文,3009,辽吉黑独资办事处,辽宁省海城县大白桥南2000米半岛国际1期门市,徐文・,,,40.84871503,122.7447852
1636,1003928,（辽宁办）辽宁省葫芦岛市管连敏,3009,辽吉黑独资办事处,辽宁省葫芦岛市龙港区海王府侧身美好家居广场,管连敏,,,40.76788611,120.8721565
1637,1003756,（黑龙江办）黑龙江省肇东市张忠钢,3009,辽吉黑独资办事处,黑龙江省绥化市肇东市正阳六道街北东商业第一街二期东区一层,张忠钢,,,46.00930592,125.8497312
1638,1003933,（黑龙江办）黑龙江省讷河市拉哈镇何连萍,3009,辽吉黑独资办事处,黑龙江省讷河市拉哈镇东岗街木工厂鑫林综合楼,何连萍,,,48.2107899,124.6166352
1639,1003755,吉林淘宝（办事处用）,3009,辽吉黑独资办事处,辽宁省沈阳市东陵区白塔南街小羊安西路66号全友家私,高海波,,,41.68250206,123.4320089
1640,1003770,黑龙江淘宝（办事处用）,3009,辽吉黑独资办事处,辽宁省沈阳市东陵区白塔南街小羊安西路66号全友家私,高海波,,,41.68250206,123.4320089
1641,1003838,（黑龙江办）黑龙江省虎林市吕勇,3009,辽吉黑独资办事处,黑龙江虎林市解放东路169号原迎粮大厦,吕勇,,,45.9972762,133.1211061
1642,1003845,（吉林办）吉林省公主岭市范家屯镇计艳萍,3009,辽吉黑独资办事处,吉林省公主岭市范家屯镇华翔大街与清源路交汇,计艳萍,,,43.72365834,125.0905829
1643,1003899,（黑龙江办）黑龙江省北安市徐维泽,3009,辽吉黑独资办事处,黑龙江省黑河市北安市贸易大楼一楼,徐维泽,,,48.25086307,126.5185672
1644,1002648,（辽宁办）辽宁省大连市万冬玲,3009,辽吉黑独资办事处,辽宁省大连市甘井子区泡崖小区小野田水泥厂,万冬玲,,,38.99956911,121.558076
1645,1002774,（吉林办）吉林省安图县李放,3009,辽吉黑独资办事处,吉林省延吉市安图县明月镇明安街（天和小区）,李放,,,43.114599,128.9200838
1646,1002926,辽吉黑淘宝,3009,辽吉黑独资办事处,辽宁省辽阳市新运大街美易家广场四楼,辽吉黑淘宝,,,41.2674144,123.1972644
1647,1002938,（辽宁办）内蒙古科尔沁右翼中旗李桂芝,3009,辽吉黑独资办事处,内蒙古科尔沁右翼中旗金街商贸城三楼全友家居,李桂芝,,,45.38463288,121.5738303
1648,1002666,（吉林办）吉林省通化市朱玉生,3009,辽吉黑独资办事处,吉林省通化市外贸乙德家居广场C区二楼,朱玉生,,,41.73639713,125.9426501
1649,1002705,（黑龙江办）黑龙江省五常市张涛,3009,辽吉黑独资办事处,黑龙江省五常市亚臣路冠业街区全友家居专卖店,张涛,,,44.94569158,127.1801367
1650,1002772,（吉林办）吉林省公主岭市孙红丽,3009,辽吉黑独资办事处,吉林省公主岭市东三街光荣委1-3楼,孙红丽,,,43.50903821,124.835614
1651,1002937,（吉林办）吉林省安图县二道白河镇丁国华,3009,辽吉黑独资办事处,吉林省安图县二道白河镇中心街,丁国华,,,42.46357791,128.1504399
1652,1003044,【定制销售本部】辽宁省丹东市王雅妮,3009,辽吉黑独资办事处,辽宁省丹东市体验馆-定制,王忠安,,,40.14726041,124.4099503
1653,1002907,（辽宁办）辽宁省大连市旅顺口区周波,3009,辽吉黑独资办事处,辽宁省大连市旅顺口区顺屹商城,周波,,,38.81142759,121.268144
1654,1002936,（吉林办）吉林省四平市孤家子镇宋红艳,3009,辽吉黑独资办事处,吉林省四平市孤家子镇步行街,宋红艳,,,43.67332977,124.2432969
1655,1003001,【定制销售本部】（黑龙江办）内蒙古满洲里市黄升,3009,辽吉黑独资办事处,内蒙古满洲里扎赉诺尔新华南路-定制,黄中山,,,49.46241152,117.7242612
1656,1003290,（辽宁办）辽宁省辽阳市徐莹,3009,辽吉黑独资办事处,辽宁省辽阳市中华大街206号全友家居专卖店,徐莹,,,41.27714189,123.202648
1657,1003340,（黑龙江办）黑龙江省明水县李大勇,3009,辽吉黑独资办事处,黑龙江省绥化市明水县宏达家具城,李大勇,,,47.20124733,125.8412681
1658,1003374,（黑龙江办）黑龙江省同江市万国辉,3009,辽吉黑独资办事处,黑龙江省同江市江城国际4号楼,万国辉,,,47.66638231,132.5155684
1659,1003438,（吉林办）吉林省长岭县李艳红,3009,辽吉黑独资办事处,吉林省长岭县商业街（汽车站对面）,李艳红,,,44.30564453,123.8665043
1660,1003444,（吉林办）吉林省辉南县刘金平,3009,辽吉黑独资办事处,吉林省辉南县家具城,刘金平,,,42.55794889,126.3427242
1661,1003424,（黑龙江办）黑龙江省哈尔滨市香坊区王迪,3009,辽吉黑独资办事处,黑龙江省哈尔滨市禧龙大街美居家居广场4楼,王迪,,,45.77339732,126.7614704
1662,1003457,（黑龙江办）黑龙江省甘南县刘洋,3009,辽吉黑独资办事处,黑龙江省齐齐哈尔市甘南县公安局对面蔬菜公司楼下,刘洋,,,48.01158308,123.8468996
1663,1003541,（辽宁办）内蒙古兴安盟乌兰浩特市高冠华,3009,辽吉黑独资办事处,内蒙古乌兰浩特市复兴西街37号全友家居,高冠华,,,46.07787512,122.0833516
1664,1003547,（黑龙江办）黑龙江省克山县刘洋,3009,辽吉黑独资办事处,黑龙江省克山县新一百北侧,刘洋,,,48.16709076,125.7064709
1665,1003550,【定制销售本部】辽宁省瓦房店市厉学德,3009,辽吉黑独资办事处,辽宁省瓦房店北共济街1段135号F1-1,厉学德,,,39.66198998,122.0126002
1666,1003448,（黑龙江办）黑龙江省林甸县崔洪侠,3009,辽吉黑独资办事处,黑龙江省大庆市林甸县邮政路与大祈街交汇,崔洪侠,,,47.19097779,124.8892381
1667,1002101,（黑龙江办）内蒙古莫旗赵玉海,3009,辽吉黑独资办事处,内蒙古呼伦贝尔盟莫旗尼尔基镇公安综合楼全友家私,赵玉海,莫旗,162850,48.47728821,124.5046617
1668,1002114,（黑龙江办）黑龙江省拜泉县姜凤仪,3009,辽吉黑独资办事处,黑龙江省齐齐哈尔市拜泉县南四东二道街路西50米,姜凤仪,拜泉县,164700,47.59225565,126.021786
1669,1001687,（吉林办）吉林省辽源市周嘉辉,3009,辽吉黑独资办事处,吉林省辽源市德胜家居广场3楼,周嘉辉,220400,136200,42.92330262,125.1336861
1670,1002247,（黑龙江办）黑龙江省绥化市青冈县孙宏翠,3009,辽吉黑独资办事处,黑龙江省绥化市青冈县大城路华翠钢木家具总汇,孙宏翠,,,46.69372734,126.1179535
1671,1002371,（辽宁办）辽宁省喀喇沁左翼蒙古族自治县于淑海,3009,辽吉黑独资办事处,辽宁省喀喇沁左翼蒙古族自治县东盛商场,于淑海,,,41.14362385,119.7755337
1672,1002519,（辽宁办）内蒙古通辽市库伦旗包金山,3009,辽吉黑独资办事处,内蒙古通辽市库伦旗库伦镇养畜牧路西蒙小学综合楼,包金山,,,42.73452546,121.7903774
1673,1002355,（吉林办）吉林省乾安县李淑霞,3009,辽吉黑独资办事处,吉林省松原市乾安县白驹街通达家具店,李淑霞,,,45.00830062,124.0287722
1674,1002043,（黑龙江办）内蒙古阿荣旗岳桂香,3009,辽吉黑独资办事处,内蒙古阿荣旗西二道街阿大家园全友家私,岳桂香,阿荣旗,162750,48.13061305,123.4782646
1675,1002178,（吉林办）吉林省镇赉县贾文艳,3009,辽吉黑独资办事处,吉林省白城市镇赉县海尔专卖店,贾文艳,,,45.95617192,123.4522721
1676,1002077,（辽宁办）辽宁省大石桥市徐文,3009,辽吉黑独资办事处,辽宁省营口市大石桥市振兴路旭华家具城5楼,徐文,大石桥市,115100,40.63611624,122.5072561
1677,1002658,（辽宁办）辽宁省彰武县李桂荣,3009,辽吉黑独资办事处,辽宁省阜新市彰武县新兴路春光汽贸二楼,李桂荣,,,42.21826624,122.3334476
1678,1002304,（黑龙江办）黑龙江省富锦市刘春林,3009,辽吉黑独资办事处,黑龙江省富锦市秋林公司,刘春林,,,47.25559985,132.0480866
1679,1002504,（黑龙江办）黑龙江省密山市崔传宝,3009,辽吉黑独资办事处,黑龙江密山市同心东苑小区门市（原白酒厂红绿灯处）,崔传宝,,,45.46976543,132.1765624
1680,1002505,（辽宁办）辽宁省鞍山市王洋,3009,辽吉黑独资办事处,辽宁省鞍山市千山西路原电话局,王洋,,,41.13540353,122.9653729
1681,1002507,（吉林办）吉林省榆树市马英军,3009,辽吉黑独资办事处,吉林省榆树市榆西大街中段365家具建材城西门,马英军,,,44.82582842,126.5398289
1682,1002702,（吉林办）吉林省东丰县刘金平,3009,辽吉黑独资办事处,吉林省辽源市东丰县东丰镇通山街,刘金平,,,42.68290886,125.5395275
1683,1002851,（吉林办）吉林省大安市孙喜文,3009,辽吉黑独资办事处,吉林省白城市大安市大赉街全友专卖店,孙喜文,,,45.43243816,123.7237142
1684,1002852,（黑龙江办）黑龙江省桦川县于香君,3009,辽吉黑独资办事处,黑龙江省桦川县易佰汇农贸大市场1楼,于香君,,,47.0267259,130.7342086
1685,1002863,（辽宁办）内蒙古科尔沁左翼中旗姜萍萍,3009,辽吉黑独资办事处,内蒙古通辽市科尔沁左翼中旗保康城建二期3号楼,姜萍萍,,,44.05757929,122.49918
1686,1001969,（辽宁办）辽宁省台安县刘玉金,3009,辽吉黑独资办事处,辽宁省鞍山市台安县台大路西口全友家私,刘玉金,台安县,114100,41.39788985,122.4343604
1687,1001986,（黑龙江办）黑龙江省集贤县赵海,3009,辽吉黑独资办事处,黑龙江省集贤县福利屯一百家具城3楼,赵海,集贤县,155100,46.73220908,131.145739
1688,1002122,（黑龙江办）黑龙江省加格达奇刘艳,3009,辽吉黑独资办事处,黑龙江省加格达奇兴安大街特色产品批发市场2楼,刘艳,加格达奇,165000,47.35659164,128.0474137
1689,1001751,（辽宁办）辽宁省灯塔市穆松林,3009,辽吉黑独资办事处,辽宁省辽阳市灯塔县四方建材大市场东南侧一、二楼,,灯塔市,111300,41.44086167,123.3305637
1690,1001911,（吉林办）吉林省双辽市周亚宁,3009,辽吉黑独资办事处,吉林省四平市双辽市家俱大世界,周亚宁,双辽市,136400,43.76769488,123.7085202
1691,1002837,（黑龙江办）黑龙江省双鸭山市饶河县刘永军,3009,辽吉黑独资办事处,黑龙江省双鸭山市饶河县新阳路,刘永军,,,47.07262854,133.7292587
1692,1000602,（黑龙江办）黑龙江省齐齐哈尔市陈军,3009,辽吉黑独资办事处,黑龙江省齐齐哈尔市铁锋区龙华路68号中联商厦全友家私,陈军,齐齐哈尔市铁锋区,10000,47.34756445,123.967354
1693,1000603,（黑龙江办）内蒙古满洲里市黄中山,3009,辽吉黑独资办事处,内蒙古呼伦贝尔盟满洲里市五道街通满楼地下楼7-8号全友家私,黄中山,满洲里市,10000,49.46317382,117.7247034
1694,1000604,（黑龙江办）内蒙古海拉尔市李伟,3009,辽吉黑独资办事处,内蒙古呼伦贝尔盟海拉尔市天虹建材市场全友家私,李伟,海拉尔市,10000,49.27924546,120.0428821
1695,1000605,（黑龙江办）内蒙古牙克石市李伟,3009,辽吉黑独资办事处,内蒙古呼仑贝尔盟牙克石市温州城二号楼三楼,李伟,牙克石市,10000,49.28926606,120.7433916
1696,1000606,（黑龙江办）内蒙古大杨树镇刘海涛,3009,辽吉黑独资办事处,内蒙古呼伦贝尔盟鄂仑春旗大杨树镇振华购物市场2楼,刘海涛,大杨树镇,10000,49.75878496,124.5936052
1697,1000609,（黑龙江办）黑龙江省嫩江县孙喜军,3009,辽吉黑独资办事处,黑龙江省黑河市嫩江县一马路全友家居生活馆（原晶晶超市）,孙喜军,嫩江县,161400,49.18154818,125.2349928
1698,1000610,（黑龙江办）内蒙古扎兰屯市王学军,3009,辽吉黑独资办事处,内蒙古呼仑贝尔盟扎兰屯市兰云大厦,王学军,扎兰屯市,162650,47.74340338,121.9292022
1699,1000611,（黑龙江办）黑龙江省依安县钟彦平,3009,辽吉黑独资办事处,黑龙江省齐齐哈尔市依安县昌平家具店,钟彦平,依安县,24200,47.8902273,125.3164083
1700,1000615,（黑龙江办）黑龙江省鸡西市鸡冠区刘海彬,3009,辽吉黑独资办事处,黑龙江鸡西市金龙大厦4楼全友家私,刘海彬,鸡西市鸡冠区,158100,45.30745554,130.9914206
1701,1000619,（黑龙江办）黑龙江省桦南县徐日坤,3009,辽吉黑独资办事处,黑龙江省佳木斯市桦南县小保利商城2楼,徐日坤,桦南县,214000,46.30667172,130.6370154
1702,1000620,（黑龙江办）黑龙江省宝清县徐艳凤,3009,辽吉黑独资办事处,黑龙江省双鸭山宝清县农贸市场内全友专卖店,徐艳凤,宝清县,155600,46.40938321,132.4092786
1703,1000621,（黑龙江办）黑龙江省七台河市桃山区姚金波,3009,辽吉黑独资办事处,黑龙江省七台河市桃山区建材大市场,姚金波,七台河市桃山区,154600,45.77009251,130.9925031
1704,1000623,（黑龙江办）黑龙江省抚远县包砾,3009,辽吉黑独资办事处,黑龙江省佳木斯市抚远县新兴街1号大世界家具城,包砾,抚远县,156500,48.36985222,134.3047533
1705,1000625,（黑龙江办）黑龙江省建三江镇丁元杰,3009,辽吉黑独资办事处,黑龙江省佳木斯市富锦市建三江镇回春商场三楼,丁元杰,建三江镇,162650,47.25924792,132.638608
1706,1000627,（黑龙江办）黑龙江省宾县王德勇,3009,辽吉黑独资办事处,黑龙江省哈尔滨市宾县宾州镇东大街51号百货大楼超市三楼,王德勇,宾县,150400,45.76529773,127.4972374
1707,1000628,（黑龙江办）黑龙江省依兰县王景成,3009,辽吉黑独资办事处,黑龙省哈尔滨市依兰县聚鑫源小区,王景成,依兰县,154800,46.32638603,129.5733544
1708,1000629,（黑龙江办）黑龙江省哈尔滨市张忠钢,3009,辽吉黑独资办事处,黑龙江省哈尔滨南岗区学府司四道街1号休闲体育广场五楼B区2号全友家私,张忠钢,哈尔滨市道外区,150000,45.58634782,126.6466449
1709,1002845,（辽宁办）辽宁省黑山县林春兰,3009,辽吉黑独资办事处,辽宁省锦州市黑山县家具市场南门蔚蓝湖畔,林春兰,,,41.6894823,122.1304863
1710,1000634,（黑龙江办）黑龙江省哈尔滨市呼兰区关集晓,3009,辽吉黑独资办事处,黑龙江省哈尔滨市呼兰区北二道街四中校北侧,关集晓,哈尔滨市呼兰区,150500,45.99605211,126.6120291
1711,1000635,（黑龙江办）黑龙江省大庆市李亚飞,3009,辽吉黑独资办事处,黑龙江省大庆市龙凤区万峰路万宝工业园11号厂房,李亚飞,大庆市让胡路区,163001,46.56457182,125.1070256
1712,1000638,（黑龙江办）黑龙江省黑河市张殿有,3009,辽吉黑独资办事处,黑龙江省黑河市中央街432号,张殿有,黑河市爱辉区,164300,50.2510081,127.5180275
1713,1000639,（黑龙江办）黑龙江省庆安县张海飓,3009,辽吉黑独资办事处,黑龙江省绥化市庆安县商业街惠中鞋城2楼,张海飓,庆安县,152400,46.8842436,127.5227338
1714,1001037,（辽宁办）内蒙古扎鲁特旗李明杰,3009,辽吉黑独资办事处,扎鲁特旗鲁北镇街道办事处,李明杰,扎鲁特旗,28400,44.55966496,120.8991087
1715,1001039,（辽宁办）内蒙古奈曼旗刘淑贤,3009,辽吉黑独资办事处,内蒙古通辽市奈曼旗全友家私,刘淑贤,奈曼旗,28400,42.85356608,120.6688842
1716,1001045,（辽宁办）辽宁省凌源市陈国春,3009,辽吉黑独资办事处,辽宁省朝阳市凌源市北大桥全友家私,陈国春,凌源市,122500,41.41144716,119.6485806
1717,1001046,（辽宁办）辽宁省朝阳市双塔区高立民,3009,辽吉黑独资办事处,辽宁省朝阳市双塔区文化路四段102号全友家私,高立民,211300,122000,41.57760016,120.441377
1718,1001047,（辽宁办）辽宁省新民市黄殿才,3009,辽吉黑独资办事处,辽宁省沈阳市新民市辽河大街16-1号楼,黄殿才,新民市,110300,41.98547528,122.8510112
1719,1001051,（辽宁办）辽宁省阜新市海州区吕万财,3009,辽吉黑独资办事处,辽宁省阜新市海州区海州国泰家具城二楼,吕万财,阜新市海州区,123000,41.99090249,121.6527051
1720,1001053,（辽宁办）辽宁省建平县徐广森,3009,辽吉黑独资办事处,辽宁省朝阳市建平县农电局后身全友家私,徐广森,建平县,122000,41.41144716,119.6485806
1721,1000972,（吉林办）吉林省舒兰市陈绪涛,3009,辽吉黑独资办事处,吉林省吉林市舒兰市万嘉商场4楼,陈绪涛,舒兰市,132600,44.33546514,127.1167723
1722,1000973,（吉林办）吉林省吉林市贺艳苹,3009,辽吉黑独资办事处,吉林省吉林市越山路建材大市场一楼,贺艳苹,吉林市船营区,132000,43.86875441,126.5327886
1723,1000976,（吉林办）吉林省桦甸市王海,3009,辽吉黑独资办事处,吉林省吉林市桦甸市家私商厦3楼,王海,桦甸市,334500,42.97867517,126.7646256
1724,1000978,（吉林办）吉林省蛟河市王树田,3009,辽吉黑独资办事处,吉林省蛟河市美华家具城3楼,王树田,蛟河市,132500,43.72688917,127.346879
1725,1000979,（吉林办）吉林省敦化市姚云波,3009,辽吉黑独资办事处,吉林省延边州敦化市百货市场（食品批发城）3楼,姚云波,敦化市,133700,43.56020184,128.2394993
1726,1000980,（吉林办）吉林省磐石市张德利,3009,辽吉黑独资办事处,吉林省吉林市磐石民族商场家具城,张德利,磐石市,132300,42.94937545,126.0683371
1727,1000986,（吉林办）吉林省四平市铁东区袁建伟,3009,辽吉黑独资办事处,吉林省四平市铁东区国美电器,袁建伟,四平市铁东区,132000,43.17602379,124.3906887
1728,1000990,（辽宁办）辽宁省开原市陈维刚,3009,辽吉黑独资办事处,辽宁省铁岭市开原市五金机电群星家具城生活馆,陈维刚,开原市,110000,42.54006301,124.0539558
1729,1000992,（辽宁办）辽宁省清原满族自治县吉庆华,3009,辽吉黑独资办事处,辽宁省抚顺市清源县家居装饰城二楼,吉庆华,清原满族自治县,113300,41.87730383,123.9298198
1730,1000993,（辽宁办）辽宁省昌图县李长林,3009,辽吉黑独资办事处,辽宁省铁岭市昌图县昌图镇纺古街长林家具城,李长林,昌图县,110501,42.79071023,124.1237435
1731,1000996,（辽宁办）辽宁省铁岭市银州区刘伟,3009,辽吉黑独资办事处,辽宁省铁岭市龙首市场三楼,刘伟,铁岭市银州区,112000,42.3109931,123.8636134
1732,1000997,（辽宁办）辽宁省沈阳市苏家屯区刘文龙,3009,辽吉黑独资办事处,辽宁省沈阳市苏家屯区沙河站村铁路运输部南500米,刘文龙,沈阳市苏家屯区,110101,41.58634398,123.3685434
1733,1000998,（辽宁办）辽宁省调兵山市苗庆柱,3009,辽吉黑独资办事处,辽宁省铁岭市调兵山市火车站北五金三楼生活馆,苗庆柱,调兵山市,112700,42.44292989,123.5843479
1734,1000999,（辽宁办）辽宁省法库县王守东,3009,辽吉黑独资办事处,辽宁省沈阳市法库县法库镇团结街5号楼,王守东,法库县,134001,42.51033308,123.4280624
1735,1001000,（辽宁办）辽宁省桓仁满族自治县王山,3009,辽吉黑独资办事处,辽宁省本溪市桓仁满族自治百货批发公司王山家俱城,王山,桓仁满族自治县,117200,41.26181588,125.2900279
1736,1001001,（辽宁办）辽宁省康平县王守东,3009,辽吉黑独资办事处,辽宁省康平县华通利公司家具商场二楼,王守东,康平县,110500,42.5147094,123.4231293
1737,1001002,（辽宁办）辽宁省西丰县王伟艳,3009,辽吉黑独资办事处,辽宁省西丰县东方家居广场,王伟艳,西丰县,110000,42.71273943,124.7385022
1738,1001004,（辽宁办）辽宁省新宾满族自治县张芳,3009,辽吉黑独资办事处,辽宁省抚顺市新宾县移动公司西侧,张芳,新宾满族自治县,113200,41.63511941,124.8278656
1739,1001009,（辽宁办）辽宁省凌海市李艳玲,3009,辽吉黑独资办事处,辽宁省锦州市凌海市商贸城三楼,李艳玲,凌海市,121000,41.15256616,121.2855746
1740,1001010,（辽宁办）辽宁省岫岩满族自治县牟伟,3009,辽吉黑独资办事处,万润玉雕会展中心2楼全友家私,牟伟,岫岩满族自治县,114300,40.30445572,123.2934363
1741,1001015,（辽宁办）辽宁省瓦房店市董国忠,3009,辽吉黑独资办事处,辽宁省瓦房店市北共济街一段135号全友家居广场,董野,瓦房店市,116300,39.64587513,122.010929
1742,1001017,（辽宁办）辽宁省丹东市元宝区高仁萍,3009,辽吉黑独资办事处,辽宁省丹东市元宝区财神庙街28-1号,高仁萍,丹东市元宝区,118001,40.14440317,124.4038119
1743,1001023,（辽宁办）辽宁省营口市鲅鱼圈区于恩会,3009,辽吉黑独资办事处,辽宁省营口市鲅鱼圈道口钱江商贸城1#门市,于恩会,营口市鲅鱼圈区,115001,40.26426555,122.1899867
1744,1001025,（吉林办）吉林省农安县刘庆伟,3009,辽吉黑独资办事处,吉林省长春市农安县老十字街路东,刘庆伟,220100,131000,44.46150609,125.0943271
1745,1001026,（吉林办）吉林省九台市曲延福,3009,辽吉黑独资办事处,吉林省长春市九台市三道街（曙光大街）原鑫隆家具城二楼全友家私,曲延福,九台市,130500,44.15474815,125.8359307
1746,1001027,（吉林办）吉林省松原市宁江区孙喜文,3009,辽吉黑独资办事处,吉林省松原市飞宇家具城三楼A-023,孙喜文,松原市宁江区,131100,45.12349756,124.8199315
1747,1001028,（吉林办）吉林省长春市王力,3009,辽吉黑独资办事处,吉林省长春市自由大路与苏州北街交汇处润泽新村2号楼1单元302,王力,长春市,130000,43.86982116,125.3898453
1748,1001029,（吉林办）吉林省通榆县王廷海1,3009,辽吉黑独资办事处,吉林省白城市通榆县廷海家具城,王廷海,通榆县,137200,44.78571678,122.7452913
1749,1001030,（吉林办）吉林省德惠市于泉水,3009,辽吉黑独资办事处,吉林省德惠市东八道街,于泉水,德惠市,130300,44.51050715,125.7690444
1750,1001033,（吉林办）吉林省白城市洮北区张利,3009,辽吉黑独资办事处,吉林省白城市步行街百货大楼,张利,白城市洮北区,137000,45.623894,122.8541074
1751,1002021,新疆额敏县龚新平,3011,新疆独资办事处,新疆塔城地区额敏县友好路宏源大厦二楼全友家私,龚新平,654200,834600,46.52943916,83.63144058
1752,1001689,新疆塔城市赵志新,3011,新疆独资办事处,新疆塔城地区塔城市黎明市场,赵志新,塔城市,834700,46.74904057,82.98786793
1753,1001505,新疆喀什市李秀峰,3011,新疆独资办事处,新疆喀什地区喀什市龙达市场全友家私,李秀峰,喀什市,844000,39.51311059,76.0143428
1754,1001506,新疆库车县黄国伟,3011,新疆独资办事处,新疆阿克苏地区阿克苏市库车县国贸购物中心二楼,黄国伟,库车县,842000,41.72280876,82.96626009
1755,1001509,新疆博乐市宋志平,3011,新疆独资办事处,新疆博尔塔拉蒙古自治州博乐市兴乐商城二楼全友家私,宋志平,博乐市,833400,44.9195782,82.0837688
1756,1001511,新疆阿勒泰市宁中强,3011,新疆独资办事处,新疆阿勒泰地区阿勒泰市文化中心一楼,宁中强,阿勒泰市,836500,47.89013573,87.92621436
1757,1001512,新疆伊犁市王学艳,3011,新疆独资办事处,新疆伊犁地区伊宁市开发区亚中国际贸易城1-1012,王学艳,伊犁市,835000,44.02035582,81.28904807
1758,1001513,新疆奎屯市田虹,3011,新疆独资办事处,新疆塔城地区奎屯市国贸二楼A-8号,田虹,奎屯市,833200,24.47106713,118.081863
1759,1001514,新疆布尔津县罗国光,3011,新疆独资办事处,新疆阿勒泰地区布尔津县东风路全友家私,罗国光,布尔津县,836600,47.70906405,86.88008098
1760,1001517,新疆裕民县袁超,3011,新疆独资办事处,新疆塔城地区裕民县奋进商行,袁超,裕民县,842000,46.20823685,82.9894113
1761,1001518,新疆呼图壁县梁国荣,3011,新疆独资办事处,新疆昌吉回族自治州呼图壁县东风大街永盛一楼太子家私城,梁国荣,呼图壁县,831204,44.1979696,86.89452296
1762,1002835,新疆巩留县沈建江,3011,新疆独资办事处,新疆巩留县静和路,沈建江,,,43.49198022,82.23589262
1763,1002254,新疆省巴楚县谢刚,3011,新疆独资办事处,新疆省巴楚县友谊路（老干所旁）,谢刚,,,39.79842825,78.55878322
1764,1002405,新疆富蕴县李瑛,3011,新疆独资办事处,新疆富蕴县财政大楼北侧金蕴花园金驼房地产公司,李瑛,,,46.53615651,89.39348361
1765,1002559,新疆青河镇王迎祥,3011,新疆独资办事处,新疆阿勒泰市青河镇青河市场综合楼,王迎祥,,,46.67328298,90.38805536
1766,1002280,新疆省奇台县杨风萍,3011,新疆独资办事处,新疆省奇台县健康西路天和家电城全友家私,杨风萍,,,44.01967294,89.59189941
1767,1002341,新疆莎车县唐凤兰,3011,新疆独资办事处,新疆莎车县第一街旺角商厦二楼,唐凤兰,,,38.32258784,77.01483316
1768,1002342,新疆哈巴河县李永军,3011,新疆独资办事处,新疆哈巴河县桦林嘉苑9号楼负一层,李永军,,,48.31655903,86.40967296
1769,1002456,新疆乌苏市刘晓华,3011,新疆独资办事处,新疆乌苏市乌鲁木齐南路011号全友家私,刘晓华,,,44.43688779,84.68490005
1770,1002560,新疆阜康市龚成,3011,新疆独资办事处,新疆阜康市民族巷1号全友家居,龚成,,,44.15884491,87.99014837
1771,1002246,新疆省鄯善县徐江波,3011,新疆独资办事处,新疆省鄯善县e家酒店旁,徐江波,,,42.87201207,90.2191707
1772,1002584,新疆焉耆县王新刚,3011,新疆独资办事处,新疆焉耆县新华书店三楼,王新刚,,,42.06594705,86.57734844
1773,1002585,新疆吉木乃镇向国才,3011,新疆独资办事处,新疆吉木乃镇团结路贸易公司大楼二、三楼,向国才,,,47.50221206,85.62773575
1774,1002069,新疆新源县吕新江,3011,新疆独资办事处,新疆伊犁哈萨克自治州新源县新天地购物广场二楼,吕新江,新源县,835800,43.44281659,83.26845115
1775,1002510,新疆和静县傅化军,3011,新疆独资办事处,新疆巴州和静县亿家广场3楼全友家居,傅化军,,,42.32343314,86.40685401
1776,1002890,新疆福海县王勇,3011,新疆独资办事处,新疆福海县人民西路振达广场3楼,王勇,,,47.11853154,87.49763566
1777,1001499,新疆乌鲁木齐市尹业方,3011,新疆独资办事处,新疆乌鲁木齐市苏州路广汇美居物流园A座,尹业方,乌鲁木齐市天山区,830043,43.8680646,87.58877784
1778,1001501,新疆哈密市马建国,3011,新疆独资办事处,新疆哈密市友谊商贸城三楼,马建国,652200,839300,42.85103127,93.50396754
1779,1001502,新疆库尔勒市韩先德,3011,新疆独资办事处,新疆巴音郭楞蒙古族自治州库尔勒市北山路恒居物流园,韩先德,库尔勒市,841000,41.78513366,86.15550849
1780,1001503,新疆吐鲁番市张国伟,3011,新疆独资办事处,新疆吐鲁番地区吐鲁番市大十字盛源贸易中心3楼,张国伟,吐鲁番市,838000,42.94874337,89.18800374
1781,1001902,新疆和田市万连杰,3011,新疆独资办事处,新疆和田地区和田市昆仑综合市场二楼,万连杰,和田市,848000,37.15334974,79.91581373
1782,1003744,新疆吉木萨尔县吉木萨尔镇张明武,3011,新疆独资办事处,新疆吉木萨尔县吉木萨尔镇宝丽华庭门面房,张明武,,,44.00507192,89.20096027
1783,1003368,新疆北屯市裴德林,3011,新疆独资办事处,新疆阿勒泰市北屯市得仁商贸建材城,裴德林,,,47.89013573,87.92621436
1784,1003551,新疆玛纳斯县秦东健,3011,新疆独资办事处,新疆玛纳斯县凤凰西路凤凰大厦二楼,秦东健,,,44.3136081,86.19617828
1785,1003200,【定制销售本部】新疆伊宁市李疆,3011,新疆独资办事处,新疆维吾尔自治区伊宁市东站国道218线2000米处新月亮湾商城,李疆,,,44.02035582,81.28904807
1786,1003788,新疆图木舒克市荣文伦,3011,新疆独资办事处,新疆图木舒克市唐城建材家居城,荣文伦,,,39.88922288,79.19815511
1787,1003817,新疆轮台县光琼玉,3011,新疆独资办事处,新疆轮台县红桥公园对面,光琼玉,,,39.17062133,117.1622168
1788,1003866,新疆省昭苏县杨军军,3011,新疆独资办事处,新疆省昭苏县天山街苏碧怡巴扎1号1楼,杨军军,,,42.77687822,80.98425712
1789,1003919,新疆阿拉尔市杨开新,3011,新疆独资办事处,新疆阿拉尔市塔里木大道川粤建材家具广场,杨开新,,,40.55354312,81.27620634
1790,1003674,新疆和硕县马玉萍,3011,新疆独资办事处,新疆和硕县建材市场2楼,马玉萍,,,42.14107607,87.58871648
1791,1003143,【定制销售本部】新疆塔城市龚新平,3011,新疆独资办事处,新疆塔城地区额敏县宏源大厦二楼全友家居,龚新平,,,46.59066366,84.20931965
1792,1002944,新疆沙湾县艾小兵,3011,新疆独资办事处,新疆沙湾县行政服务中心负一楼,艾小兵,,,44.32964954,85.62462044
1793,1002728,新疆阿克苏市陈跃月,3011,新疆独资办事处,新疆阿克苏地区阿克苏市华能商场三楼,陈跃月,,,40.3494443,81.15601315
1794,1002932,新疆淘宝,3011,新疆独资办事处,新疆淘宝,新疆淘宝,,,45.61174671,126.6377073
1795,1002737,新疆若羌县刘永胜,3011,新疆独资办事处,新疆若羌县楼兰玉都广场负一层全友家居,刘永胜,,,38.97384409,89.76277231
1796,1003323,新疆和布克赛尔蒙古自治县和什托洛盖镇陈红,3011,新疆独资办事处,新疆和布克赛尔蒙古自治县和什托洛盖镇建材市场二楼,陈红,,,46.52411901,86.00984051
1797,1003189,新疆昌吉市孟玉玲,3011,新疆独资办事处,新疆昌吉市亚中商贸广场南侧二楼,孟玉玲,,,44.01504057,87.29585478
1798,1003375,新疆呼图壁县芳草湖农场邱建国,3011,新疆独资办事处,新疆呼图壁县芳草湖农场全友家私城,邱建国,,,44.38095572,86.69316611
1799,1003498,新疆特克斯县娄凤水,3011,新疆独资办事处,新疆特克斯县旅游商贸城三楼,娄凤水,,,42.92556352,82.00685236
1800,1002098,新疆五家渠市王彦,3011,新疆独资办事处,新疆维吾尔自治区五家渠市新城上海花园右侧,王彦,五家渠市,831300,44.36889948,87.56544898
1801,1001504,新疆石河子市殷世明,3011,新疆独资办事处,新疆塔城地区石河子市国贸商城地下大厅全友家私,殷世明,石河子市,832000,44.3128528,86.03628466
1802,1001559,云南省河口县张向富,3012,云南独资办事处,云南省红河哈尼族彝族自治州河口县北山开发区吉顺建材城,张向富,532500,661300,22.53479472,103.9404016
1803,1001560,云南省西畴县徐东,3012,云南独资办事处,云南省文山壮族苗族自治州西畴县粮贸市场内（城关粮食购销公司）,徐东,西畴县,663500,23.36273641,104.6878539
1804,1001561,云南省禄劝县杨建国,3012,云南独资办事处,云南省禄劝县五星路421号土产大楼,杨建国,禄劝县,651500,25.56307399,102.4736267
1805,1001562,云南省晋宁县李明,3012,云南独资办事处,云南省昆明市晋宁县百货大楼郑和路44号,李明,晋宁县,650600,24.67757944,102.5970692
1806,1001563,云南省晋城镇高幼君,3012,云南独资办事处,云南省昆明市晋宁县晋城镇北门街,高幼君,晋城镇,650600,24.71250696,102.759235
1807,1001568,云南省景东县何秀英,3012,云南独资办事处,云南省普洱市景东县环城路（电力公司旁）,何秀英,景东县,676200,24.39672894,100.7952057
1808,1001570,云南省龙陵县李俊菊,3012,云南独资办事处,云南省保山市龙陵县龙山路松鹤楼2楼,李俊菊,龙陵县,678300,24.59583498,98.69874908
1809,1001575,云南省鹤庆县冯时刚,3012,云南独资办事处,云南省大理白族自治州鹤庆城南加油站前行40米,冯时刚,鹤庆县,671500,26.55628055,100.1838872
1810,1001576,云南省镇沅县袁顺明,3012,云南独资办事处,云南省普洱市镇沅县绿海路农民街停车场内,袁顺明,镇沅县,666500,24.00753917,101.1226607
1811,1001577,云南省鲁甸县顾文宇,3012,云南独资办事处,云南省昭通市鲁甸县世纪大道电信大厦旁,顾文宇,鲁甸县,657100,27.1981662,103.5640138
1812,1001578,云南省昌宁县郭起仁,3012,云南独资办事处,云南省昌宁县宝达路和平小区9号（商贸城对面）,郭起仁,昌宁县,650600,24.82481275,99.62206962
1813,1002030,云南省易门县鄢继文,3012,云南独资办事处,云南省易门县祥友建材市场全友家私,鄢继文,易门县,651100,24.67103174,102.1779683
1814,1002857,云南省祥云县周小艳,3012,云南独资办事处,云南省大理白族自治州祥云县龙祥路尾,周小艳,,,25.47894167,100.5592736
1815,1003584,云南省澄江县郑君,3012,云南独资办事处,云南省玉溪市澄江县龙溪路思福小区一楼,郑君,,,24.67838008,102.9468503
1816,1002228,云南省打洛镇康玉惠,3012,云南独资办事处,云南省西双版纳傣族自治州勐海县打洛镇兴洛路全友家私,康玉惠,,,21.7025328,100.0581927
1817,1002180,云南省虹溪镇杨银丹,3012,云南独资办事处,云南省红河哈尼族彝族自治州弥勒县虹溪镇南正街中段原百货大楼,杨银丹,,,24.15789009,103.3288065
1818,1002780,云南省丽江市永胜县期纳镇袁跃富,3012,云南独资办事处,云南省丽江市永胜县期纳街南信用社旁,袁跃富,,,26.31019114,100.632267
1819,1001931,云南省罗平县邓科举,3012,云南独资办事处,云南省曲靖市罗平县八方商场二楼,邓科举,罗平县,655800,24.98315713,104.3492788
1820,1002240,云南省勐腊县王治发,3012,云南独资办事处,云南省西双版纳傣族自治州勐腊县辉煌广场,王治发,,,21.47393592,101.5743444
1821,1002567,云南省剑川县郑火彬,3012,云南独资办事处,云南省大理白族自治州剑川县城南农贸市场,郑火彬,,,26.43959613,99.7503078
1822,1002087,云南省寻甸县杨丽仙,3012,云南独资办事处,云南省昆明市寻甸县枫梧路温商财富中心,杨丽仙,寻甸县,650000,25.66660984,103.1278135
1823,1002673,云南省永善县黄春华,3012,云南独资办事处,云南省昭通市永善县振兴大街疾控中心旁(华隆小区一楼),黄春华,,,27.73432829,103.9034453
1824,1002353,云南省梁河县谭世军,3012,云南独资办事处,云南省梁河县遮岛镇那们寨40号,谭世军,,,24.81774457,98.31658001
1825,1002358,云南省羊街镇吴艳萍,3012,云南独资办事处,云南省开远市羊街乡羊街村,吴艳萍,,,23.58068231,103.36575
1826,1002394,云南省建水县段懿珈,3012,云南独资办事处,云南省建水县曲江镇兴荣路交警队旁,段懿珈,,,23.96971323,102.8011443
1827,1002517,云南省洱源县范刚,3012,云南独资办事处,云南省大理州洱源县老客运站旁,范刚,,,26.07291586,99.91215646
1828,1002846,云南省昭通市曹廷梅,3012,云南独资办事处,云南省昭通市昭阳区珠泉路中段全友家居,曹廷梅,,,27.35138834,103.7116723
1829,1001586,云南省陇川县吁海军,3012,云南独资办事处,云南省德宏傣族景颇族自治州陇川县同心路德胜家具城,吁海军,陇川县,678700,24.19519073,97.79615291
1830,1001588,云南省永仁县段理,3012,云南独资办事处,云南省楚雄彝族自治州永仁县撒家湾福海园家私城,段理,永仁县,651400,26.05668084,101.6801008
1831,1001589,云南省永胜县文丽华,3012,云南独资办事处,云南省丽江市永胜县环东路公安局对面,文丽华,永胜县,674200,26.49170608,100.7049205
1832,1001590,云南省江川县刘秦,3012,云南独资办事处,云南省玉溪市江川县宝凤路27号,刘秦,江川县,652600,24.30284318,102.7537909
1833,1001592,云南省陆良县朱乔昌,3012,云南独资办事处,云南省曲靖市陆良金晖宾馆,朱乔昌,陆良县,655600,25.03892447,103.6688695
1834,1001593,云南省南伞镇汪玲,3012,云南独资办事处,云南省临沧市镇康县南伞镇文明新村,汪玲,南伞县,677000,23.76168052,98.82874377
1835,1001981,云南省楚雄市喻邦容,3012,云南独资办事处,云南省楚雄市鹿城西路福源花园A栋全友家私,喻邦容,楚雄市,675000,25.04492518,101.5383389
1836,1001858,云南省蒙自县赵康英,3012,云南独资办事处,云南省红河哈尼族彝族自治州蒙自市银河路28号,,532500,661100,23.37705512,103.3924563
1837,1001912,云南省临沧市何忠益,3012,云南独资办事处,云南省临沧市临翔区南天路827号,何忠益,临沧市,677000,23.88705581,100.1045289
1838,1001919,云南省普洱市李双超,3012,云南独资办事处,云南省普洱市木乃河工业园,李双超,普洱市,665000,22.78886008,100.9101047
1839,1001928,云南省宣威市彭光海,3012,云南独资办事处,云南省曲靖市宣威市振兴街鑫汇商业广场,彭光海,宣威市,655400,26.23999375,104.1021203
1840,1001929,云南省开远市林正素,3012,云南独资办事处,云南省红河哈尼族彝族自治州开远市落云路都市林语7号楼,林正素,开远市,661000,23.71525518,103.2609868
1841,1001932,云南省华坪县张晓琼,3012,云南独资办事处,云南省丽江市华坪县迎宾路彩虹桥旁泰雨商场2楼,张晓琼,华坪县,617300,26.64580714,101.2517292
1842,1001520,云南省昆明市刘祥军,3012,云南独资办事处,云南省昆明市五华区昆沙路普吉吴家营村,刘祥军,530100,650000,25.09739564,102.6784841
1843,1001521,云南省昆明东川区魏廷全,3012,云南独资办事处,云南省昆明市东川区东泰居家购物广场(泰隆购物广场2楼),魏廷全,昆明东川区,651400,26.08914972,103.1885408
1844,1001522,云南省曲靖市胡国英,3012,云南独资办事处,云南省曲靖市麒麟东路六九医院旁,胡国英,曲靖市,655000,25.508532,103.8095026
1845,1001530,云南省丽江古城区李丽,3012,云南独资办事处,云南省丽江市古城区长水路尚义建材市场19-20栋后库,李丽,丽江古城区,674100,26.87059417,100.219686
1846,1001531,云南省芒市郭宽,3012,云南独资办事处,云南省德宏傣族景颇族自治州潞西市景观大道华丰国际商城仓库,郭宽,533100,678400,24.3294969,98.42693869
1847,1001535,云南省六库杨锐锋,3012,云南独资办事处,云南省怒江傈僳族自治州泸水县八一路至鹦鹉路粮食局仓库,杨锐锋,六库 ,673100,25.85830673,98.86982149
1848,1001536,云南省个旧市王明修,3012,云南独资办事处,云南省红河哈尼族彝族自治州个旧市金湖西路海特商城2楼,王明修,个旧市,661400,23.38303441,103.1619912
1849,1001537,云南省富源县杨金友,3012,云南独资办事处,云南省曲靖市富源县新供销大楼,杨金友,530300,655500,25.46721438,104.3674519
1850,1001538,云南省师宗县李丽琼,3012,云南独资办事处,云南省曲靖市师宗供销大楼,李丽琼,师宗县,655700,24.68019803,104.1294792
1851,1001540,（云南办）贵州省红果龚清兰,3012,云南独资办事处,贵州省六盘水市盘县红果农贸市场,龚清兰,红果县,553000,25.71202656,104.4735042
1852,1001541,云南省通海县卢增明,3012,云南独资办事处,云南省玉溪市通海县通华公路东村广播电视大楼斜对面,卢增明,530400,652700,24.12497243,102.7817002
1853,1001544,云南省宁洱县周世伦,3012,云南独资办事处,云南省普洱市宁洱县南大街,周世伦,宁洱县,666400,23.09735046,101.1968602
1854,1001545,云南省华宁县李德忠,3012,云南独资办事处,云南省玉溪市华宁县泉乡新城1栋全友家居,李德忠,华宁县,652800,24.28481231,102.9990677
1855,1001546,云南省新平县王芬,3012,云南独资办事处,云南省玉溪新平县新平大道14号天下行车城（全友家居）,王芬,新平县,663400,24.06940146,101.9935833
1856,1001548,云南省弥勒县柳永芝,3012,云南独资办事处,云南省红河哈尼族彝族自治州弥勒县9号路俊峰花园旁益华小区,柳永芝,弥勒县,652300,24.42133114,103.4446371
1857,1001550,云南省丘北县叶兆年,3012,云南独资办事处,云南省文山壮族苗族自治州邱北县锦屏镇文翠路文翠大楼,叶兆年,丘北县,663200,24.04708359,104.2021892
1858,1001551,云南省石屏县陈昆,3012,云南独资办事处,云南省红河哈尼族彝族自治州石屏县异龙镇钟秀街,陈昆,石屏县,662200,23.71626926,102.4948504
1859,1001552,云南省广南县谭敏,3012,云南独资办事处,云南省文山市广南县莲城镇莲城西路74号,谭敏,广南县,663300,24.05607582,105.0623057
1860,1001553,云南省麻栗坡县杨宁,3012,云南独资办事处,云南省文山壮族苗族自治州麻栗坡县沿河街A段1路1号路93号广电局旁,杨宁,麻栗坡县,663600,23.13898258,104.7091855
1861,1001555,云南省马关县王益兵,3012,云南独资办事处,云南省文山壮族苗族自治州马关县板子街老车站,王益兵,马关县,663700,23.01750592,104.4078866
1862,1001558,云南省泸西县何志春,3012,云南独资办事处,云南省泸西县阿庐大街泸港新城全友家居,何志春,泸西县,652300,24.56679324,103.7667325
1863,1003646,云南省景洪市董晓宇,3012,云南独资办事处,云南省西双版纳傣族自治州景洪市开发区山水云天商业广场,董晓宇,,,22.11141301,100.9273177
1864,1003796,云南省禄丰县吴建杰,3012,云南独资办事处,云南省楚雄州禄丰县金山镇小台子农副产品交易市场,吴建杰,,,25.13795558,102.0753792
1865,1003930,云南省楚雄州元谋县韩绍银,3012,云南独资办事处,云南省楚雄市元谋县人民代表大会常务委员会斜对面,韩绍银,,,25.03947029,101.553046
1866,1003560,云南省永胜县三川镇龚治英,3012,云南独资办事处,云南省永胜县三川镇金官街水果市场南面金泉宾馆旁,龚治英,,,26.75288743,100.6645197
1867,1003577,【定制销售本部】云南省罗平县李景,3012,云南独资办事处,云南省罗平县罗雄镇镇塘小区摩玛装饰,李景,,,24.8799225,104.3170079
1868,1003579,云南省南涧县张小花,3012,云南独资办事处,云南省大理市南涧县五洲商贸城4栋负一楼,张小花,,,25.69396662,100.219209
1869,1003587,云南省安宁县蔡业红,3012,云南独资办事处,云南省昆明市安宁县昆畹公路林梦家私城前100米,蔡业红,,,24.85235546,102.3911268
1870,1003439,云南省凤庆县黄晓成,3012,云南独资办事处,云南省临沧市凤庆县滇红中路,黄晓成,,,24.61050551,99.92091023
1871,1003588,云南省宜良县鲁腊花,3012,云南独资办事处,云南省昆明市宜良县匡远镇环城西路25号,鲁腊花,,,24.92162801,103.1489794
1872,1003607,云南省大关县翠华镇杨勇,3012,云南独资办事处,云南省大关县翠华镇文化街9号,杨勇,,,27.75469073,103.9006812
1873,1003373,【定制销售本部】云南省个旧市汪健,3012,云南独资办事处,云南省个旧市大桥建材城3楼17号,汪健,,,23.30569244,103.1491547
1874,1003507,云南省玉溪市鲁志军,3012,云南独资办事处,云南省玉溪市红塔区汇溪路溪园小区,鲁志军,,,24.35659326,102.5144016
1875,1003630,云南省景洪市勐龙镇玉叫,3012,云南独资办事处,云南省景洪市勐龙镇中心商业广场,玉叫,,,21.58570321,100.685932
1876,1003309,云南省腾冲县杜猛,3012,云南独资办事处,云南省腾冲县光华东路中房国际购物中心商场4楼,杜猛,,,25.27997812,98.49998832
1877,1003251,云南省砚山县平远镇黄拥超,3012,云南独资办事处,云南省文山市砚山县平远镇兴隆路42-1号,黄拥超,,,23.75257684,103.7925639
1878,1003855,云南省双江县彭军红,3012,云南独资办事处,云南省临沧市双江县大商汇建材市场,彭军红,,,23.46960141,99.88573802
1879,1003794,云南省昆明市北市区李隽,3012,云南独资办事处,云南省昆明市北市区霖雨路霖雨桥春之城,李隽,,,25.10110827,102.7404667
1880,1003862,云南省江城县刘敏,3012,云南独资办事处,云南省江城县外贸局院内,刘敏,,,22.62565765,101.7969292
1881,1003699,云南省保山市杜欢,3012,云南独资办事处,云南省保山市九龙路九隆新天地国际街区三楼,杜欢,,,25.12163562,99.17893803
1882,1003931,云南省宾川县张永婷,3012,云南独资办事处,云南省宾川县祥宁路滇西果蔬交易中心后面5幢,张永婷,,,25.87530743,100.6275377
1883,1002659,云南省盘溪镇王伟琼,3012,云南独资办事处,云南省玉溪市华宁县盘溪镇联通路68号,王伟琼,,,24.22801627,103.1092484
1884,1002707,云南省石林县陈其坤,3012,云南独资办事处,云南省昆明市石林县城安居一期石林全友专卖店,陈其坤,,,24.75430949,103.4273356
1885,1002934,云南省元江县伍炎芳,3012,云南独资办事处,云南省玉溪市元江县元红停车场内,伍炎芳,,,23.58622857,102.0188398
1886,1002699,云南省云县蒋洪珍,3012,云南独资办事处,云南省临沧市云县北河农贸市场,蒋洪珍,,,24.45537912,100.1352224
1887,1002920,云南省大理市下关杨柳,3012,云南独资办事处,云南省大理下关巍山路东段,杨柳,,,25.59455922,100.2530315
1888,1002704,云南省嵩明县秦武鹏,3012,云南独资办事处,云南省嵩明县乔华家居建材城A区1排全友家居,秦武鹏,,,25.31790018,103.006525
1889,1003308,云南省文山市张雄飞,3012,云南独资办事处,云南省文山市泰康小区泰康会所,张雄飞,,,23.35988887,104.2745053
1890,1003471,云南省沾益县徐祥锦,3012,云南独资办事处,云南省曲靖市沾益县九龙新苑12-14,徐祥锦,,,25.61651473,103.837466
1891,1003460,云南省耿马县孟定镇宋文新,3012,云南独资办事处,云南省临沧市耿马县孟定镇中缅路勐库路口对面,宋文新,,,23.56561964,99.09203442
1892,1003482,云南省南华县吴清珍,3012,云南独资办事处,云南省南华县南永路加油站旁(斗山村委会对面),吴清珍,,,25.10352267,101.0380122
1893,1003515,云南省昆明市西山区海口镇朱燕忠,3012,云南独资办事处,云南省昆明市西山区海口镇106号顺达购物广场,朱燕忠,,,24.79095814,102.6140948
1894,1003549,云南省景洪市勐罕镇李平,3012,云南独资办事处,云南省景洪市勐罕镇曼岗景路全友家居,李平,,,21.99515824,100.8073746
1895,1001579,云南省镇雄县陶建红,3012,云南独资办事处,云南省镇雄县龙井路全友家居,陶建红,镇雄县,657200,27.44678623,104.8824014
1896,1001580,云南省富宁县王荣华,3012,云南独资办事处,云南省文山壮族苗族自治州富宁县迎宾路富州百货城内,王荣华,富宁县,663400,23.63390101,105.6343917
1897,1001582,云南省弥渡县周忠,3012,云南独资办事处,云南省弥渡县毗江路亮湾建材城,周忠,弥渡县,675600,25.19110777,100.5818661
1898,1001595,云南省墨江县杜志军,3012,云南独资办事处,云南省思茅地区墨江县马场交易市场,杜志军,530800,665900,24.8642128,101.5929516
1899,1001597,云南省永德县毛勇,3012,云南独资办事处,云南省永德县生态园林步行商行街（县文化广场斜对面）,毛勇,永德县,677600,24.08957979,99.42763173
1900,1001600,云南省盈江县杜志军,3012,云南独资办事处,云南省德宏傣族景颇族自治州盈江县目瑙纵歌路原消防大队,杜志军,533100,665900,24.72055013,97.93238166
1901,1001601,云南省大姚县毛泽,3012,云南独资办事处,云南省楚雄彝族自治州大姚县步行街口(南门水井旁）,毛泽,大姚县,675400,25.94766991,101.2429131
1902,1001602,云南省绿春县陈士彬,3012,云南独资办事处,云南省红河哈尼族彝族自治州绿春县街心花园,陈士彬,绿春县,662500,23.00011728,102.4000486
1903,1001603,云南省维西傈僳族自治县先开祥,3012,云南独资办事处,云南省迪庆藏族自治州维西县小平街,先开祥,维西傈僳族自治县,674600,27.19119906,99.29126053
1904,1001604,云南省勐海县金迎春,3012,云南独资办事处,云南省景洪市勐海县佛海商业城,金迎春,勐海县,666200,24.8642128,101.5929516
1905,1001605,云南省兰坪白族普米族自治县龚天庆,3012,云南独资办事处,云南省怒江傈僳族自治州兰坪白族普米族自治县国税局斜对面商贸市场江头河,龚天庆,兰坪白族普米族自治县,671400,26.45531911,99.43149168
1906,1001197,（运城）山西省浮山县王胜利,3013,山西运城,山西省临汾市浮山县万佳福二楼,王胜利,浮山县,42600,35.94583077,111.9284089
1907,1001200,（运城）山西省运城市宁文龙,3013,山西运城,山西省运城市禹都大道鑫源美饰家,宁文龙,运城市,44300,35.05487141,111.0313234
1908,1003133,（运城）山西省芮城县袁建朋,3013,山西运城,山西省芮城县永乐南路原老电影院,袁建朋,,,34.69678422,110.6983997
1909,1001192,（运城）山西省侯马市李永杰,3013,山西运城,山西省临汾市侯马市新田路39号,李永杰,侯马市,43000,35.62275267,111.3818653
1910,1001196,（运城）山西省襄汾县杨建东,3013,山西运城,山西省襄汾县大运路交通大厦向北100米,杨建东,襄汾县,41500,35.88762209,111.4457297
1911,1001204,（运城）山西省临猗县荆会军,3013,山西运城,山西省临猗县合欢街荷花园西侧拐角处,荆会军,临猗县,44100,35.1493795,110.6258954
1912,1003531,（运城）山西省河津市杨九生,3013,山西运城,山西省河津市津辉建材城南转盘北,杨九生,,,35.63189105,110.7085393
1913,1001207,（运城）山西省万荣县畅东炜,3013,山西运城,山西省运城市万荣县宝鼎路全友家私,畅东炜,万荣县,44200,35.4242651,110.8537231
1914,1001208,山西省闻喜县张红琴,3013,山西运城,山西省运城市闻喜鸿泰家私城2楼,,闻喜县,43800,35.37375316,111.3192868
1915,1001209,（运城）山西省夏县尉军国,3013,山西运城,山西省运城市夏县新兴时尚广场地下室,尉军国,夏县,44400,35.14688595,111.2301773
1916,1001210,（运城）山西省新绛县李永杰,3013,山西运城,山西省新绛县海泉学校小学部南,李永杰,新绛县,43000,35.63578218,111.2123256
1917,1001212,（运城）山西省永济市范金炎,3013,山西运城,山西省运城市永济市银杏商厦三四楼,范金炎,永济市,44500,34.89467151,110.4889487
1918,1002164,（运城）山西省风陵渡镇崔建平,3013,山西运城,山西省运城市芮城县风陵渡镇商业步行街,崔建平,,,34.63521262,110.3191413
1919,1001205,（运城）山西省平陆县宁文龙,3013,山西运城,山西省运城市平陆县南大街金太阳购物广场,宁文龙,平陆县,44300,34.84157636,111.2248499
1920,2000132,【工程项目部】江西湖口县办公专区,6001,销售公司总部,江西省九江市湖口县华美立家广场,李树林,,,29.66806051,116.2925612
1921,2000139,【工程项目】苏州科技城社会事业服务中心项目,6001,销售公司总部,江苏省苏州市高新区科技城科霞路,张淑芹,,,31.32489005,120.5581215
1922,2000140,【工程项目】云南腾冲高黎贡会所,6001,销售公司总部,云南省腾冲县光华东路中房国际购物中心4楼,杜猛,,,25.27997812,98.49998832
1923,2000128,【工程项目】中金融投资有限公司项目,6001,销售公司总部,北京市朝阳区双子座大厦16层,黄行明,,,39.91346846,116.4551965
1924,2000157,新华加油站,6001,销售公司总部,锦江区跳蹬河街道多宝寺桥头,张友宽,,,30.60630182,104.1242694
1925,2000158,【工程项目部】国栋酒店项目,6001,销售公司总部,货物自提,胥淑群,,,0,0
1926,2000118,【工程项目】东方电机项目,6001,销售公司总部,四川省德阳市黄河西路188号,蒲昌清,,,31.15289644,104.3990958
1927,2000119,【工程项目】海南六次合同项目,6001,销售公司总部,海南省文昌市高龙湾“平海*逸龙湾”小区,吕洪奎,,,19.75094738,110.7809094
1928,2000127,【工程项目】百色供电局项目,6001,销售公司总部,广西省百色市右江区江南新区龙腾路百色供电局,熊柳锋,,,23.94186559,106.5055964
1929,2000134,【工程项目】湖北省罗田县法院项目,6001,销售公司总部,湖北省罗田县法院现场,汪仕霞,,,30.93237275,115.4810222
1930,2000137,【工程项目】连云港科研中心项目,6001,销售公司总部,江苏省连云港市徐圩新区科研中心专家楼,张敏,,,34.60154897,119.1738722
1931,2000142,【工程项目部】稷山龙门大厦酒店项目,6001,销售公司总部,山西省运城市河津市清涧龙门村,曹家滨,,,35.66667241,110.6407064
1932,2000148,【工程项目】宗申青年国际项目,6001,销售公司总部,重庆市巴南区宗申工业园,鄢华,,,29.44358762,106.5566688
1933,1003942,江苏省南京市金誉华昌物流（电子商务）,6001,销售公司总部,江苏省南京市栖霞区仙林东宝华镇和平路3号,徐锐,,,32.1083667,118.9281741
1934,2000121,【工程项目】山东淄矿项目,6001,销售公司总部,陕西省长武县高家堡矿井,赵宏斌,,,35.17058169,107.8347997
1935,2000123,【工程项目】28所项目,6001,销售公司总部,江苏省南京市苜蓿园东街1号,黄勇,,,32.04132933,118.8437981
1936,2000155,【工程项目】陕西省长武高家堡矿井招待所家具采购项目,6001,销售公司总部,陕西省咸阳市长武县高家堡煤矿,赵宏兵,,,35.17058169,107.8347997
1937,2000156,【工程项目】成都八益国际家居博览城管理有限公司,6001,销售公司总部,温江海峡科技产业园科兴路199号,左文英,,,30.66708536,103.8152797
1938,1003774,山东盛丰物流（电子商务）,6001,销售公司总部,山东省济南市济青高速公路零点立交桥西北侧盖世集团第二库区5-001,林家锋,,,36.68665089,117.0035534
1939,1003784,河南优嘉物流（电子商务）,6001,销售公司总部,河南省郑州市管城回族区南曹乡政府西100米传奇物流园内（电子商务）,宋伟,,,34.6744766,113.7595785
1940,2000141,【工程项目】云南省花之城酒店项目,6001,销售公司总部,云南省昆明市西山区滇池路,杨雁鸣,,,24.99945888,102.6702753
1941,2000152,【工程项目】北京金融街.融汇项目,6001,销售公司总部,河北省香河县淑阳工业园秀水街南侧（全友家私库房）工程项目,朱吉男,,,39.76028994,117.0259451
1942,2000153,【工程项目】河南省焦作市郜立忠,6001,销售公司总部,河南省焦作市人民大道西段都市御苑,郜立忠,,,35.23460755,113.2118359
1943,2000120,【工程项目】四川金康电力项目,6001,销售公司总部,四川省成都市武侯区八一家具城“西典办公家具”,冯振余,,,30.61288179,104.0412402
1944,2000122,菲律宾马尼拉Westgate店,6001,销售公司总部,菲律宾马尼拉,YanwuWu,,,0,0
1945,2000129,【工程项目】光和木业项目,6001,销售公司总部,四川省邛崃市羊安镇工业园区光和木业有限公司,李勇,,,30.40022159,103.7054881
1946,1003743,广州优嘉物流（电子商务）,6001,销售公司总部,广东省广州市番禺区大石镇石南二路3号广宇物流园A1仓,张文进,,,23.01342922,113.3002701
1947,2000138,【工程项目【四川首创环境投资有限公司家具采购项目,6001,销售公司总部,四川省成都市武侯区银海芯座b栋304室,张星明,,,30.59472962,104.0913256
1948,2000154,【工程项目】西安海关办公家具项目,6001,销售公司总部,陕西省西安市唐延路19号,陈明生,,,34.23045584,108.8966073
1949,1003670,浙江盛丰物流（电子商务）,6001,销售公司总部,浙江省杭州市农副产品物流中心博园路9号浙江正北物流内(中石化加油站旁）,范俊品,,,30.20835511,119.4045451
1950,2000133,【工程项目】西安铁路局项目,6001,销售公司总部,陕西省西安市友谊东路33号,许竞友,,,34.24793405,108.9855932
1951,2000135,【工程项目】龙湖时代天街精品房项目,6001,销售公司总部,四川省成都市高新西区合作路89号,赵学峰,,,30.78365992,103.9012431
1952,1001700,云南独资办事处,6001,销售公司总部,云南省昆明市官渡区小板桥镇大羊埔村羊兴加油站对面全友家私昆明办事处,应淑华,,,24.97343471,102.7858835
1953,2000053,南通鑫湖精装房项目,6001,销售公司总部,江苏省南通市市区,姚骏,,,32.01466454,120.873801
1954,1001693,河南独资办事处,6001,销售公司总部,河南省郑州市郑东新区康庄村,熊平,,,34.78149209,113.7409056
1955,30001,崇州直营店,6001,销售公司总部,成都市崇州西门车站斜对面,,,,30.71964092,103.5294669
1956,30002,温江直营店,6001,销售公司总部,成都市温江云溪路４３号（新夜市旁）,颜敏,,,30.70632044,103.8400749
1957,30003,成都玉带桥直营店,6001,销售公司总部,成都市武侯区文昌中段四路文昌村1组,,,,30.60445516,103.9937451
1958,30009,成都八一直营店,6001,销售公司总部,成都市武侯区文昌中段四路文昌村1组,,,,30.60445516,103.9937451
1959,30010,四川省江油市直营店,6001,销售公司总部,四川省江油市江障大道江东地磅房全友库房,,,,31.95242667,104.9331493
1960,2000007,越南太原阮太明,6001,销售公司总部,越南太原专卖店,阮太明,,,37.89027705,112.5508636
1961,2000018,ASOEM,6001,销售公司总部,ASOEM,刘敏,,,0,0
1962,2000037,马来西亚吉隆坡张纹伟,6001,销售公司总部,马来西亚吉隆坡专卖店,张纹伟,,,22.28214776,114.1826773
1963,2000042,重庆家纺城姚骏,6001,销售公司总部,重庆市渝北区服装城大道48好（重庆家纺城）,姚骏,,,29.67262522,106.6173528
1964,2000050,（工程项目）江苏经典房地产墨庄项目王庆,6001,销售公司总部,江苏省句容市全友家私,王庆,,,31.94243074,119.1715049
1965,2000057,海南省文昌市“平海.逸龙湾“三期,6001,销售公司总部,海南省文昌市,陈工,,,19.75094738,110.7809094
1966,2000027,广东省深圳市康莱德家居用品有限公司王占凤,6001,销售公司总部,广东省深圳市光明新区松柏路万世芳商业广场二楼和三楼,王占凤,,,22.76911585,113.9538039
1967,30020,四川省成都市大邑县直营店,6001,销售公司总部,四川省成都市大邑县内蒙古大道润驰国际广场2、3楼,周金龙,,,30.58086198,103.5265213
1968,2000062,云南平原项目杜志军,6001,销售公司总部,云南省德宏州盈江县平原镇目瑙纵歌路3-1（全友家居）,杜志军,,,24.72055013,97.93238166
1969,30021,温江、崇州、大邑直营店,6001,销售公司总部,崇州市崇阳镇红桥村交叉路口,,,,30.62344411,103.6638983
1970,2000032,（工程项目）海南省文昌市“平海。逸龙湾”二期陈诗武,6001,销售公司总部,海南省文昌市高隆湾平海逸龙湾,陈诗武,,,19.54266737,110.8269901
1971,2000067,四川省成都市焦点合安物联网有限公司李秋红,6001,销售公司总部,四川省成都市益州大道中段1800号,李秋红,,,30.57420212,104.0646505
1972,2000069,润森银河酒店李蓉,6001,销售公司总部,四川省绵阳市临园西路37号,李蓉,,,31.4613192,104.7162576
1973,2000076,贵州省黄果树金叶科技有限公司宿舍家具,6001,销售公司总部,贵州省安顺市经济技术开发区宋旗镇,陈静,,,26.23916382,105.8823763
1974,2000084,广东省阳江市保利精装房,6001,销售公司总部,广东省阳江市海陵区闸坡镇保利银滩A区,黄文敖,,,21.58165989,111.8425407
1975,2000087,西安昆仑工业（集团）有限责任公司,6001,销售公司总部,陕西省西安市新城区幸福北路67号,许竞友,,,34.28938109,109.022974
1976,1003359,羊马展厅陈志全,6001,销售公司总部,四川省崇州市羊马,陈志全,,,30.66827179,103.7522959
1977,2000088,四川省城市建设工程监理有限公司,6001,销售公司总部,四川省成都市蜀都中心,舒煜林,,,30.55768019,104.0724921
1978,1003453,山东宇佳三方货运（电子商务）,6001,销售公司总部,山东省济南市天桥区二环北路大鲁庄宇佳物流园3号院,甄建彬,,,36.73322499,116.9558977
1979,2000098,【工程项目】湖南冷水滩工程项目,6001,销售公司总部,湖南省永州市冷水滩区,杨艳辉,,,26.56038168,111.6215856
1980,2000099,【工程项目】奇瑞汽车股份有限公司鄂尔多斯分公司项目,6001,销售公司总部,内蒙古鄂尔多斯市东胜区鄂尔多斯市装备制造基地通北三街8号,王金良,,,39.80558591,109.7644193
1981,30036,成都科华、八益、玉带桥直营店,6001,销售公司总部,四川省成都市武侯区金航路73号,魏文坤,,,30.59835343,103.977355
1982,1003436,广州百唯优物流（电子商务）,6001,销售公司总部,广州市番禺区大石街会江村石南二路广宇物流J1仓百唯优物流,张彪,,,23.01571423,113.301197
1983,1003495,福建盛丰物流（电子商务）,6001,销售公司总部,福建省福州市晋安区福新东路478号福建盛丰物流集团有限公司,康正浩,,,26.08848347,119.3677721
1984,2000102,【工程项目】江苏省家明家俱制造有限公司,6001,销售公司总部,江苏省苏州市苏州工业园区乐龄公寓现场,朱刚,,,31.32372079,120.7274374
1985,1003552,广西中邮物流（电子商务）,6001,销售公司总部,广西省南宁市西乡塘区安吉大道40号（邮件处理中心大院）,张恒,,,22.88284059,108.3045669
1986,2000105,【工程项目}海南五次合同项目,6001,销售公司总部,海南省文昌市,吕洪奎,,,19.75094738,110.7809094
1987,1003581,合肥徽运商通货运（电子商务）,6001,销售公司总部,安徽省合肥市新蚌埠路（合白路九公里）光太仓库,夏家新,,,31.55035421,117.2198631
1988,2000106,【工程项目】河南开封水利局项目牛丽琳,6001,销售公司总部,河南省开封市马市街49号,牛丽琳,,,34.80352107,114.3343392
1989,2000082,国贸工程成都办,6001,销售公司总部,成都市武侯区草金路37号全友家私营销中心,吴滔,,,30.64813923,103.9763472
1990,2000089,无限极（中国）有限公司,6001,销售公司总部,广东省江门市新会区会城镇七堡工贸城北区三号,林奇锋,,,22.52999828,113.0422137
1991,1003435,海尔物流（电子商务）,6001,销售公司总部,上海市闵行区昆阳路59号,赵静,,,31.0057747,121.375313
1992,2000097,【工程项目】海南四次合同项目吕洪奎,6001,销售公司总部,海南省文昌市,吕洪奎,,,19.75094738,110.7809094
1993,2000104,【工程项目】神东矿业项目,6001,销售公司总部,陕西省榆林市神木县大柳塔镇神东小区,张英辉,,,39.27708019,110.2392826
1994,1003580,红星美凯龙（电子商务）,6001,销售公司总部,广东省佛山市南海区九江镇龙高路钢铁市场B15幢,常丽莉,,,23.06602819,113.1825768
1995,1003593,陕西恒大运输（电子商务）,6001,销售公司总部,陕西省西安市新城区八付庄小区8号楼4单元401室,龙正华,,,34.27147378,108.9915387
1996,2000108,【工程项目】松原鑫宇项目,6001,销售公司总部,吉林省松原市宁江区飞宇家具城三楼1厅,孙喜文,,,45.12349756,124.8199315
1997,2000109,【工程项目】湖北大悟县卫生局办公大楼项目,6001,销售公司总部,湖北省孝感市大悟县卫生局,蔡家太,,,31.57825525,114.3102995
1998,1003627,广西华晨物流（电子商务）,6001,销售公司总部,广西南宁市沙井大道定津路尾同乐农贸市场旁边,韦静,,,22.81267511,108.2560163
1999,2000083,国贸工程电子商务,6001,销售公司总部,成都市全友家私营销中心,许鹤翔,,,30.64813923,103.9763472
2000,2000092,【工程项目】唐山翼东宿舍大楼项目,6001,销售公司总部,北京市通州区次渠镇光机电一体化产业基地翼东发展科技大厦,杨正勇,,,39.86131266,116.7284669
2001,2000100,【工程项目】重庆康田商贸劳务公司,6001,销售公司总部,重庆市沙坪坝西永微电子产业园区管委会对面康田国际企业港,萧朝龙,,,29.607847,106.3822569
2002,1003516,小件商品（电子商务）,6001,销售公司总部,四川省成都市武侯区草金路37号,任佗,,,30.64819329,103.9761016
2003,2000103,【工程项目】小湾电厂项目,6001,销售公司总部,云南省大理市南涧县小湾东镇小湾电厂营地,杨雁鸣,,,24.68212777,100.0890873
2004,1003566,江苏中外运物流（电子商务）,6001,销售公司总部,江苏省南京市新港大道66号院内,顾洪,,,32.17372182,118.8851063
2005,2000107,【工程项目】黄桥中学项目,6001,销售公司总部,江苏省如皋市黄桥中学,孙茂林,,,32.27361627,120.580144
2006,2000112,【工程项目】吕梁中学项目,6001,销售公司总部,山西省吕梁市离石区吕梁高级中学,薛月明,,,37.5423267,111.1624667
2007,2000113,【工程项目】川航项目,6001,销售公司总部,成都市高新区西部园区新文路1号,郭峰,,,30.59818682,104.0725134
2008,2000114,快一步装饰工程有限公司重庆市易建华,6001,销售公司总部,重庆市渝中区菜袁路168号江屿朗廷地产2楼,林育丽,,,29.54210526,106.5352831
2009,2000117,【工程项目】上海市嘉福汇项目,6001,销售公司总部,上海市嘉定区塔城路271号,徐炜,,,31.38987431,121.2636357
2010,2000072,广州百唯优物流（电子商务）弃用,6001,销售公司总部,广州市番禺区大石街会江村石南二路广宇物流J1仓百唯优物流,张彪,,,23.01571423,113.301197
2011,2000073,海尔物流（电子商务）弃用,6001,销售公司总部,上海市闵行区昆阳路59号,赵静,,,31.0057747,121.375313
2012,2000075,（工程项目部）西藏游旅股份有限公司,6001,销售公司总部,西藏自治区林芝地区米林县派镇雅鲁藏布大峡谷景区内江边酒店,马跃,,,29.51789361,94.88858896
2013,2000002,ASMYA001-BK,6001,销售公司总部,缅甸邦康将军路新佤龙大厦全友专卖店（云南孟连）,屈芳琴,,,24.8642128,101.5929516
2014,2000068,马来西亚丁加奴林秋祥,6001,销售公司总部,马来西亚丁加奴,林秋祥,,,22.28214776,114.1826773
2015,2000003,ASNEP001-KTD,6001,销售公司总部,"DRNTOWER,KATHMANDU,NEPAL",屈芳琴,,,,
